id,sno,state,city,format_type,store_code,store_name,company_name,gst_in,state_code,address,superwisor,coordinator,afm,ship_ddress,ship_name,ship_state,ship_gst,costcenter
,1,Telangana,Sangareddy,Smart,2925,Sangareddy,Reliance Projects & Property Management Services Limited,36AAJCR6636B1ZD,36,"Degloor Road · Plot No 3, Sy No 205/2, 206/1 Ahmed Nagar Sangareddy, 502001",Sravan kumar,Sravan kumar,Amarender Reddy,"Degloor Road · Plot No 3, Sy No 205/2, 206/1 Ahmed Nagar Sangareddy, 502001",Reliance Projects & Property Management Services Limited,Telangana,36AAJCR6636B1ZD,Sangareddy
,2,Telangana,Hyderabad,Digital,8827,Madinaguda,Reliance Projects & Property Management Services Limited,36AAJCR6636B1ZD,36,", Reliance Digital Madinaguda Hyderabad, Satyanarayan Enclave, NH 9 Madinaguda Hyderabad, Telangana - 500032",Sravan kumar,Sravan kumar,Amarender Reddy,", Reliance Digital Madinaguda Hyderabad, Satyanarayan Enclave, NH 9 Madinaguda Hyderabad, Telangana - 500032",Reliance Projects & Property Management Services Limited,Telangana,36AAJCR6636B1ZD,Hyderabad
,3,Telangana,Hyderabad,Trends Footwear,8149,Madinaguda,Reliance Projects & Property Management Services Limited,36AAJCR6636B1ZD,36,"SM:Azam-9177701328,""Satyanarayana Enclave, Sy.Nos.105 & 106/AA, Madinaguda Village, Serilingampally Mandal & Municipality, Ranga Reddy Dist.",Sravan kumar,Sravan kumar,Amarender Reddy,"SM:Azam-9177701328,""Satyanarayana Enclave, Sy.Nos.105 & 106/AA, Madinaguda Village, Serilingampally Mandal & Municipality, Ranga Reddy Dist.",Reliance Projects & Property Management Services Limited,Telangana,36AAJCR6636B1ZD,Hyderabad
,4,Telangana,Hyderabad,Centro,F1LI,GSM Mall,V Retail Limited,36AACCV9907G1Z2,36,"Miyapur, Hyderabad · Survey No 44/1, Rangareddy, Serilingampally Miyapur Hyderabad, Telangana - 500049",Vijay pramod,Vijay pramod,Amarender Reddy,"Miyapur, Hyderabad · Survey No 44/1, Rangareddy, Serilingampally Miyapur Hyderabad, Telangana - 500049",V Retail Limited,Telangana,36AACCV9907G1Z2,Hyderabad
,5,Telangana,Hyderabad,Fashion Factory,F1XD,Lingampally,Reliance Projects & Property Management Services Limited,36AAJCR6636B1ZD,36,"BF-HYDERABAD-LINGAMPALLY-RAMAC,LINGAMPALLY CROSS ROAD,OP:BHEL MAIN GATE,BESIDE MALLIKARJUNA SERST(HP PETROLPUMP),HYDERABAD-502032",Sravan kumar,Sravan kumar,Amarender Reddy,"BF-HYDERABAD-LINGAMPALLY-RAMAC,LINGAMPALLY CROSS ROAD,OP:BHEL MAIN GATE,BESIDE MALLIKARJUNA SERST(HP PETROLPUMP),HYDERABAD-502032",Reliance Projects & Property Management Services Limited,Telangana,36AAJCR6636B1ZD,Hyderabad
,6,Telangana,Korutla,Smart Point,FR6K,Koratla,Reliance Projects & Property Management Services Limited,36AAJCR6636B1ZD,36,"VLT NO 1-4-200/1,Desai Nagar, Korutla - 505326",M Shivaji,M Shivaji,Amarender Reddy,"VLT NO 1-4-200/1,Desai Nagar, Korutla - 505326",Reliance Projects & Property Management Services Limited,Telangana,36AAJCR6636B1ZD,Korutla
,7,Telangana,Jagityal,Smart Point,FR9I,Jagityal,Reliance Projects & Property Management Services Limited,36AAJCR6636B1ZD,36,"Plot-12&13,Mothe,Dharmapuri Bypass Road, Jagityal - 505327",M Shivaji,M Shivaji,Amarender Reddy,"Plot-12&13,Mothe,Dharmapuri Bypass Road, Jagityal - 505327",Reliance Projects & Property Management Services Limited,Telangana,36AAJCR6636B1ZD,Jagityal
,8,Telangana,Hyderabad,Milk Basket DC,TXJA,Patancheru (9008),Qwik Supply Chain Private Limited,36AAACF5232A1ZA,36,"MB Hyderabad,Reliance Retail Limited,""Plot No.11 To 15, Sy No.860 And 861"",""Industrial Development Area,Phase-Iv "",""Patancheru, Medak"",Hyderabad-502319",Sravan kumar,Sravan kumar,Amarender Reddy,"MB Hyderabad,Reliance Retail Limited,""Plot No.11 To 15, Sy No.860 And 861"",""Industrial Development Area,Phase-Iv "",""Patancheru, Medak"",Hyderabad-502319",Qwik Supply Chain Private Limited,Telangana,36AAACF5232A1ZA,Hyderabad
,9,Telangana,Jagityal,Digital,T1JO,Krishna Nagar,Reliance Projects & Property Management Services Limited,36AAJCR6636B1ZD,36,"RRL CDIT- Krishna Nagar, D N 1-2-48 Main Road, Angadi Bazar Jagtiyal Town, Telegana 505327",M Shivaji,M Shivaji,Amarender Reddy,"RRL CDIT- Krishna Nagar, D N 1-2-48 Main Road, Angadi Bazar Jagtiyal Town, Telegana 505327",Reliance Projects & Property Management Services Limited,Telangana,36AAJCR6636B1ZD,Jagityal
,10,Telangana,Medak,Trends Small Town,T80R,Ramayanpet,Reliance Projects & Property Management Services Limited,36AAJCR6636B1ZD,36,"H No 16 32/3 Sy No 71/B Gf & Ff, Siddipet Road, Medak, Ramayampet 502101, TG",Sravan kumar,Sravan kumar,Amarender Reddy,"H No 16 32/3 Sy No 71/B Gf & Ff, Siddipet Road, Medak, Ramayampet 502101, TG",Reliance Projects & Property Management Services Limited,Telangana,36AAJCR6636B1ZD,Medak
,11,Telangana,Hyderabad,Centro Shoes,T9IE,Centro Chandanagar,V Retail Limited,36AACCV9907G1Z2,36,"2-108/A/B PLOT NO 92, SRIRAM NAGAR COLONY,CHANDA NAGAR,HYDERABAD,500050.",Sravan kumar,Sravan kumar,Amarender Reddy,"2-108/A/B PLOT NO 92, SRIRAM NAGAR COLONY,CHANDA NAGAR,HYDERABAD,500050.",V Retail Limited,Telangana,36AACCV9907G1Z2,Hyderabad
,12,Telangana,Hyderabad,Centro Shoes,T9KL,Shoe Store GSM Mall,V Retail Limited,36AACCV9907G1Z2,36,"Unit No. 01 SY No. 99 Part A and SY No.100 Part, Second Floor, GSM MALL CUM MULTIPLEX,Madinaguda, Serilingampally Mandal, Rangareddy, Telangana, 500049",Sravan kumar,Sravan kumar,Amarender Reddy,"Unit No. 01 SY No. 99 Part A and SY No.100 Part, Second Floor, GSM MALL CUM MULTIPLEX,Madinaguda, Serilingampally Mandal, Rangareddy, Telangana, 500049",V Retail Limited,Telangana,36AACCV9907G1Z2,Hyderabad
,13,Telangana,SANGAREDDY,Digital,T9RJ,SANGAREDDY,Reliance Projects & Property Management Services Limited,36AAJCR6636B1ZD,36,"Building? Bearing Plot No 3 Covered, By Sy No 205/2206/1 In The Situated At, Sangareddy Town Mandal, SANGAREDDY 502001",Sravan kumar,Sravan kumar,Amarender Reddy,"Building? Bearing Plot No 3 Covered, By Sy No 205/2206/1 In The Situated At, Sangareddy Town Mandal, SANGAREDDY 502001",Reliance Projects & Property Management Services Limited,Telangana,36AAJCR6636B1ZD,SANGAREDDY
,14,Telangana,Hyderabad,Trends Small Town,TAN2,Chanda nagar,Reliance Projects & Property Management Services Limited,36AAJCR6636B1ZD,36,"Reliance Retail Ltd, Sy No 160/A,Chandanagar, Serilingampalli Mandal, Dist.Rangareddy, Telangana - 500050",Sravan kumar,Sravan kumar,Amarender Reddy,"Reliance Retail Ltd, Sy No 160/A,Chandanagar, Serilingampalli Mandal, Dist.Rangareddy, Telangana - 500050",Reliance Projects & Property Management Services Limited,Telangana,36AAJCR6636B1ZD,Hyderabad
,15,Telangana,Hyderabad,Trends,TAUE,Beeramguda,Reliance Projects & Property Management Services Limited,36AAJCR6636B1ZD,36,"To Reliance Trends store, SS ARCADE Ammenpur ,SY No 984/B, Ammenpur Village & Mandal. -502032, Sanga Reddy, Telangana",Sravan kumar,Sravan kumar,Amarender Reddy,"To Reliance Trends store, SS ARCADE Ammenpur ,SY No 984/B, Ammenpur Village & Mandal. -502032, Sanga Reddy, Telangana",Reliance Projects & Property Management Services Limited,Telangana,36AAJCR6636B1ZD,Hyderabad
,16,Telangana,Hyderabad,Hamleys,TJU3,GSM Mall,Reliance Brands Limited,36AADCR7395F1Z1,36,"Anchor Part, Fourth Floor, GSM Mall Cum Multiplex, Survey No.99 Part A and Survey No.100 Part, Madinaguda, Serillingampally Mandal, R.R. District, Chand Nagar, Hyderabad, Telangana-500050",Sravan kumar,Sravan kumar,Amarender Reddy,"Anchor Part, Fourth Floor, GSM Mall Cum Multiplex, Survey No.99 Part A and Survey No.100 Part, Madinaguda, Serillingampally Mandal, R.R. District, Chand Nagar, Hyderabad, Telangana-500050",Reliance Brands Limited,Telangana,36AADCR7395F1Z1,Hyderabad
,17,Telangana,Korutla,Trends Small Town,TL89,Koratla,Reliance Projects & Property Management Services Limited,36AAJCR6636B1ZD,36,"RRL Trends Express Koratla,GOVINDAGIRI NAGAR, KORUTLA,JAGITYAL DISTRICT Telangana,Koratla-505326",M Shivaji,M Shivaji,Amarender Reddy,"RRL Trends Express Koratla,GOVINDAGIRI NAGAR, KORUTLA,JAGITYAL DISTRICT Telangana,Koratla-505326",Reliance Projects & Property Management Services Limited,Telangana,36AAJCR6636B1ZD,Korutla
,18,Telangana,Metpally,Trends Small Town,TLU9,Metpally,Reliance Projects & Property Management Services Limited,36AAJCR6636B1ZD,36,"RRL, Trends Small Town, Reliance Retail Limited, D.no. 1-8-252, Old Bus stand Road, Near Anand Shopping Mall, Metpally, Telangana - 505325",M Shivaji,M Shivaji,Amarender Reddy,"RRL, Trends Small Town, Reliance Retail Limited, D.no. 1-8-252, Old Bus stand Road, Near Anand Shopping Mall, Metpally, Telangana - 505325",Reliance Projects & Property Management Services Limited,Telangana,36AAJCR6636B1ZD,Metpally
,19,Telangana,Hyderabad,SP Pharma SIS,TNQ8,Uskabavi Village,Reliance Retail Ventures Limited,36AADCR6715M1Z0,36,"SP Pharma Uskabavi Village Hyd,Plot No 5 Sy Nos 944/A 941/A1 898/D in Uskabavi Village Ameenpur Municipality & Sangareddy District,HYDERABAD-502032",Sravan kumar,Sravan kumar,Amarender Reddy,"SP Pharma Uskabavi Village Hyd,Plot No 5 Sy Nos 944/A 941/A1 898/D in Uskabavi Village Ameenpur Municipality & Sangareddy District,HYDERABAD-502032",Reliance Retail Ventures Limited,Telangana,36AADCR6715M1Z0,Hyderabad
,20,Telangana,Hyderabad,SP Pharma SIS,TNX0,Ameenpur Village,Reliance Retail Ventures Limited,36AADCR6715M1Z0,36,"SP Pharma Ameenpur Village,Plot No 7822 & 23 covered by Sy No 442,574/ Part 575 578 Ameenpur Village &Mandal Sangareddy Distrcit,HYDERABAD-502032",Sravan kumar,Sravan kumar,Amarender Reddy,"SP Pharma Ameenpur Village,Plot No 7822 & 23 covered by Sy No 442,574/ Part 575 578 Ameenpur Village &Mandal Sangareddy Distrcit,HYDERABAD-502032",Reliance Retail Ventures Limited,Telangana,36AADCR6715M1Z0,Hyderabad
,21,Telangana,Hyderabad,Foot print SIS,TPG4,GSM Mall,Reliance Projects & Property Management Services Limited,36AAJCR6636B1ZD,36,"RRL FIF GSM Mall Hyderabad,Reliance Retail Limited,AP SM HYD 268,GSM Mall Miyapur Main Road,MadinagudaChandanagar,HYDERABAD-500050",Sravan kumar,Sravan kumar,Amarender Reddy,"RRL FIF GSM Mall Hyderabad,Reliance Retail Limited,AP SM HYD 268,GSM Mall Miyapur Main Road,MadinagudaChandanagar,HYDERABAD-500050",Reliance Projects & Property Management Services Limited,Telangana,36AAJCR6636B1ZD,Hyderabad
,22,Telangana,Jagityal,Trends,TQE6,Jagityal,Reliance Projects & Property Management Services Limited,36AAJCR6636B1ZD,36,Groundfirstsecond And Third Floors Covered By Door No 1 5 Ka0006 Sy No 146/A Situate In Jagtiyal Town And Mandal505327,M Shivaji,M Shivaji,Amarender Reddy,Groundfirstsecond And Third Floors Covered By Door No 1 5 Ka0006 Sy No 146/A Situate In Jagtiyal Town And Mandal505327,Reliance Projects & Property Management Services Limited,Telangana,36AAJCR6636B1ZD,Jagityal
,23,Telangana,Hyderabad,Trends,TR93,GSM Mall,Reliance Projects & Property Management Services Limited,36AAJCR6636B1ZD,36,"RRL Trends GSM Mall Hyderabad,Reliance Retail Limited,GSM Mall Miyapur Main Road,Madinaguda Chandanagar-500050,HYDERABAD",Sravan kumar,Sravan kumar,Amarender Reddy,"RRL Trends GSM Mall Hyderabad,Reliance Retail Limited,GSM Mall Miyapur Main Road,Madinaguda Chandanagar-500050,HYDERABAD",Reliance Projects & Property Management Services Limited,Telangana,36AAJCR6636B1ZD,Hyderabad
,24,Telangana,Sangareddy,Trends,TS18,Sangareddy,Reliance Projects & Property Management Services Limited,36AAJCR6636B1ZD,36,"Trends Sangareddy,Reliance retail limited,SY No.139 pottireddypalli,sangareddy mandal,sangareddy-502295",Sravan kumar,Sravan kumar,Amarender Reddy,"Trends Sangareddy,Reliance retail limited,SY No.139 pottireddypalli,sangareddy mandal,sangareddy-502295",Reliance Projects & Property Management Services Limited,Telangana,36AAJCR6636B1ZD,Sangareddy
,25,Telangana,Toopran,Trends Small Town,TTO8,Toopran,Reliance Projects & Property Management Services Limited,36AAJCR6636B1ZD,36,"RRL, Trends Small Town, Reliance Retail Limited, D.no. 13-44/3/B, Toopran Town and Mandal, Medak, Telangana - 502334",Sravan kumar,Sravan kumar,Amarender Reddy,"RRL, Trends Small Town, Reliance Retail Limited, D.no. 13-44/3/B, Toopran Town and Mandal, Medak, Telangana - 502334",Reliance Projects & Property Management Services Limited,Telangana,36AAJCR6636B1ZD,Toopran
,26,Telangana,Sangareddy,Foot print SIS,TW98,Sangareddy,Reliance Projects & Property Management Services Limited,36AAJCR6636B1ZD,36,"RRL FIF Sangareddy,Reliance Retail Limited,Sy No 139 Potireddypally,Sangareddy,Sangareddy Mandal-502295",Sravan kumar,Sravan kumar,Amarender Reddy,"RRL FIF Sangareddy,Reliance Retail Limited,Sy No 139 Potireddypally,Sangareddy,Sangareddy Mandal-502295",Reliance Projects & Property Management Services Limited,Telangana,36AAJCR6636B1ZD,Sangareddy
,27,Telangana,Metpally,SP Pharma SIS,TWHN,Venkatraopet Metpally,Reliance Retail Ventures Limited,36AADCR6715M1Z0,36,"Venkatravpet matpally SP,metpally,NH-63 Road,Telangana,Pin:-505325",M Shivaji,M Shivaji,Amarender Reddy,"Venkatravpet matpally SP,metpally,NH-63 Road,Telangana,Pin:-505325",Reliance Retail Ventures Limited,Telangana,36AADCR6715M1Z0,Metpally
,28,Telangana,Bhramanwadi Jagtial,SP Pharma SIS,TWIO,Bhramanwadi Jagtial,Reliance Retail Ventures Limited,36AADCR6715M1Z0,36,Groundfirstsecond And Third Floors Covered By Door No 1 5 Ka0006 Sy No 146/A Situate In Jagtiyal Town And Mandal505327,Sravan kumar,Sravan kumar,Amarender Reddy,Groundfirstsecond And Third Floors Covered By Door No 1 5 Ka0006 Sy No 146/A Situate In Jagtiyal Town And Mandal505327,Reliance Retail Ventures Limited,Telangana,36AADCR6715M1Z0,Bhramanwadi Jagtial
,29,Telangana,Sangareddy,Trends Small Town,TX5Y,Narayankhed,Reliance Projects & Property Management Services Limited,36AAJCR6636B1ZD,36,"To Relinace Trends,Ho no : 1-9-165/9/3,Basaveshwar Chowck,Kharsgutti road,Narayankhed ,Dist: Sangareddy,State: Telangana,Pin : 502286",Sravan kumar,Sravan kumar,Amarender Reddy,"To Relinace Trends,Ho no : 1-9-165/9/3,Basaveshwar Chowck,Kharsgutti road,Narayankhed ,Dist: Sangareddy,State: Telangana,Pin : 502286",Reliance Projects & Property Management Services Limited,Telangana,36AAJCR6636B1ZD,Sangareddy
,30,Telangana,Hyderabad,Kalanikethan,TY5U,Chanda Nagar,Reliance Projects & Property Management Services Limited,36AAJCR6636B1ZD,36,"KFPL CHANDANAGAR VRK,Reliance Retail Limited,Tekar S Shopping Mall 2 105/1/9 2 105/1,Plot No 205 Near Gangaram,Bus Stand Chandanagar Nh 9 Ghmc,Hyderabad-500050",Sravan kumar,Sravan kumar,Amarender Reddy,"KFPL CHANDANAGAR VRK,Reliance Retail Limited,Tekar S Shopping Mall 2 105/1/9 2 105/1,Plot No 205 Near Gangaram,Bus Stand Chandanagar Nh 9 Ghmc,Hyderabad-500050",Reliance Projects & Property Management Services Limited,Telangana,36AAJCR6636B1ZD,Hyderabad
,31,Telangana,Hyderabad,Kalanikethan,TY9M,Chanda Nagar,Reliance Projects & Property Management Services Limited,36AAJCR6636B1ZD,36,"KFPL Chanda Nagar Kamakshi,Reliance Retail Limited,H No 2 108/A/2/2 And 2 108/A/21,H No 2 108/A/2/2 And 2 108/A/21,Mora Padma Reddy Complex,Icrisat Colony Chandanagar Nh 9,Hyderabad-500050",Sravan kumar,Sravan kumar,Amarender Reddy,"KFPL Chanda Nagar Kamakshi,Reliance Retail Limited,H No 2 108/A/2/2 And 2 108/A/21,H No 2 108/A/2/2 And 2 108/A/21,Mora Padma Reddy Complex,Icrisat Colony Chandanagar Nh 9,Hyderabad-500050",Reliance Projects & Property Management Services Limited,Telangana,36AAJCR6636B1ZD,Hyderabad
,32,Telangana,Jagityal,Smart Point,U11W,Jagityal,Reliance Projects & Property Management Services Limited,36AAJCR6636B1ZD,36,Bhramanwadi Jagtial Hari Bhagwans Property Bhramanwadi Near Goutham Model School Old Bus Stand Jagtial Telangana-505327,M Shivaji,M Shivaji,Amarender Reddy,Bhramanwadi Jagtial Hari Bhagwans Property Bhramanwadi Near Goutham Model School Old Bus Stand Jagtial Telangana-505327,Reliance Projects & Property Management Services Limited,Telangana,36AAJCR6636B1ZD,Jagityal
,33,Telangana,Hyderabad,Smart Point,U193,Ameenpur Village,Reliance Projects & Property Management Services Limited,36AAJCR6636B1ZD,36,"Plot No 7822 & 23 covered by Sy No 442, 574/ Part 575 578 Ameenpur Village & Mandal Sangareddy Distrcit HYDERABAD 502032 Telangana",Sravan kumar,Sravan kumar,Amarender Reddy,"Plot No 7822 & 23 covered by Sy No 442, 574/ Part 575 578 Ameenpur Village & Mandal Sangareddy Distrcit HYDERABAD 502032 Telangana",Reliance Projects & Property Management Services Limited,Telangana,36AAJCR6636B1ZD,Hyderabad
,34,Telangana,Metpally,Smart Point,U1JQ,Metpally,Reliance Projects & Property Management Services Limited,36AAJCR6636B1ZD,36,"Venkatravpet matpally SP,metpally,NH-63 Road,Telangana,Pin:-505325",M Shivaji,M Shivaji,Amarender Reddy,"Venkatravpet matpally SP,metpally,NH-63 Road,Telangana,Pin:-505325",Reliance Projects & Property Management Services Limited,Telangana,36AAJCR6636B1ZD,Metpally
,35,Telangana,Hyderabad,Smart Point,U245,Uskabavi Village,Reliance Projects & Property Management Services Limited,36AAJCR6636B1ZD,36,"Plot No 5 Sy Nos 944/A, 941/A1, 898/D in Uskabavi Village, Ameenpur Municipality & Sangareddy District ,  Hyderabad 502032  Telangana",Sravan kumar,Sravan kumar,Amarender Reddy,"Plot No 5 Sy Nos 944/A, 941/A1, 898/D in Uskabavi Village, Ameenpur Municipality & Sangareddy District ,  Hyderabad 502032  Telangana",Reliance Projects & Property Management Services Limited,Telangana,36AAJCR6636B1ZD,Hyderabad
,36,Telangana,Medak,Smart Point,U3NU,Medak,Reliance Projects & Property Management Services Limited,36AAJCR6636B1ZD,36,Arjuns Property H No 1 12 48 Beside Head Post Office Jambikunta Street Medak Medak District MEDAK 502110 Telangana,Sravan kumar,Sravan kumar,Amarender Reddy,Arjuns Property H No 1 12 48 Beside Head Post Office Jambikunta Street Medak Medak District MEDAK 502110 Telangana,Reliance Projects & Property Management Services Limited,Telangana,36AAJCR6636B1ZD,Medak
,37,Telangana,Korutla,Smart Point,U3RU,Korutla,Reliance Projects & Property Management Services Limited,36AAJCR6636B1ZD,36,"House No 1 1 25 2 Jagtial Road, Opposite Amrutha Appartment, Korutla Jagtial Dist, 505326",M Shivaji,M Shivaji,Amarender Reddy,"House No 1 1 25 2 Jagtial Road, Opposite Amrutha Appartment, Korutla Jagtial Dist, 505326",Reliance Projects & Property Management Services Limited,Telangana,36AAJCR6636B1ZD,Korutla
,38,Telangana,Hyderabad,Trends Footwear,1915,Kompally (Suchitra),Reliance Projects & Property Management Services Limited,36AAJCR6636B1ZD,36,"Plot No 119/ Part Sy No 91, 92 & 93 Gre,Near Suchitra Circle Kompally,Jeedimetla Village Quthbullapur,Hyderabad-500014.",Sravan Alampally,Sravan Alampally,Santhosh Reddy,"Plot No 119/ Part Sy No 91, 92 & 93 Gre,Near Suchitra Circle Kompally,Jeedimetla Village Quthbullapur,Hyderabad-500014.",Reliance Projects & Property Management Services Limited,Telangana,36AAJCR6636B1ZD,Hyderabad
,39,Telangana,Hyderabad,Smart,2977,Old Alwal,Reliance Projects & Property Management Services Limited,36AAJCR6636B1ZD,36,"RRL Super  Old Alwal RR Dist,CYSR Gardens  5-15/1Sy No 51/E Alwal Circle Malkajgiri Mandal,Alwal Village  GHMC  RR Dist Telangana 500010",Sravan Alampally,Sravan Alampally,Santhosh Reddy,"RRL Super  Old Alwal RR Dist,CYSR Gardens  5-15/1Sy No 51/E Alwal Circle Malkajgiri Mandal,Alwal Village  GHMC  RR Dist Telangana 500010",Reliance Projects & Property Management Services Limited,Telangana,36AAJCR6636B1ZD,Hyderabad
,40,Telangana,Hyderabad,Digital,8661,Suchitra,Reliance Projects & Property Management Services Limited,36AAJCR6636B1ZD,36,"SM:Mohan Vadde-8008404239, RDRL Suchitra Junction Kompally Hyd, Reliance Digital Retail Ltd, Plot No:5,6,7,10,11 & 12, Block-G, Survey No's:91,92 & 93, Jeedi Matta Village, Quthbullapur Mandal, Hyderabad:500014.",Sravan Alampally,Sravan Alampally,Santhosh Reddy,"SM:Mohan Vadde-8008404239, RDRL Suchitra Junction Kompally Hyd, Reliance Digital Retail Ltd, Plot No:5,6,7,10,11 & 12, Block-G, Survey No's:91,92 & 93, Jeedi Matta Village, Quthbullapur Mandal, Hyderabad:500014.",Reliance Projects & Property Management Services Limited,Telangana,36AAJCR6636B1ZD,Hyderabad
,41,Telangana,Hyderabad,Trends,5801,Kompally,Reliance Projects & Property Management Services Limited,36AAJCR6636B1ZD,36,"Jeedimelta Village, Qutubullapur Mandal,GHMC, Ranga Reddy Dist",Sravan Alampally,Sravan Alampally,Santhosh Reddy,"Jeedimelta Village, Qutubullapur Mandal,GHMC, Ranga Reddy Dist",Reliance Projects & Property Management Services Limited,Telangana,36AAJCR6636B1ZD,Hyderabad
,42,Telangana,Hyderabad,Fresh Signature,3213,Neredmet,Reliance Projects & Property Management Services Limited,36AAJCR6636B1ZD,36,"Kalyan Palace, M.No 37-40, 37-40/2 & 37-41, Plot No's 353,355 & 357, Survey No 218/1, Defence Colony, Malkajgiri Municipality, Ranga Reddy District,Pin Code-524003",Sravan Alampally,Sravan Alampally,Santhosh Reddy,"Kalyan Palace, M.No 37-40, 37-40/2 & 37-41, Plot No's 353,355 & 357, Survey No 218/1, Defence Colony, Malkajgiri Municipality, Ranga Reddy District,Pin Code-524003",Reliance Projects & Property Management Services Limited,Telangana,36AAJCR6636B1ZD,Hyderabad
,43,Telangana,Hyderabad,Digital,8768,Vikrampuri,Reliance Projects & Property Management Services Limited,36AAJCR6636B1ZD,36,"Reliace Digital,M. No. 3-45-166  Plot D1,Vikrampuri Co-op Hsg Bldg Society,Vikrampuri Kharkana,Secundrabad,Hyderabad,Telangana-500009",Sravan Alampally,Sravan Alampally,Santhosh Reddy,"Reliace Digital,M. No. 3-45-166  Plot D1,Vikrampuri Co-op Hsg Bldg Society,Vikrampuri Kharkana,Secundrabad,Hyderabad,Telangana-500009",Reliance Projects & Property Management Services Limited,Telangana,36AAJCR6636B1ZD,Hyderabad
,44,Telangana,Hyderabad,Ware house,WH14,Cherlapally,Qwik Supply Chain Private Limited,36AAACF5232A1ZA,36,"RRL Hyderabgad EPC Warehouse,Reliance Retail Limited,Plot Nos 42 & 43, Phase V (Part B) Ida Cherlapally,""Ghatkesar Mandal, Cherlapally"",Under Municipal Limits Of Apiic-Iala-500051,Hyderabad",Sravan Alampally,Sravan Alampally,Santhosh Reddy,"RRL Hyderabgad EPC Warehouse,Reliance Retail Limited,Plot Nos 42 & 43, Phase V (Part B) Ida Cherlapally,""Ghatkesar Mandal, Cherlapally"",Under Municipal Limits Of Apiic-Iala-500051,Hyderabad",Qwik Supply Chain Private Limited,Telangana,36AAACF5232A1ZA,Hyderabad
,45,Telangana,Hyderabad,Smart Point,FR5R,Lothukunta,Reliance Projects & Property Management Services Limited,36AAJCR6636B1ZD,36,"SMART POINT-HYDERABAD-LOTHKUNTA,Reliance Retail Limited,S.NO. 191 H# 16-146/G1 & G2(PART),ALWAL MANDAL RR DIST,HYDERABAD-500047",Sravan Alampally,Sravan Alampally,Santhosh Reddy,"SMART POINT-HYDERABAD-LOTHKUNTA,Reliance Retail Limited,S.NO. 191 H# 16-146/G1 & G2(PART),ALWAL MANDAL RR DIST,HYDERABAD-500047",Reliance Projects & Property Management Services Limited,Telangana,36AAJCR6636B1ZD,Hyderabad
,46,Telangana,Hyderabad,Smart Bazaar,FRBH,Kompally,Reliance Projects & Property Management Services Limited,36AAJCR6636B1ZD,36,"Smart Bazaar HYDERABAD KOMPALLY,SB Hyderabad Kompally Quthabul,Survey No 131 Quthabulapur Mandal Raga,Reddy Dist Beside Runway 9 Kompally,HYDERABAD-500014",prasad,prasad,Santhosh Reddy,"Smart Bazaar HYDERABAD KOMPALLY,SB Hyderabad Kompally Quthabul,Survey No 131 Quthabulapur Mandal Raga,Reddy Dist Beside Runway 9 Kompally,HYDERABAD-500014",Reliance Projects & Property Management Services Limited,Telangana,36AAJCR6636B1ZD,Hyderabad
,47,Telangana,Hyderabad,Centro warehouse DC,SAGX,Balanagar,V Retail Limited,36AACCV9907G1Z2,36,"Ground Floor, IDA Kukatpally, TSIIC Industrial Area, Quthbullapur village, quthbullapur mandal, Medchal Malkajgiri, Telangana,500037",Sravan Alampally,Sravan Alampally,Santhosh Reddy,"Ground Floor, IDA Kukatpally, TSIIC Industrial Area, Quthbullapur village, quthbullapur mandal, Medchal Malkajgiri, Telangana,500037",V Retail Limited,Telangana,36AACCV9907G1Z2,Hyderabad
,48,Telangana,Hyderabad,Yousta,T5DV,Kompally,Reliance Projects & Property Management Services Limited,36AAJCR6636B1ZD,36,Shoe stores,Sravan Alampally,Sravan Alampally,Santhosh Reddy,Shoe stores,Reliance Projects & Property Management Services Limited,Telangana,36AAJCR6636B1ZD,Hyderabad
,49,Telangana,Hyderabad,Digital,T750,Balanagar,Reliance Projects & Property Management Services Limited,36AAJCR6636B1ZD,36,"Reliance Digital, Balanagar,Ground & First Floor Sy No 30 (P),IDPL Colony Balanagar Mandal & Village Ranga Reddy,Telangana-500037",Sravan Alampally,Sravan Alampally,Santhosh Reddy,"Reliance Digital, Balanagar,Ground & First Floor Sy No 30 (P),IDPL Colony Balanagar Mandal & Village Ranga Reddy,Telangana-500037",Reliance Projects & Property Management Services Limited,Telangana,36AAJCR6636B1ZD,Hyderabad
,50,Telangana,Hyderabad,Centro Shoes,T9IF,Centro Kompally,V Retail Limited,36AACCV9907G1Z2,36,"Ground Floor, Door No. 04-050/NR, Petbasheerabad, Kompally, Hyderabad",Sravan Alampally,Sravan Alampally,Santhosh Reddy,"Ground Floor, Door No. 04-050/NR, Petbasheerabad, Kompally, Hyderabad",V Retail Limited,Telangana,36AACCV9907G1Z2,Hyderabad
,51,Telangana,Hyderabad,Centro Shoes,T9IJ,Centro Karkhana,V Retail Limited,36AACCV9907G1Z2,36,"D.No. 59-1-2-1,Kakaguda Main Road Kharkhana,SECUNDERABAD,500009.",Sravan Alampally,Sravan Alampally,Santhosh Reddy,"D.No. 59-1-2-1,Kakaguda Main Road Kharkhana,SECUNDERABAD,500009.",V Retail Limited,Telangana,36AACCV9907G1Z2,Hyderabad
,52,Telangana,Damaiguda,Trends,T9QO,VSG ARCADE,Reliance Projects & Property Management Services Limited,36AAJCR6636B1ZD,36,"vsg Arcade Gfff D no 8 562/1 Sy No 417Nagaram Village,keesara mandal, Medchal malkajigiri Dist, Hyderabad-500083",Sravan Alampally,Sravan Alampally,Santhosh Reddy,"vsg Arcade Gfff D no 8 562/1 Sy No 417Nagaram Village,keesara mandal, Medchal malkajigiri Dist, Hyderabad-500083",Reliance Projects & Property Management Services Limited,Telangana,36AAJCR6636B1ZD,Damaiguda
,53,Telangana,Hyderabad,Blush lace SIS,T9VL,Blush lace SIS store,Reliance Projects & Property Management Services Limited,36AAJCR6636B1ZD,36,"Smart Bazaar HYDERABAD KOMPALLY,SB Hyderabad Kompally Quthabul,Survey No 131 Quthabulapur Mandal Raga,Reddy Dist Beside Runway 9 Kompally,HYDERABAD-500014",Sravan Alampally,Sravan Alampally,Santhosh Reddy,"Smart Bazaar HYDERABAD KOMPALLY,SB Hyderabad Kompally Quthabul,Survey No 131 Quthabulapur Mandal Raga,Reddy Dist Beside Runway 9 Kompally,HYDERABAD-500014",Reliance Projects & Property Management Services Limited,Telangana,36AAJCR6636B1ZD,Hyderabad
,54,Telangana,Hyderabad,Trends,TDG5,Medchal,Reliance Projects & Property Management Services Limited,36AAJCR6636B1ZD,36,"Plot Nos.58,59,60 & 61 Sy.No.80/1, 81 & 86 and situate in Medchal Village & Mandal, Medchal-Malkajigiri District – 501401 Telangana",Sravan Alampally,Sravan Alampally,Santhosh Reddy,"Plot Nos.58,59,60 & 61 Sy.No.80/1, 81 & 86 and situate in Medchal Village & Mandal, Medchal-Malkajigiri District – 501401 Telangana",Reliance Projects & Property Management Services Limited,Telangana,36AAJCR6636B1ZD,Hyderabad
,55,Telangana,Gajwel,Trends Small Town,TEY9,Gajwel,Reliance Projects & Property Management Services Limited,36AAJCR6636B1ZD,36,"RRL, Trends Small Town, Reliance Retail Limited, D.no. 9-156, beside Gajwel Court,Gajwel, Telangana - 502276",Sravan Alampally,Sravan Alampally,Santhosh Reddy,"RRL, Trends Small Town, Reliance Retail Limited, D.no. 9-156, beside Gajwel Court,Gajwel, Telangana - 502276",Reliance Projects & Property Management Services Limited,Telangana,36AAJCR6636B1ZD,Gajwel
,56,Telangana,Hyderabad,Trends,TKA8,Tirumalgiri,Reliance Projects & Property Management Services Limited,36AAJCR6636B1ZD,36,"Bearing H.No.30-10/A, covered by Sy.No.56 and situate in Modi Valley, Tirumalgiri Village, Secunderabad Mandal,Hyderabad – 500009, Telangana",Sravan Alampally,Sravan Alampally,Santhosh Reddy,"Bearing H.No.30-10/A, covered by Sy.No.56 and situate in Modi Valley, Tirumalgiri Village, Secunderabad Mandal,Hyderabad – 500009, Telangana",Reliance Projects & Property Management Services Limited,Telangana,36AAJCR6636B1ZD,Hyderabad
,57,Telangana,Hyderabad,SP Pharma SIS,TNU2,Nagaram,Reliance Retail Ventures Limited,36AADCR6715M1Z0,36,"Plot no. 2 & 3, Rampally X rd, Nagaram,Village Keesara Mandal Medchal,HYDERABAD-501301",Sravan Alampally,Sravan Alampally,Santhosh Reddy,"Plot no. 2 & 3, Rampally X rd, Nagaram,Village Keesara Mandal Medchal,HYDERABAD-501301",Reliance Retail Ventures Limited,Telangana,36AADCR6715M1Z0,Hyderabad
,58,Telangana,Hyderabad,SP Pharma SIS,TNU3,Suraram,Reliance Retail Ventures Limited,36AADCR6715M1Z0,36,"SP Pharma Merix Pride Bldg Suraram,No G4 & G5 02 019/64 Sy No 64 in Suraram Village Qutbullapur Mandal & Municip Circle Medchal Malkajigiri District,HYDERABAD-500015",Sravan Alampally,Sravan Alampally,Santhosh Reddy,"SP Pharma Merix Pride Bldg Suraram,No G4 & G5 02 019/64 Sy No 64 in Suraram Village Qutbullapur Mandal & Municip Circle Medchal Malkajigiri District,HYDERABAD-500015",Reliance Retail Ventures Limited,Telangana,36AADCR6715M1Z0,Hyderabad
,59,Telangana,Hyderabad,SP Pharma SIS,TOK7,Nagaram,Reliance Retail Ventures Limited,36AADCR6715M1Z0,36,"Plot No.40(Western Part) covered by Sy.No.407 Rampalle Village and Keesara Mandal, Medchal-Malkajgiri District Telangana – 501301",Sravan Alampally,Sravan Alampally,Santhosh Reddy,"Plot No.40(Western Part) covered by Sy.No.407 Rampalle Village and Keesara Mandal, Medchal-Malkajgiri District Telangana – 501301",Reliance Retail Ventures Limited,Telangana,36AADCR6715M1Z0,Hyderabad
,60,Telangana,Hyderabad,SP Pharma SIS,TOO9,Gajularamaram,Reliance Retail Ventures Limited,36AADCR6715M1Z0,36,"Plot No 128Sy Nos 178(P) to 183188 to 190(P)193 to 196 in Gajularamaram VillageQutbullapur MandalMedchal Malkajgiri,HYDERABAD-500055",Sravan Alampally,Sravan Alampally,Santhosh Reddy,"Plot No 128Sy Nos 178(P) to 183188 to 190(P)193 to 196 in Gajularamaram VillageQutbullapur MandalMedchal Malkajgiri,HYDERABAD-500055",Reliance Retail Ventures Limited,Telangana,36AADCR6715M1Z0,Hyderabad
,61,Telangana,Hyderabad,Digital,TR12,Nagaram,Reliance Projects & Property Management Services Limited,36AAJCR6636B1ZD,36,"Reliance Retail Limited,H No 5-14 & 5-13/1 Plot No 1P725,Sy No 625 Nagaram Village Keesara Mandal,Medchal Dist Hyderabad,HYDERABAD-500083",Sravan Alampally,Sravan Alampally,Santhosh Reddy,"Reliance Retail Limited,H No 5-14 & 5-13/1 Plot No 1P725,Sy No 625 Nagaram Village Keesara Mandal,Medchal Dist Hyderabad,HYDERABAD-500083",Reliance Projects & Property Management Services Limited,Telangana,36AAJCR6636B1ZD,Hyderabad
,62,Telangana,Hyderabad,Trends Footwear,TTU5,Kharkhana,Reliance Projects & Property Management Services Limited,36AAJCR6636B1ZD,36,"RRL TF Karkhana Hyderabad,Plot No 30 Vasavi Colony,Tirumalagiri,Distt Telanagna Hyderabad",Sravan Alampally,Sravan Alampally,Santhosh Reddy,"RRL TF Karkhana Hyderabad,Plot No 30 Vasavi Colony,Tirumalagiri,Distt Telanagna Hyderabad",Reliance Projects & Property Management Services Limited,Telangana,36AAJCR6636B1ZD,Hyderabad
,63,Telangana,Hyderabad,Smart Bazaar,TUM6,Doddi Village Secunderabad,Reliance Projects & Property Management Services Limited,36AAJCR6636B1ZD,36,"Gf Sy No 259 And Civil Survey No 349P,Doddi Village Alwal Mandal Dairy,500015",Sravan Alampally,Sravan Alampally,Santhosh Reddy,"Gf Sy No 259 And Civil Survey No 349P,Doddi Village Alwal Mandal Dairy,500015",Reliance Projects & Property Management Services Limited,Telangana,36AAJCR6636B1ZD,Hyderabad
,64,Telangana,Hyderabad,Trends,TWPO,Gajularamaram,Reliance Projects & Property Management Services Limited,36AAJCR6636B1ZD,36,"RRL Trends Gajularamaram, Reliance Retail Limited, Plot No8918&19Sno199/A201/A, 202203204215/P 216 217, Ushamullapudl Road Gajularamaram, 500055 HYDERABAD",Sravan Alampally,Sravan Alampally,Santhosh Reddy,"RRL Trends Gajularamaram, Reliance Retail Limited, Plot No8918&19Sno199/A201/A, 202203204215/P 216 217, Ushamullapudl Road Gajularamaram, 500055 HYDERABAD",Reliance Projects & Property Management Services Limited,Telangana,36AAJCR6636B1ZD,Hyderabad
,65,Telangana,Hyderabad,Trends,TY5B,Rampally,Reliance Projects & Property Management Services Limited,36AAJCR6636B1ZD,36,"Reliance Trends store, D.No. 12 43 2 Sy.Nos. 148 148 10, Nagaram village & G P Keesara Mandal, Medchal Malkajigiri-500083,Telangana",Sravan Alampally,Sravan Alampally,Santhosh Reddy,"Reliance Trends store, D.No. 12 43 2 Sy.Nos. 148 148 10, Nagaram village & G P Keesara Mandal, Medchal Malkajigiri-500083,Telangana",Reliance Projects & Property Management Services Limited,Telangana,36AAJCR6636B1ZD,Hyderabad
,66,Telangana,Hyderabad,Kalanikethan,TY9O,Suchitra,Reliance Projects & Property Management Services Limited,36AAJCR6636B1ZD,36,"KFPL SUCHITRA,Reliance Retail Limited,Plot No 1 Ramaraja Nagar,Suchitra Circle Jeedimetla,Quthbullapur Secunderabad,Hyderabad-500067",Sravan Alampally,Sravan Alampally,Santhosh Reddy,"KFPL SUCHITRA,Reliance Retail Limited,Plot No 1 Ramaraja Nagar,Suchitra Circle Jeedimetla,Quthbullapur Secunderabad,Hyderabad-500067",Reliance Projects & Property Management Services Limited,Telangana,36AAJCR6636B1ZD,Hyderabad
,67,Telangana,Hyderabad,Foot print SIS,TZUA,Rampally,Reliance Projects & Property Management Services Limited,36AAJCR6636B1ZD,36,"Reliance SIS store, D.No. 12 43 2 Sy.Nos. 148 148 10, Nagaram village & G P Keesara Mandal, Medchal Malkajigiri-500083,Telangana",Sravan Alampally,Sravan Alampally,Santhosh Reddy,"Reliance SIS store, D.No. 12 43 2 Sy.Nos. 148 148 10, Nagaram village & G P Keesara Mandal, Medchal Malkajigiri-500083,Telangana",Reliance Projects & Property Management Services Limited,Telangana,36AAJCR6636B1ZD,Hyderabad
,68,Telangana,Hyderabad,Smart Point,U11N,Steward Road,Reliance Projects & Property Management Services Limited,36AAJCR6636B1ZD,36,Bolaram Naveen Reddy Property3 3 53 Stewart Road Hyderabad 500010 Telangana,Sravan Alampally,Sravan Alampally,Santhosh Reddy,Bolaram Naveen Reddy Property3 3 53 Stewart Road Hyderabad 500010 Telangana,Reliance Projects & Property Management Services Limited,Telangana,36AAJCR6636B1ZD,Hyderabad
,69,Telangana,Hyderabad,Smart Point,U154,Nagaram,Reliance Projects & Property Management Services Limited,36AAJCR6636B1ZD,36,"Plot Nos 2 and 3, Sy No 30 at Nagaram Village, Keesara Mandal, Medchal Malkajgiri Dist, Hyderabad 501301 Telangana",Sravan Alampally,Sravan Alampally,Santhosh Reddy,"Plot Nos 2 and 3, Sy No 30 at Nagaram Village, Keesara Mandal, Medchal Malkajgiri Dist, Hyderabad 501301 Telangana",Reliance Projects & Property Management Services Limited,Telangana,36AAJCR6636B1ZD,Hyderabad
,70,Telangana,Hyderabad,Smart Point,U182,Suraram,Reliance Projects & Property Management Services Limited,36AAJCR6636B1ZD,36,"No.G4 & G5, 02-019/64, Sy No.64 in Suraram Village, Qutbullapur Mandal & Municipal Circle, Medchal Malkajigiri District Hyderabad 500015 Telangana",Sravan Alampally,Sravan Alampally,Santhosh Reddy,"No.G4 & G5, 02-019/64, Sy No.64 in Suraram Village, Qutbullapur Mandal & Municipal Circle, Medchal Malkajigiri District Hyderabad 500015 Telangana",Reliance Projects & Property Management Services Limited,Telangana,36AAJCR6636B1ZD,Hyderabad
,71,Telangana,Hyderabad,Smart Point,U192,Dulapally,Reliance Projects & Property Management Services Limited,36AAJCR6636B1ZD,36,"Plot No. 1, Sy Nos. 68/A & 68/AA Dulapally Village, Qutubullapur Mandal, Medchal Malkajgiri Distrcit  Hyderabad 500014 Telangana",Sravan Alampally,Sravan Alampally,Santhosh Reddy,"Plot No. 1, Sy Nos. 68/A & 68/AA Dulapally Village, Qutubullapur Mandal, Medchal Malkajgiri Distrcit  Hyderabad 500014 Telangana",Reliance Projects & Property Management Services Limited,Telangana,36AAJCR6636B1ZD,Hyderabad
,72,Telangana,Hyderabad,Smart Point,U314,Balaji nagar,Reliance Projects & Property Management Services Limited,36AAJCR6636B1ZD,36,"H.No.5-226/A, situate in Jawahar Nagar Village, Kapra Mandal, Medchal-Malkajgiri Dist Hyderabad 500087 Telangana",Sravan Alampally,Sravan Alampally,Santhosh Reddy,"H.No.5-226/A, situate in Jawahar Nagar Village, Kapra Mandal, Medchal-Malkajgiri Dist Hyderabad 500087 Telangana",Reliance Projects & Property Management Services Limited,Telangana,36AAJCR6636B1ZD,Hyderabad
,73,Telangana,Hyderabad,Smart Point,U328,Rampalle Village,Reliance Projects & Property Management Services Limited,36AAJCR6636B1ZD,36,"Plot No.40(Western Part) covered by Sy.No.407 Rampalle Village and Keesara Mandal, Medchal-Malkajgiri District Telangana – 501301",Sravan Alampally,Sravan Alampally,Santhosh Reddy,"Plot No.40(Western Part) covered by Sy.No.407 Rampalle Village and Keesara Mandal, Medchal-Malkajgiri District Telangana – 501301",Reliance Projects & Property Management Services Limited,Telangana,36AAJCR6636B1ZD,Hyderabad
,74,Telangana,Hyderabad,Smart Point,U354,Gajularamaram,Reliance Projects & Property Management Services Limited,36AAJCR6636B1ZD,36,"Plot No.128,Sy.Nos.178(P) to 183,188 to 190(P),193 to 196 in Gajularamaram Village,Qutbullapur Mandal,Medchal-Malkajgiri Dist,Hyderabad – 500055 Telangana",Sravan Alampally,Sravan Alampally,Santhosh Reddy,"Plot No.128,Sy.Nos.178(P) to 183,188 to 190(P),193 to 196 in Gajularamaram Village,Qutbullapur Mandal,Medchal-Malkajgiri Dist,Hyderabad – 500055 Telangana",Reliance Projects & Property Management Services Limited,Telangana,36AAJCR6636B1ZD,Hyderabad
,75,Telangana,Gajwel,Smart Point,U3GI,Anjaneyulu complex Gajwel,Reliance Projects & Property Management Services Limited,36AAJCR6636B1ZD,36,Anjaneyulu Complex H No 10 36 Pragnapur Main Road Opposite Old Petrol Pump Pragnapur Gajwel Mandal Medak GAJWEL 502311 Telangana,Sravan Alampally,Sravan Alampally,Santhosh Reddy,Anjaneyulu Complex H No 10 36 Pragnapur Main Road Opposite Old Petrol Pump Pragnapur Gajwel Mandal Medak GAJWEL 502311 Telangana,Reliance Projects & Property Management Services Limited,Telangana,36AAJCR6636B1ZD,Gajwel
,76,Telangana,Hyderabad,Jewells,8401,Punjagutta,Reliance Projects & Property Management Services Limited,36AAJCR6636B1ZD,36,"SAI CREST, M.No 6-3-883/6, Opp.Jos Alukas, Pangajutta, Hyderabad,Pin Code:500082",G.Suresh,G.Suresh,Hareesh Bhumireddy,"SAI CREST, M.No 6-3-883/6, Opp.Jos Alukas, Pangajutta, Hyderabad,Pin Code:500082",Reliance Projects & Property Management Services Limited,Telangana,36AAJCR6636B1ZD,Hyderabad
,77,Telangana,Hyderabad,Trends,5791,Kukatpally - 2,Reliance Projects & Property Management Services Limited,36AAJCR6636B1ZD,36,"DAR Estates, Plot No:14, Sy.No.166, Beside South India Shopping Mall, Kukatpally, Hyderabad -500072",G.Suresh,G.Suresh,Hareesh Bhumireddy,"DAR Estates, Plot No:14, Sy.No.166, Beside South India Shopping Mall, Kukatpally, Hyderabad -500072",Reliance Projects & Property Management Services Limited,Telangana,36AAJCR6636B1ZD,Hyderabad
,78,Telangana,Hyderabad,Smart Point,FR5X,HMT Swarnapuri,Reliance Projects & Property Management Services Limited,36AAJCR6636B1ZD,36,"Plot No.550, H No.17-550/1/102, Sri Sai Residency, Opp. Hmt Swarnapuri Community Hall, Hmt Swarnapuri Colony, Hyderabad-500049",G.Suresh,G.Suresh,Hareesh Bhumireddy,"Plot No.550, H No.17-550/1/102, Sri Sai Residency, Opp. Hmt Swarnapuri Community Hall, Hmt Swarnapuri Colony, Hyderabad-500049",Reliance Projects & Property Management Services Limited,Telangana,36AAJCR6636B1ZD,Hyderabad
,79,Telangana,Hyderabad,Smart Point,FR6E,Jaya Prakash Nagar,Reliance Projects & Property Management Services Limited,36AAJCR6636B1ZD,36,"Gr.Floor,Plot No.2, Sy No.118, Jaya Prakash Nagar, Hyderabad - 500019",G.Suresh,G.Suresh,Hareesh Bhumireddy,"Gr.Floor,Plot No.2, Sy No.118, Jaya Prakash Nagar, Hyderabad - 500019",Reliance Projects & Property Management Services Limited,Telangana,36AAJCR6636B1ZD,Hyderabad
,80,Telangana,Hyderabad,Trends Junior,T52C,Kukatpally,Reliance Projects & Property Management Services Limited,36AAJCR6636B1ZD,36,"Trends Juniors Kukatpally Vivekananda Nagar, Plot No 16 & 17 Sy No 115 Vivekananda Nagar Kukatpally Bala-nagar Medchal, Hyderabad Telengana 500072",G.Suresh,G.Suresh,Hareesh Bhumireddy,"Trends Juniors Kukatpally Vivekananda Nagar, Plot No 16 & 17 Sy No 115 Vivekananda Nagar Kukatpally Bala-nagar Medchal, Hyderabad Telengana 500072",Reliance Projects & Property Management Services Limited,Telangana,36AAJCR6636B1ZD,Hyderabad
,81,Telangana,Hyderabad,Trends,T55Y,Bachupally,Reliance Projects & Property Management Services Limited,36AAJCR6636B1ZD,36,"Plot No 1/2 Sy Nos 781113/A 3459, /Part Gfffsf Bachupalli Medchal, Malkajgiri, HYDERABAD 500090",G.Suresh,G.Suresh,Hareesh Bhumireddy,"Plot No 1/2 Sy Nos 781113/A 3459, /Part Gfffsf Bachupalli Medchal, Malkajgiri, HYDERABAD 500090",Reliance Projects & Property Management Services Limited,Telangana,36AAJCR6636B1ZD,Hyderabad
,82,Telangana,Hyderabad,Performax,T57Z,Ameerpet,Reliance Projects & Property Management Services Limited,36AAJCR6636B1ZD,36,"RRL Performax Hyderabad Ameerpet
Reliance Retail Limited
Bearing H No 12 5 35/A/1 Ff Ward No 12
Block No 5 Sy Nos 74/75 Ameerpet
500016 HYDERABAD",G.Suresh,G.Suresh,Hareesh Bhumireddy,"RRL Performax Hyderabad Ameerpet
Reliance Retail Limited
Bearing H No 12 5 35/A/1 Ff Ward No 12
Block No 5 Sy Nos 74/75 Ameerpet
500016 HYDERABAD",Reliance Projects & Property Management Services Limited,Telangana,36AAJCR6636B1ZD,Hyderabad
,83,Telangana,Ameerpet,John player,T58K,Ameerpet,Reliance Projects & Property Management Services Limited,36AAJCR6636B1ZD,36,"RRL John Players Hyderabad AmeerpetReliance Retail Limited, Bearing H No 12 5 35/A/1 Ff Ward No 12Block No 5 Sy Nos 74/75 Ameerpet,500016 HYDERABAD



",G.Suresh,G.Suresh,Hareesh Bhumireddy,"RRL John Players Hyderabad AmeerpetReliance Retail Limited, Bearing H No 12 5 35/A/1 Ff Ward No 12Block No 5 Sy Nos 74/75 Ameerpet,500016 HYDERABAD



",Reliance Projects & Property Management Services Limited,Telangana,36AAJCR6636B1ZD,Ameerpet
,84,Telangana,Hyderabad,Lee Cooper,T58P,Ameerpet,Reliance Projects & Property Management Services Limited,36AAJCR6636B1ZD,36,"RRL Lee Cooper Hyderabad Ameerpet
Reliance Retail Limited
Bearing H No 12 5 35/A/1 Ff Ward No 12
Block No 5 Sy Nos 74/75 Ameerpet
500016 HYDERABAD",G.Suresh,G.Suresh,Hareesh Bhumireddy,"RRL Lee Cooper Hyderabad Ameerpet
Reliance Retail Limited
Bearing H No 12 5 35/A/1 Ff Ward No 12
Block No 5 Sy Nos 74/75 Ameerpet
500016 HYDERABAD",Reliance Projects & Property Management Services Limited,Telangana,36AAJCR6636B1ZD,Hyderabad
,85,Telangana,Ameerpet,Trends Junior,TAP1,Ameerpet,Reliance Projects & Property Management Services Limited,36AAJCR6636B1ZD,36,"RRL John Players Hyderabad Ameerpet,Reliance Retail Limited,Bearing H No 12 5 35/A/1 Ff Ward No 12Block No 5 Sy Nos 74/75 Ameerpet500016 HYDERABAD



",G.Suresh,G.Suresh,Hareesh Bhumireddy,"RRL John Players Hyderabad Ameerpet,Reliance Retail Limited,Bearing H No 12 5 35/A/1 Ff Ward No 12Block No 5 Sy Nos 74/75 Ameerpet500016 HYDERABAD



",Reliance Projects & Property Management Services Limited,Telangana,36AAJCR6636B1ZD,Ameerpet
,86,Telangana,Ameerpet,Trends Women,TAP4,Ameerpet,Reliance Projects & Property Management Services Limited,36AAJCR6636B1ZD,36,"RRL John Players Hyderabad Ameerpet,Reliance Retail Limited,Bearing H No 12 5 35/A/1 Ff Ward No 12Block No 5 Sy Nos 74/75 Ameerpet 500016 HYDERABAD



",G.Suresh,G.Suresh,Hareesh Bhumireddy,"RRL John Players Hyderabad Ameerpet,Reliance Retail Limited,Bearing H No 12 5 35/A/1 Ff Ward No 12Block No 5 Sy Nos 74/75 Ameerpet 500016 HYDERABAD



",Reliance Projects & Property Management Services Limited,Telangana,36AAJCR6636B1ZD,Ameerpet
,87,Telangana,Hyderabad,Smart,TB20,kukatpally,Reliance Projects & Property Management Services Limited,36AAJCR6636B1ZD,36,"RRL Super Yashoda Gardens,Reliance Retail Limited,Plot No 4 to 11 H.No. 5-3-115,Shanti Nagar Kukatpally village,Balangara Mandal-500072,HYDERABAD",G.Suresh,G.Suresh,Hareesh Bhumireddy,"RRL Super Yashoda Gardens,Reliance Retail Limited,Plot No 4 to 11 H.No. 5-3-115,Shanti Nagar Kukatpally village,Balangara Mandal-500072,HYDERABAD",Reliance Projects & Property Management Services Limited,Telangana,36AAJCR6636B1ZD,Hyderabad
,88,Telangana,Hyderabad,Digital,TB83,Panjagutta,Reliance Projects & Property Management Services Limited,36AAJCR6636B1ZD,36,"RRL CDIT Panjagutta,Reliance Retail Limited,Municipal No 6-3-670,Panjagutta-500082,Hyderabad",G.Suresh,G.Suresh,Hareesh Bhumireddy,"RRL CDIT Panjagutta,Reliance Retail Limited,Municipal No 6-3-670,Panjagutta-500082,Hyderabad",Reliance Projects & Property Management Services Limited,Telangana,36AAJCR6636B1ZD,Hyderabad
,89,Telangana,Hyderabad,Foot print SIS,TDL9,Kukatpally,Reliance Projects & Property Management Services Limited,36AAJCR6636B1ZD,36,"DAR Estates, Plot No:14, Sy.No.166, Beside South India Shopping Mall, Kukatpally, Hyderabad -500072",G.Suresh,G.Suresh,Hareesh Bhumireddy,"DAR Estates, Plot No:14, Sy.No.166, Beside South India Shopping Mall, Kukatpally, Hyderabad -500072",Reliance Projects & Property Management Services Limited,Telangana,36AAJCR6636B1ZD,Hyderabad
,90,Telangana,Hyderabad,Smart,TFY5,Bachupally,Reliance Projects & Property Management Services Limited,36AAJCR6636B1ZD,36,"Plot No.1,2,3,14,15 & 16 covered by Sy No. 13/A, 14/A, 31&33 Bachupally Village, Medchal Malkajigiri, Hyderabad 500090 Telangana",G.Suresh,G.Suresh,Hareesh Bhumireddy,"Plot No.1,2,3,14,15 & 16 covered by Sy No. 13/A, 14/A, 31&33 Bachupally Village, Medchal Malkajigiri, Hyderabad 500090 Telangana",Reliance Projects & Property Management Services Limited,Telangana,36AAJCR6636B1ZD,Hyderabad
,91,Telangana,Hyderabad,Trends,TH72,Miyapur,Reliance Projects & Property Management Services Limited,36AAJCR6636B1ZD,36,"RRL Trends Miyapur Hyderabad Reliance Retail Limited Sy No 44/1 Miyapur Village, Serilingampally Rangareddy Dist Hyderabad : 500049",G.Suresh,G.Suresh,Hareesh Bhumireddy,"RRL Trends Miyapur Hyderabad Reliance Retail Limited Sy No 44/1 Miyapur Village, Serilingampally Rangareddy Dist Hyderabad : 500049",Reliance Projects & Property Management Services Limited,Telangana,36AAJCR6636B1ZD,Hyderabad
,92,Telangana,Hyderabad,Digital,TI55,Miyapur,Reliance Projects & Property Management Services Limited,36AAJCR6636B1ZD,36,"RRL CDIT Miyapur, Sy No 44/1, Situated at Miyapur Village, Serilingampally Mandal and Municipality, Ranga Reddy District, Telangana 500049",G.Suresh,G.Suresh,Hareesh Bhumireddy,"RRL CDIT Miyapur, Sy No 44/1, Situated at Miyapur Village, Serilingampally Mandal and Municipality, Ranga Reddy District, Telangana 500049",Reliance Projects & Property Management Services Limited,Telangana,36AAJCR6636B1ZD,Hyderabad
,93,Telangana,Hyderabad,Trends,TJP7,Pragathi Nagar,Reliance Projects & Property Management Services Limited,36AAJCR6636B1ZD,36,"Bachupally Village Qutbullapur Mandal,Medchal Malkajigiri District- 500090",G.Suresh,G.Suresh,Hareesh Bhumireddy,"Bachupally Village Qutbullapur Mandal,Medchal Malkajigiri District- 500090",Reliance Projects & Property Management Services Limited,Telangana,36AAJCR6636B1ZD,Hyderabad
,94,Telangana,Hyderabad,Smart,TKS7,Nizampet,Reliance Projects & Property Management Services Limited,36AAJCR6636B1ZD,36,"Plot No. 14,15,16,30,31,32 & 33, Sy No 254, Nizampet Village , Bachupally Mandal, Dist Medchal Malkajgiri , Hyderabad 500090 Telangana",G.Suresh,G.Suresh,Hareesh Bhumireddy,"Plot No. 14,15,16,30,31,32 & 33, Sy No 254, Nizampet Village , Bachupally Mandal, Dist Medchal Malkajgiri , Hyderabad 500090 Telangana",Reliance Projects & Property Management Services Limited,Telangana,36AAJCR6636B1ZD,Hyderabad
,95,Telangana,Hyderabad,Trends Junior,TQF1,Pragathi Nagar,Reliance Projects & Property Management Services Limited,36AAJCR6636B1ZD,36,"TRENDS JUNIOR, GOV TULASI,SYNO S169170,171,175,176  BACHUPALLY , PRAGATHINAGAR, HYDERABAD-500090",G.Suresh,G.Suresh,Hareesh Bhumireddy,"TRENDS JUNIOR, GOV TULASI,SYNO S169170,171,175,176  BACHUPALLY , PRAGATHINAGAR, HYDERABAD-500090",Reliance Projects & Property Management Services Limited,Telangana,36AAJCR6636B1ZD,Hyderabad
,96,Telangana,Hyderabad,Trends Women,TSJ9,Dynamic Colony,Reliance Projects & Property Management Services Limited,36AAJCR6636B1ZD,36,"Dynamic Colony, Plot Nos32 & 33 P SyNo202/A, Dynamic Colony Madinaguda Village, Serilingamplly Mandal,Ranga Reddy District, Telangana-500049",G.Suresh,G.Suresh,Hareesh Bhumireddy,"Dynamic Colony, Plot Nos32 & 33 P SyNo202/A, Dynamic Colony Madinaguda Village, Serilingamplly Mandal,Ranga Reddy District, Telangana-500049",Reliance Projects & Property Management Services Limited,Telangana,36AAJCR6636B1ZD,Hyderabad
,97,Telangana,Hyderabad,Trends Footwear,TVP8,Pragathi Nagar,Reliance Projects & Property Management Services Limited,36AAJCR6636B1ZD,36,"TRENDS Footware, GOV TULASI,SYNO S169170,171,175,176  BACHUPALLY , PRAGATHINAGAR, HYDERABAD-500090",G.Suresh,G.Suresh,Hareesh Bhumireddy,"TRENDS Footware, GOV TULASI,SYNO S169170,171,175,176  BACHUPALLY , PRAGATHINAGAR, HYDERABAD-500090",Reliance Projects & Property Management Services Limited,Telangana,36AAJCR6636B1ZD,Hyderabad
,98,Telangana,Hyderabad,Trends Women,TX9A,Kukatpally,Reliance Projects & Property Management Services Limited,36AAJCR6636B1ZD,36,Trends Woman Hyderabad Jubilee Hills Premises Bearing No 8 3 231/W7273 Situated at GfKrishna Nagar Cross Road Jubilee Hills Hyderabad Telengana - 500033,G.Suresh,G.Suresh,Hareesh Bhumireddy,Trends Woman Hyderabad Jubilee Hills Premises Bearing No 8 3 231/W7273 Situated at GfKrishna Nagar Cross Road Jubilee Hills Hyderabad Telengana - 500033,Reliance Projects & Property Management Services Limited,Telangana,36AAJCR6636B1ZD,Hyderabad
,99,Telangana,Hyderabad,Kalanikethan,TY5N,Ameerpet,Reliance Projects & Property Management Services Limited,36AAJCR6636B1ZD,36,"KFPL Karimnagar VRK Silks,Reliance Retail Limited,Municipal No 4 1 1 And 4 1 1/A,Swaran Street Osmanpura,Sawaranstree Karimnagar-505001",G.Suresh,G.Suresh,Hareesh Bhumireddy,"KFPL Karimnagar VRK Silks,Reliance Retail Limited,Municipal No 4 1 1 And 4 1 1/A,Swaran Street Osmanpura,Sawaranstree Karimnagar-505001",Reliance Projects & Property Management Services Limited,Telangana,36AAJCR6636B1ZD,Hyderabad
,100,Telangana,Hyderabad,Trends,TZ56,Sanath nagar Sky mall,Reliance Projects & Property Management Services Limited,36AAJCR6636B1ZD,36,Reliance Projects & Property Management Services Limited TZ56\ RRL TRENDS HYDERABAD M NO 7-2-1735/4/1 PLOT NO 4 SY NO 60/9 FATEH NAGAR VILLAGE SANATHNAGAR HYDERABAD Telangana-500042,G.Suresh,G.Suresh,Hareesh Bhumireddy,Reliance Projects & Property Management Services Limited TZ56\ RRL TRENDS HYDERABAD M NO 7-2-1735/4/1 PLOT NO 4 SY NO 60/9 FATEH NAGAR VILLAGE SANATHNAGAR HYDERABAD Telangana-500042,Reliance Projects & Property Management Services Limited,Telangana,36AAJCR6636B1ZD,Hyderabad
,101,Telangana,Hyderabad,Trends Footwear,TZCE,Ameerpet,Reliance Projects & Property Management Services Limited,36AAJCR6636B1ZD,36,"RRL TF Ameerpet,Reliance Retail Limited,G Floorvamsee Estatepremisesno 6-3-788/3,Khairatabad Village,Ameerpet,HYDERABAD-500016",G.Suresh,G.Suresh,Hareesh Bhumireddy,"RRL TF Ameerpet,Reliance Retail Limited,G Floorvamsee Estatepremisesno 6-3-788/3,Khairatabad Village,Ameerpet,HYDERABAD-500016",Reliance Projects & Property Management Services Limited,Telangana,36AAJCR6636B1ZD,Hyderabad
,102,Telangana,Nizamabad,Smart,TNC9,Vinayaka Nagar,Reliance Projects & Property Management Services Limited,36AAJCR6636B1ZD,36,"Smart Vinayak Nagar Nizamabad,Reliance Retail Limited,S No 254&259 Nizamabad,Shivar Ward No 1,Block No 1 Vinayak Nagar,NIZAMABAD-503001",Karpe Srinivas,Karpe Srinivas,Jakku. Shankar,"Smart Vinayak Nagar Nizamabad,Reliance Retail Limited,S No 254&259 Nizamabad,Shivar Ward No 1,Block No 1 Vinayak Nagar,NIZAMABAD-503001",Reliance Projects & Property Management Services Limited,Telangana,36AAJCR6636B1ZD,Nizamabad
,103,Telangana,Nizamabad,Trends Footwear,5867,Nizamabad,Reliance Projects & Property Management Services Limited,36AAJCR6636B1ZD,36,"RRL Footprint Reliance Mall Nizamabad,Reliance Retail Limited,Reliance Mall Second Floor,Vinayak Nagar-503230,Nizamabad",Karpe Srinivas,Karpe Srinivas,Jakku. Shankar,"RRL Footprint Reliance Mall Nizamabad,Reliance Retail Limited,Reliance Mall Second Floor,Vinayak Nagar-503230,Nizamabad",Reliance Projects & Property Management Services Limited,Telangana,36AAJCR6636B1ZD,Nizamabad
,104,Telangana,Nizamabad,Trends,9410,Nizamabad,Reliance Projects & Property Management Services Limited,36AAJCR6636B1ZD,36,"RRL Trends Nizamabad,Reliance Retail Limited,S.No 254 /259,Vinayak Nagar Nizamabad shivar,Ward no.1,Block no.1-503001,Nizamabad",Karpe Srinivas,Karpe Srinivas,Jakku. Shankar,"RRL Trends Nizamabad,Reliance Retail Limited,S.No 254 /259,Vinayak Nagar Nizamabad shivar,Ward no.1,Block no.1-503001,Nizamabad",Reliance Projects & Property Management Services Limited,Telangana,36AAJCR6636B1ZD,Nizamabad
,105,Telangana,Bhainsa,Smart Point,FR5U,Bhainsa,Reliance Projects & Property Management Services Limited,36AAJCR6636B1ZD,36,"Muncipal No: 4-3-61/3,, Main Road, Bhainsa, Bhainsa, Telangana - 504103",V. Ajay,V. Ajay,Jakku. Shankar,"Muncipal No: 4-3-61/3,, Main Road, Bhainsa, Bhainsa, Telangana - 504103",Reliance Projects & Property Management Services Limited,Telangana,36AAJCR6636B1ZD,Bhainsa
,106,Telangana,Kamareddy,Smart Point,FR7K,Nizam Sagar X Road (G+1),Reliance Projects & Property Management Services Limited,36AAJCR6636B1ZD,36,"House No. 5-3-91/9/3, Vidhya Nagar, Nizam Sagar Road, Kamareddy - 503111",V. Ajay,V. Ajay,Jakku. Shankar,"House No. 5-3-91/9/3, Vidhya Nagar, Nizam Sagar Road, Kamareddy - 503111",Reliance Projects & Property Management Services Limited,Telangana,36AAJCR6636B1ZD,Kamareddy
,107,Telangana,Nizamabad,Mall Management,MCD2,Nizamabad,Reliance Projects & Property Management Services Limited,36AAJCR6636B1ZD,36,"Ward no.1, block no1,Opp. Thrimurthi Furniture’s,Vinayak Nagar,Nizamabad- 503002(Telangana).",Karpe Srinivas,Karpe Srinivas,Jakku. Shankar,"Ward no.1, block no1,Opp. Thrimurthi Furniture’s,Vinayak Nagar,Nizamabad- 503002(Telangana).",Reliance Projects & Property Management Services Limited,Telangana,36AAJCR6636B1ZD,Nizamabad
,108,Telangana,KamaReddy,Trends,R216,KamaReddy,Reliance Projects & Property Management Services Limited,36AAJCR6636B1ZD,36,"H.No 5-3-217/5, Vidyanagar Colony, Old NH-7 Road, Kamareddy Town & Dist, Telengana - 503111",V. Ajay,V. Ajay,Jakku. Shankar,"H.No 5-3-217/5, Vidyanagar Colony, Old NH-7 Road, Kamareddy Town & Dist, Telengana - 503111",Reliance Projects & Property Management Services Limited,Telangana,36AAJCR6636B1ZD,KamaReddy
,109,Telangana,Nizambad,Blush lace SIS,T0XP,Smart Bazaar nizamabad,Reliance Projects & Property Management Services Limited,36AAJCR6636B1ZD,36,"Η No 7 9 880 Ward 7 Block 9 ,Situate In Godown Road Near Bus Station Nizamabad 503003 Telangana",Karpe Srinivas,Karpe Srinivas,Jakku. Shankar,"Η No 7 9 880 Ward 7 Block 9 ,Situate In Godown Road Near Bus Station Nizamabad 503003 Telangana",Reliance Projects & Property Management Services Limited,Telangana,36AAJCR6636B1ZD,Nizambad
,110,Telangana,ARMOOR,John player,T1BO,Armoor Jeevan Reddy mall,Reliance Projects & Property Management Services Limited,36AAJCR6636B1ZD,36,"RRL JP Armoor Town,Reliance Retail Limited,H Nos 1 16/1 To 17 Covered By Sy Nos 401/69401/1416/2,Bus Depot Areaarmoor Town & Mandal,503224 ARMOOR",V. Ajay,V. Ajay,Jakku. Shankar,"RRL JP Armoor Town,Reliance Retail Limited,H Nos 1 16/1 To 17 Covered By Sy Nos 401/69401/1416/2,Bus Depot Areaarmoor Town & Mandal,503224 ARMOOR",Reliance Projects & Property Management Services Limited,Telangana,36AAJCR6636B1ZD,ARMOOR
,111,Telangana,Adilabad,METRO,T2JS,Adilabad,Reliance Projects & Property Management Services Limited,36AAJCR6636B1ZD,36,"Central Warehouse, Survey No 5253 & 54, Rampur Road, telangana, 504001",V. Ajay,V. Ajay,Jakku. Shankar,"Central Warehouse, Survey No 5253 & 54, Rampur Road, telangana, 504001",Reliance Projects & Property Management Services Limited,Telangana,36AAJCR6636B1ZD,Adilabad
,112,Telangana,Nizamabad,METRO,T2NV,Nizamabad,Reliance Projects & Property Management Services Limited,36AAJCR6636B1ZD,36,"Metro Cash & Carry India Private, Survey 270 to 276 Door 12/5/425,2,3,3A,3B,3C,3/42 to 45,3/47 to 51 CWC Sarangpur Nizamabad, 503186",Karpe Srinivas,Karpe Srinivas,Jakku. Shankar,"Metro Cash & Carry India Private, Survey 270 to 276 Door 12/5/425,2,3,3A,3B,3C,3/42 to 45,3/47 to 51 CWC Sarangpur Nizamabad, 503186",Reliance Projects & Property Management Services Limited,Telangana,36AAJCR6636B1ZD,Nizamabad
,113,Telangana,Nizambad,Centro Shoes,T3IL,Pragathi Nagar,V Retail Limited,36AACCV9907G1Z2,36,"GF FF building bearing P No 5-6-662&664, Pragati Nagar, Nizambad city, Mandal & District Ward No.5 Block No.6, Makloor",Karpe Srinivas,Karpe Srinivas,Jakku. Shankar,"GF FF building bearing P No 5-6-662&664, Pragati Nagar, Nizambad city, Mandal & District Ward No.5 Block No.6, Makloor",V Retail Limited,Telangana,36AACCV9907G1Z2,Nizambad
,114,Telangana,Nizamabad,Smart Bazaar,T42N,Smart Bazzar nizamabad,Reliance Projects & Property Management Services Limited,36AAJCR6636B1ZD,36,"Η No 7 9 880 Ward 7 Block 9 ,Situate In Godown Road Near Bus Station Nizamabad 503003 Telangana",Karpe Srinivas,Karpe Srinivas,Jakku. Shankar,"Η No 7 9 880 Ward 7 Block 9 ,Situate In Godown Road Near Bus Station Nizamabad 503003 Telangana",Reliance Projects & Property Management Services Limited,Telangana,36AAJCR6636B1ZD,Nizamabad
,115,Telangana,NIRMAL,Digital,T43O,Nirmal,Reliance Projects & Property Management Services Limited,36AAJCR6636B1ZD,36,"RRL CDIT-M.S Towers Commercial Complex,Bearing M No.1-2-69/2 & Situate in Nirmal Town & Mandal Dist ( TS)- 504106",V. Ajay,V. Ajay,Jakku. Shankar,"RRL CDIT-M.S Towers Commercial Complex,Bearing M No.1-2-69/2 & Situate in Nirmal Town & Mandal Dist ( TS)- 504106",Reliance Projects & Property Management Services Limited,Telangana,36AAJCR6636B1ZD,NIRMAL
,116,Telangana,Nizamabd,Digital,T4QO,Reliance Digital,Reliance Projects & Property Management Services Limited,36AAJCR6636B1ZD,36,"Reliance Digital , Servey No 306/P7 Nizmabad City , Mandal , Kanteswar , Armoor Road 503230",Karpe Srinivas,Karpe Srinivas,Jakku. Shankar,"Reliance Digital , Servey No 306/P7 Nizmabad City , Mandal , Kanteswar , Armoor Road 503230",Reliance Projects & Property Management Services Limited,Telangana,36AAJCR6636B1ZD,Nizamabd
,117,Telangana,Nizamabad,Digital,T754,Nizamabad,Reliance Projects & Property Management Services Limited,36AAJCR6636B1ZD,36,"RRL CDIT Nizamabad,Reliance Retail Limited,No 254 / 259 2nd floor,Nizamabad Shivar Ward 1 Block 1,Vinayak Nagar Nizamabad-503001,Nizamabad",Karpe Srinivas,Karpe Srinivas,Jakku. Shankar,"RRL CDIT Nizamabad,Reliance Retail Limited,No 254 / 259 2nd floor,Nizamabad Shivar Ward 1 Block 1,Vinayak Nagar Nizamabad-503001,Nizamabad",Reliance Projects & Property Management Services Limited,Telangana,36AAJCR6636B1ZD,Nizamabad
,118,Telangana,Nizamabad,Trends,T85Z,Nizamabad,Reliance Projects & Property Management Services Limited,36AAJCR6636B1ZD,36,"Reliance Trends, GFFFSF , Sy No 306/P7, In Nizamabad City & Mandal 503002 Nizamabad",Karpe Srinivas,Karpe Srinivas,Jakku. Shankar,"Reliance Trends, GFFFSF , Sy No 306/P7, In Nizamabad City & Mandal 503002 Nizamabad",Reliance Projects & Property Management Services Limited,Telangana,36AAJCR6636B1ZD,Nizamabad
,119,Telangana,Adilabad,Trends Footwear,T9TU,Adilabad,Reliance Projects & Property Management Services Limited,36AAJCR6636B1ZD,36,"D No 4 3 74/59 Plot No 62 Gf, Situated At Hameedpura, ADILABAD 504001",V. Ajay,V. Ajay,Jakku. Shankar,"D No 4 3 74/59 Plot No 62 Gf, Situated At Hameedpura, ADILABAD 504001",Reliance Projects & Property Management Services Limited,Telangana,36AAJCR6636B1ZD,Adilabad
,120,Telangana,Nizamabad,Lee cooper,TA3I,Venumall,Reliance Projects & Property Management Services Limited,36AAJCR6636B1ZD,36,"Situated In Nizamabad City Corporation, NIZAMABAD, 503001",Karpe Srinivas,Karpe Srinivas,Jakku. Shankar,"Situated In Nizamabad City Corporation, NIZAMABAD, 503001",Reliance Projects & Property Management Services Limited,Telangana,36AAJCR6636B1ZD,Nizamabad
,121,Telangana,Nizamabad,Digital,TCO2,Armoor Jeevan Reddy mall,Reliance Projects & Property Management Services Limited,36AAJCR6636B1ZD,36,"RRL CDIT-JR Mall Armoor,Ground and First Floor H No 1 -1 -6 to 17 Sy Nos 401/69 401/1 /416 /2,Bus Depot Area Armoor Town and Mandal, Armoor, Telangana-503224",V. Ajay,V. Ajay,Jakku. Shankar,"RRL CDIT-JR Mall Armoor,Ground and First Floor H No 1 -1 -6 to 17 Sy Nos 401/69 401/1 /416 /2,Bus Depot Area Armoor Town and Mandal, Armoor, Telangana-503224",Reliance Projects & Property Management Services Limited,Telangana,36AAJCR6636B1ZD,Nizamabad
,122,Telangana,Nizamabad,Smart,TCV5,Nizamabad,Reliance Projects & Property Management Services Limited,36AAJCR6636B1ZD,36,"Sy No. 322/A, 322/AA, 324/A & 325 Kanteshwar, Kanteshwar Nizamabad 503002 Telangana",Karpe Srinivas,Karpe Srinivas,Jakku. Shankar,"Sy No. 322/A, 322/AA, 324/A & 325 Kanteshwar, Kanteshwar Nizamabad 503002 Telangana",Reliance Projects & Property Management Services Limited,Telangana,36AAJCR6636B1ZD,Nizamabad
,123,Telangana,Nirmal,Trends,TEA2,Nirmal,Reliance Projects & Property Management Services Limited,36AAJCR6636B1ZD,36,"New Bus Stand Road, Nirmal Town & District - 504106 Telangana",V. Ajay,V. Ajay,Jakku. Shankar,"New Bus Stand Road, Nirmal Town & District - 504106 Telangana",Reliance Projects & Property Management Services Limited,Telangana,36AAJCR6636B1ZD,Nirmal
,124,Telangana,Bodhan,Trends Small Town,TFR5,Bodhan,Reliance Projects & Property Management Services Limited,36AAJCR6636B1ZD,36,"RRL Trends Bodhan,Relinance retail limited,Ho No-4-2-315,Sy no 269/AA, Ward No 8, Bodhan,Nizamabad-503185",Karpe Srinivas,Karpe Srinivas,Jakku. Shankar,"RRL Trends Bodhan,Relinance retail limited,Ho No-4-2-315,Sy no 269/AA, Ward No 8, Bodhan,Nizamabad-503185",Reliance Projects & Property Management Services Limited,Telangana,36AAJCR6636B1ZD,Bodhan
,125,Telangana,Banswada,Trends Small Town,TFZ8,Banswada,Reliance Projects & Property Management Services Limited,36AAJCR6636B1ZD,36,"RRL, Trends Small Town, Reliance Retail Limited, D.no. 1-1-59/A/B, Main Road, Opp Arya Samaj,Banswada ,Telangana - 503187",Karpe Srinivas,Karpe Srinivas,Jakku. Shankar,"RRL, Trends Small Town, Reliance Retail Limited, D.no. 1-1-59/A/B, Main Road, Opp Arya Samaj,Banswada ,Telangana - 503187",Reliance Projects & Property Management Services Limited,Telangana,36AAJCR6636B1ZD,Banswada
,126,Telangana,Nirmal,Smart,TOJ4,Nirmal,Reliance Projects & Property Management Services Limited,36AAJCR6636B1ZD,36,"H No.7-2-432, 7-2-433,7-2-434,7-2-437,7-2-435,7-2-83/361A,Chain Gate,Nirmal Town Mandal & Distrcit 504105 Telangana",V. Ajay,V. Ajay,Jakku. Shankar,"H No.7-2-432, 7-2-433,7-2-434,7-2-437,7-2-435,7-2-83/361A,Chain Gate,Nirmal Town Mandal & Distrcit 504105 Telangana",Reliance Projects & Property Management Services Limited,Telangana,36AAJCR6636B1ZD,Nirmal
,127,Telangana,Nizamabad,Blush lace SIS,TOV5,Banswada  Blush lace SIS store,Reliance Projects & Property Management Services Limited,36AAJCR6636B1ZD,36,"Reliance Smart Bearing No 1 1 83/26/1, Situated In Banswada Village &, Mandal & Nizamabad District 503187",Karpe Srinivas,Karpe Srinivas,Jakku. Shankar,"Reliance Smart Bearing No 1 1 83/26/1, Situated In Banswada Village &, Mandal & Nizamabad District 503187",Reliance Projects & Property Management Services Limited,Telangana,36AAJCR6636B1ZD,Nizamabad
,128,Telangana,Nizamabad,Trends,TPO2,Pragathi Nagar,Reliance Projects & Property Management Services Limited,36AAJCR6636B1ZD,36,"Venu Mall,Ground Floor,Bearing Premises no.5-6.661,covered by Sy.No-223,503001",Karpe Srinivas,Karpe Srinivas,Jakku. Shankar,"Venu Mall,Ground Floor,Bearing Premises no.5-6.661,covered by Sy.No-223,503001",Reliance Projects & Property Management Services Limited,Telangana,36AAJCR6636B1ZD,Nizamabad
,129,Telangana,Nizamabad,Trends Footwear,TPY5,Venu Mall,Reliance Projects & Property Management Services Limited,36AAJCR6636B1ZD,36,"RRL TF Venu Mall Nizamabad,Reliance Retail Limited,Venu Mall Shop No 11 And 12,503001,NIZAMABAD,Telangana",Karpe Srinivas,Karpe Srinivas,Jakku. Shankar,"RRL TF Venu Mall Nizamabad,Reliance Retail Limited,Venu Mall Shop No 11 And 12,503001,NIZAMABAD,Telangana",Reliance Projects & Property Management Services Limited,Telangana,36AAJCR6636B1ZD,Nizamabad
,130,Telangana,Nizamabad,Trends Junior,TTG4,Vinayaka Nagar,Reliance Projects & Property Management Services Limited,36AAJCR6636B1ZD,36,"Reliance Mall, First Floor, Survey No.254 & 259, Ward No.1, Block, no.1, Vinayak Nagar, District – Nizamabad 503002, State - Telangana",Karpe Srinivas,Karpe Srinivas,Jakku. Shankar,"Reliance Mall, First Floor, Survey No.254 & 259, Ward No.1, Block, no.1, Vinayak Nagar, District – Nizamabad 503002, State - Telangana",Reliance Projects & Property Management Services Limited,Telangana,36AAJCR6636B1ZD,Nizamabad
,131,Telangana,Adilabad,Digital,TUC4,Dasanpur Village,Reliance Projects & Property Management Services Limited,36AAJCR6636B1ZD,36,"RRL CDIT -Adilabad, SY No 37/1,Situavated in Dasanpur Villlage,GP Mavala Mandal Adilabad,Telangana-504002",V. Ajay,V. Ajay,Jakku. Shankar,"RRL CDIT -Adilabad, SY No 37/1,Situavated in Dasanpur Villlage,GP Mavala Mandal Adilabad,Telangana-504002",Reliance Projects & Property Management Services Limited,Telangana,36AAJCR6636B1ZD,Adilabad
,132,Telangana,Bodhan,Smart,TV11,Bodhan,Reliance Projects & Property Management Services Limited,36AAJCR6636B1ZD,36,"D No. 4-2-312, Sy No. 269 of Bodhan Tarfa Dhouthyal Shiva, Near New Bus Stand,Bodhan Town & Mandal Nizamabad  503185 Telengana",Karpe Srinivas,Karpe Srinivas,Jakku. Shankar,"D No. 4-2-312, Sy No. 269 of Bodhan Tarfa Dhouthyal Shiva, Near New Bus Stand,Bodhan Town & Mandal Nizamabad  503185 Telengana",Reliance Projects & Property Management Services Limited,Telangana,36AAJCR6636B1ZD,Bodhan
,133,Telangana,Nizamabad,Smart,TV14,Armoor Jeevan Reddy mall,Reliance Projects & Property Management Services Limited,36AAJCR6636B1ZD,36,"H No. 1-1-6/1 to 17, Sy No. 401/69, 401/1, 416/2, Bus Depot Area, Armoor Town & Mandal, Telengana 503224",V. Ajay,V. Ajay,Jakku. Shankar,"H No. 1-1-6/1 to 17, Sy No. 401/69, 401/1, 416/2, Bus Depot Area, Armoor Town & Mandal, Telengana 503224",Reliance Projects & Property Management Services Limited,Telangana,36AAJCR6636B1ZD,Nizamabad
,134,Telangana,Nizamabad,Trends Small Town,TV40,Armoor Jeevan Reddy mall,Reliance Projects & Property Management Services Limited,36AAJCR6636B1ZD,36,"D.no.116/1,Sy No:401/141,Jeevan Reddy Mall,Bus Depot Area, Armoor Town % Mandal,Nizamabad, Telangana-503224",V. Ajay,V. Ajay,Jakku. Shankar,"D.no.116/1,Sy No:401/141,Jeevan Reddy Mall,Bus Depot Area, Armoor Town % Mandal,Nizamabad, Telangana-503224",Reliance Projects & Property Management Services Limited,Telangana,36AAJCR6636B1ZD,Nizamabad
,135,Telangana,Nizamabad,John player,TVY0,Venu Mall,Reliance Projects & Property Management Services Limited,36AAJCR6636B1ZD,36,"RRL John Players Nizamabad Venu Mall,Reliance Retail Limited,Sy No 223 H No 5 6 661 Shop No 07,Situated In Nizamabad City Corporation,Mandal & District,NIZAMABAD-503001",Karpe Srinivas,Karpe Srinivas,Jakku. Shankar,"RRL John Players Nizamabad Venu Mall,Reliance Retail Limited,Sy No 223 H No 5 6 661 Shop No 07,Situated In Nizamabad City Corporation,Mandal & District,NIZAMABAD-503001",Reliance Projects & Property Management Services Limited,Telangana,36AAJCR6636B1ZD,Nizamabad
,136,Telangana,Adilabad,Trends,TW87,Adilabad,Reliance Projects & Property Management Services Limited,36AAJCR6636B1ZD,36,"H No 3-2-29/15/B1, AMBEDKAR CHOWK ADILABAD TOWN, ADILABAD MANDAL & DISTRICT, 504001",V. Ajay,V. Ajay,Jakku. Shankar,"H No 3-2-29/15/B1, AMBEDKAR CHOWK ADILABAD TOWN, ADILABAD MANDAL & DISTRICT, 504001",Reliance Projects & Property Management Services Limited,Telangana,36AAJCR6636B1ZD,Adilabad
,137,Telangana,Nizamabad,Trends Footwear,TWXB,Armore,Reliance Projects & Property Management Services Limited,36AAJCR6636B1ZD,36,"RRL TF Jeevan Reddy Mall,Reliance Retail Limited,Hnos 1 1 6/1 To 17Covered By Sy Nos 401/Situated At Bus Depot Area Armoor Town & Mandal 503224 ARMOOR",V. Ajay,V. Ajay,Jakku. Shankar,"RRL TF Jeevan Reddy Mall,Reliance Retail Limited,Hnos 1 1 6/1 To 17Covered By Sy Nos 401/Situated At Bus Depot Area Armoor Town & Mandal 503224 ARMOOR",Reliance Projects & Property Management Services Limited,Telangana,36AAJCR6636B1ZD,Nizamabad
,138,Telangana,Nirmal,Trends Small Town,TX5C,Kondamallepally/BHENISA,Reliance Projects & Property Management Services Limited,36AAJCR6636B1ZD,36,"To Relinace Trends, 4-3-58/17,Shivaji Chowk,Opposite to Sangeetha mobiles,Town: Bhainsa,Dist Nirmal,Pin code :504103",V. Ajay,V. Ajay,Jakku. Shankar,"To Relinace Trends, 4-3-58/17,Shivaji Chowk,Opposite to Sangeetha mobiles,Town: Bhainsa,Dist Nirmal,Pin code :504103",Reliance Projects & Property Management Services Limited,Telangana,36AAJCR6636B1ZD,Nirmal
,139,Telangana,Kamareddy,Digital,TY90,Kamareddy,Reliance Projects & Property Management Services Limited,36AAJCR6636B1ZD,36,"RRL CDIT-Beside Muncipal office NH,Reliance retail limited,GF FF and Second floor No H no 5-4-123,ward no.29,Beside Municipal office NH7 road,Kmareddy-503111",V. Ajay,V. Ajay,Jakku. Shankar,"RRL CDIT-Beside Muncipal office NH,Reliance retail limited,GF FF and Second floor No H no 5-4-123,ward no.29,Beside Municipal office NH7 road,Kmareddy-503111",Reliance Projects & Property Management Services Limited,Telangana,36AAJCR6636B1ZD,Kamareddy
,140,Telangana,Nizamabad,Kalanikethan,TY9N,Nizamabad,Reliance Projects & Property Management Services Limited,36AAJCR6636B1ZD,36,"KFPL Nizamabad VRK Silks,Reliance Retail Limited,Municipal No 1 8 100 1 8 100/A 1 8 140,1 8 142 & 1 8 141 Hyderabad Road,Opp Vamshi International Phulong,Seripur-503003",Karpe Srinivas,Karpe Srinivas,Jakku. Shankar,"KFPL Nizamabad VRK Silks,Reliance Retail Limited,Municipal No 1 8 100 1 8 100/A 1 8 140,1 8 142 & 1 8 141 Hyderabad Road,Opp Vamshi International Phulong,Seripur-503003",Reliance Projects & Property Management Services Limited,Telangana,36AAJCR6636B1ZD,Nizamabad
,141,Telangana,Nizamabad,Smart Bazaar,TZB6,"Srinivasa function hall, banswada",Reliance Projects & Property Management Services Limited,36AAJCR6636B1ZD,36,"Reliance Smart Bearing No 1 1 83/26/1, Situated In Banswada Village &, Mandal & Nizamabad District 503187",Karpe Srinivas,Karpe Srinivas,Jakku. Shankar,"Reliance Smart Bearing No 1 1 83/26/1, Situated In Banswada Village &, Mandal & Nizamabad District 503187",Reliance Projects & Property Management Services Limited,Telangana,36AAJCR6636B1ZD,Nizamabad
,142,Telangana,Nizamabad,Smart Point,U3DP,SMD Complex Varni,Reliance Projects & Property Management Services Limited,36AAJCR6636B1ZD,36,S M D Complex Plot No 4 And 5 Sy No 2499 A Opposite Sbi Bank Ambedkar Chowrasta Varni Nizamabad VARNI 503201 Telangana,Karpe Srinivas,Karpe Srinivas,Jakku. Shankar,S M D Complex Plot No 4 And 5 Sy No 2499 A Opposite Sbi Bank Ambedkar Chowrasta Varni Nizamabad VARNI 503201 Telangana,Reliance Projects & Property Management Services Limited,Telangana,36AAJCR6636B1ZD,Nizamabad
,143,Telangana,Nirmal,Smart Point,U3WO,Priyadarshini nagar/Nirmal,Reliance Projects & Property Management Services Limited,36AAJCR6636B1ZD,36,"SP Nirmal Town, Gf Plot No 17, Sy N 1919 , Nirmal Town Mandal, Dis Adilabad, 504106",V. Ajay,V. Ajay,Jakku. Shankar,"SP Nirmal Town, Gf Plot No 17, Sy N 1919 , Nirmal Town Mandal, Dis Adilabad, 504106",Reliance Projects & Property Management Services Limited,Telangana,36AAJCR6636B1ZD,Nirmal
,144,Telangana,Nizamabad,Smart Point,U701,Adanna Complex,Reliance Projects & Property Management Services Limited,36AAJCR6636B1ZD,36,GF Old Muncipal Nos 3 10 923 10 124 to 128 Ward No 3Block No 5 Shivaji Nagar Nizamabad 503001 Telangana,Karpe Srinivas,Karpe Srinivas,Jakku. Shankar,GF Old Muncipal Nos 3 10 923 10 124 to 128 Ward No 3Block No 5 Shivaji Nagar Nizamabad 503001 Telangana,Reliance Projects & Property Management Services Limited,Telangana,36AAJCR6636B1ZD,Nizamabad
,145,Telangana,Karim Nagar,Smart,2946,Karim Nagar,Reliance Projects & Property Management Services Limited,36AAJCR6636B1ZD,36,Plot No 74 and H.No 3-1-727/1;Dr Ambedkar Road;Karim Nagar town;505001,Ravi Kumar,Ravi Kumar,Katukoori Sairam,Plot No 74 and H.No 3-1-727/1;Dr Ambedkar Road;Karim Nagar town;505001,Reliance Projects & Property Management Services Limited,Telangana,36AAJCR6636B1ZD,Karim Nagar
,146,Telangana,Siddipet,Smart,2950,Siddipet,Reliance Projects & Property Management Services Limited,36AAJCR6636B1ZD,36,"
H No 12-3-187 / 1-2-3-4, 12-3-187/19 Medak Road, Murshadgadda Siddipet 
Hyderabad 502103
",Ravi Kumar,Ravi Kumar,Katukoori Sairam,"
H No 12-3-187 / 1-2-3-4, 12-3-187/19 Medak Road, Murshadgadda Siddipet 
Hyderabad 502103
",Reliance Projects & Property Management Services Limited,Telangana,36AAJCR6636B1ZD,Siddipet
,147,Telangana,Karim Nagar,Trends Footwear,5741,Karim Nagar,Reliance Projects & Property Management Services Limited,36AAJCR6636B1ZD,36,"Survey Nos 1342-1347-1348B -1349, OPP S R R Govt College Vivekanandpuri, Jagtilal Road, Karimnagar - 505001",T Srinivas,T Srinivas,Katukoori Sairam,"Survey Nos 1342-1347-1348B -1349, OPP S R R Govt College Vivekanandpuri, Jagtilal Road, Karimnagar - 505001",Reliance Projects & Property Management Services Limited,Telangana,36AAJCR6636B1ZD,Karim Nagar
,148,Telangana,Karim Nagar,Trends,5743,Karim Nagar,Reliance Projects & Property Management Services Limited,36AAJCR6636B1ZD,36,"Reliance Retail Limited,Sy.No. 134213471348B& 1349,Opp. SRR Govt. College,Vivekanandapuri,Karimnagar-505001",Ravi Kumar,Ravi Kumar,Katukoori Sairam,"Reliance Retail Limited,Sy.No. 134213471348B& 1349,Opp. SRR Govt. College,Vivekanandapuri,Karimnagar-505001",Reliance Projects & Property Management Services Limited,Telangana,36AAJCR6636B1ZD,Karim Nagar
,149,Telangana,Karim Nagar,Digital,6917,Karim Nagar,Reliance Projects & Property Management Services Limited,36AAJCR6636B1ZD,36,"RRL, CDIT, Vivekanandpuri, Karimnagar, Sy.No. 1342,1347,1348B& 1349, Opp. SRR Govt. College, Vivekanandapuri, Karimnagar, Telangana",T Srinivas,T Srinivas,Katukoori Sairam,"RRL, CDIT, Vivekanandpuri, Karimnagar, Sy.No. 1342,1347,1348B& 1349, Opp. SRR Govt. College, Vivekanandapuri, Karimnagar, Telangana",Reliance Projects & Property Management Services Limited,Telangana,36AAJCR6636B1ZD,Karim Nagar
,150,Telangana,Hyderabad,Digital,9183,Siddipet,Reliance Projects & Property Management Services Limited,36AAJCR6636B1ZD,36,"RRL CDIT Siddipet, Ground & First Floor H No 12-3192/1, Situated At Mohinpura Street Medak Road, Siddipet Medak District Telangana,",Ravi Kumar,Ravi Kumar,Katukoori Sairam,"RRL CDIT Siddipet, Ground & First Floor H No 12-3192/1, Situated At Mohinpura Street Medak Road, Siddipet Medak District Telangana,",Reliance Projects & Property Management Services Limited,Telangana,36AAJCR6636B1ZD,Hyderabad
,151,Telangana,Channnur,Smart Point,U19O, Chennur smart point,Reliance Projects & Property Management Services Limited,36AAJCR6636B1ZD,36,"SP Chennur Town,GF Plot No-15,SY No:983,chennur Muncipallity Dist-Mancherial,Telenagan-504201 ",M Shivaji,M Shivaji,Katukoori Sairam,"SP Chennur Town,GF Plot No-15,SY No:983,chennur Muncipallity Dist-Mancherial,Telenagan-504201 ",Reliance Projects & Property Management Services Limited,Telangana,36AAJCR6636B1ZD,Channnur
,152,Telangana,Vemulawada,Smart Point,FR6F,Vemulawada,Reliance Projects & Property Management Services Limited,36AAJCR6636B1ZD,36,"Ground floor, House No. 9-2-83 and 9-2-83/4, Vemulawada, Telangana - 505302",Ravi Kumar,Ravi Kumar,Katukoori Sairam,"Ground floor, House No. 9-2-83 and 9-2-83/4, Vemulawada, Telangana - 505302",Reliance Projects & Property Management Services Limited,Telangana,36AAJCR6636B1ZD,Vemulawada
,153,Telangana,Karim Nagar,Smart Point,FR6H,Gandhi Road KMR,Reliance Projects & Property Management Services Limited,36AAJCR6636B1ZD,36,"Hno-6-5-320 , 321 ,322 Gandhi Road , Karimnagar-505455",Ravi Kumar,Ravi Kumar,Katukoori Sairam,"Hno-6-5-320 , 321 ,322 Gandhi Road , Karimnagar-505455",Reliance Projects & Property Management Services Limited,Telangana,36AAJCR6636B1ZD,Karim Nagar
,154,Telangana,Mancherial,Smart Point,FR7A,Hitech colony,Reliance Projects & Property Management Services Limited,36AAJCR6636B1ZD,36,"H.No:3-367,Plot-35 & 51, Survey-366 To 368 ,371 To 375 & 396, Hitech City, Mancherial - 504208",M Shivaji,M Shivaji,Katukoori Sairam,"H.No:3-367,Plot-35 & 51, Survey-366 To 368 ,371 To 375 & 396, Hitech City, Mancherial - 504208",Reliance Projects & Property Management Services Limited,Telangana,36AAJCR6636B1ZD,Mancherial
,155,Telangana,Peddapalli,Smart Point,FR7V,Peddapalli,Reliance Projects & Property Management Services Limited,36AAJCR6636B1ZD,36,"Plot No. 1 & 2, SY NO.614,OPP. Government Hospital, Peddapalli- 505172",M Shivaji,M Shivaji,Katukoori Sairam,"Plot No. 1 & 2, SY NO.614,OPP. Government Hospital, Peddapalli- 505172",Reliance Projects & Property Management Services Limited,Telangana,36AAJCR6636B1ZD,Peddapalli
,156,Telangana,Kagaznagar,Smart Point,FR7Z,Kagaz Nagar,Reliance Projects & Property Management Services Limited,36AAJCR6636B1ZD,36,"House No. 1-6-550/5, SY NO. 147/2,Beside Venkatramana Theatre Main Road - 504296",M Shivaji,M Shivaji,Katukoori Sairam,"House No. 1-6-550/5, SY NO. 147/2,Beside Venkatramana Theatre Main Road - 504296",Reliance Projects & Property Management Services Limited,Telangana,36AAJCR6636B1ZD,Kagaznagar
,157,Telangana,Mancherial,Smart Point,FR8D,Mancherial,Reliance Projects & Property Management Services Limited,36AAJCR6636B1ZD,36,"10-67/1(Old)No.10-199,10-200,10-201(New), Hyderabad Road, Mancherial - 504208",M Shivaji,M Shivaji,Katukoori Sairam,"10-67/1(Old)No.10-199,10-200,10-201(New), Hyderabad Road, Mancherial - 504208",Reliance Projects & Property Management Services Limited,Telangana,36AAJCR6636B1ZD,Mancherial
,158,Telangana,Karim Nagar,Mall Management,M031,Karim Nagar,Reliance Projects & Property Management Services Limited,36AAJCR6636B1ZD,36,"Near SRR Degree college,Jagityala road,Karimnagar (Telangana), Pin. 505001",T Srinivas,T Srinivas,Katukoori Sairam,"Near SRR Degree college,Jagityala road,Karimnagar (Telangana), Pin. 505001",Reliance Projects & Property Management Services Limited,Telangana,36AAJCR6636B1ZD,Karim Nagar
,159,Telangana,Siddipet,METRO,T2IY,Siddipet Metro,Reliance Projects & Property Management Services Limited,36AAJCR6636B1ZD,36,"Central Warehouse, Ganesh Nagar, Siddipet, Telangana, 502103",Ravi Kumar,Ravi Kumar,Katukoori Sairam,"Central Warehouse, Ganesh Nagar, Siddipet, Telangana, 502103",Reliance Projects & Property Management Services Limited,Telangana,36AAJCR6636B1ZD,Siddipet
,160,Telangana,Siddipet,Jewells,T1XG,Shivaji Nagar,Reliance Projects & Property Management Services Limited,36AAJCR6636B1ZD,36,"Reliance Jewels, Ground Floor, H-N-11-145, Siddipet Town, Siddipet Dist. Telangana 502103",Ravi Kumar,Ravi Kumar,Katukoori Sairam,"Reliance Jewels, Ground Floor, H-N-11-145, Siddipet Town, Siddipet Dist. Telangana 502103",Reliance Projects & Property Management Services Limited,Telangana,36AAJCR6636B1ZD,Siddipet
,161,Telangana,Karim Nagar,METRO,T2JT,Karim nagar Metro,Reliance Projects & Property Management Services Limited,36AAJCR6636B1ZD,36,"973982 Door No 9 2 689 2 56To59, 61To67Godamgadda Bhagat Nagar,505002",Ravi Kumar,Ravi Kumar,Katukoori Sairam,"973982 Door No 9 2 689 2 56To59, 61To67Godamgadda Bhagat Nagar,505002",Reliance Projects & Property Management Services Limited,Telangana,36AAJCR6636B1ZD,Karim Nagar
,162,Telangana,Karim Nagar,Digital,T52P,Jubilee Kaman,Reliance Projects & Property Management Services Limited,36AAJCR6636B1ZD,36,"RRL CDIT-Karimnagar,H.No. 8 – 5 403/3, 8, 9 12 and Survey No.451,the Building situated at Jubilee Kaman Circle,Karimnagar Town District Telangana-505001",Ravi Kumar,Ravi Kumar,Katukoori Sairam,"RRL CDIT-Karimnagar,H.No. 8 – 5 403/3, 8, 9 12 and Survey No.451,the Building situated at Jubilee Kaman Circle,Karimnagar Town District Telangana-505001",Reliance Projects & Property Management Services Limited,Telangana,36AAJCR6636B1ZD,Karim Nagar
,163,Telangana,Siddipet,Trends,T563,Siddipet,Reliance Projects & Property Management Services Limited,36AAJCR6636B1ZD,36,"ADJ BUS STAND, SIDDIPETA TOWN & DISTRICT",Ravi Kumar,Ravi Kumar,Katukoori Sairam,"ADJ BUS STAND, SIDDIPETA TOWN & DISTRICT",Reliance Projects & Property Management Services Limited,Telangana,36AAJCR6636B1ZD,Siddipet
,164,Telangana,Karimnagar,Centro Shoes,T9HX,Centro Shoes,V Retail Limited,36AACCV9907G1Z2,36,"Ground & First Floor, K.M.C. No. 2-6-307, Hotel Manair Complex, IB Rd, Beside MAX, Mukarampura, Karimnagar, Telangana 505001,",Ravi Kumar,Ravi Kumar,Katukoori Sairam,"Ground & First Floor, K.M.C. No. 2-6-307, Hotel Manair Complex, IB Rd, Beside MAX, Mukarampura, Karimnagar, Telangana 505001,",V Retail Limited,Telangana,36AACCV9907G1Z2,Karimnagar
,165,Telangana,KHAGAZNAGAR,Trends Small Town,T9XA,KHAGAZNAGAR TST,Reliance Projects & Property Management Services Limited,36AAJCR6636B1ZD,36,"Reliance Retail Limited Trends Express GF Ff H No:- 1-16-334 Sy No-138 Komaram Bheem Asifabad Kaghaznagar, Telangana-504296",M Shivaji,M Shivaji,Katukoori Sairam,"Reliance Retail Limited Trends Express GF Ff H No:- 1-16-334 Sy No-138 Komaram Bheem Asifabad Kaghaznagar, Telangana-504296",Reliance Projects & Property Management Services Limited,Telangana,36AAJCR6636B1ZD,KHAGAZNAGAR
,166,Telangana,Karim Nagar,Zivame,TAPP,Reliance Mall,Reliance Projects & Property Management Services Limited,36AAJCR6636B1ZD,36,"Store No . RSS 02 ( Floor No . GF ) Reliance Mega, Nr. S R R Degree College, Jagityala  Road, Karimngar- 505001.",T Srinivas,T Srinivas,Katukoori Sairam,"Store No . RSS 02 ( Floor No . GF ) Reliance Mega, Nr. S R R Degree College, Jagityala  Road, Karimngar- 505001.",Reliance Projects & Property Management Services Limited,Telangana,36AAJCR6636B1ZD,Karim Nagar
,167,Telangana,Husnabad,Trends Small Town,TFZ3,Husnabad,Reliance Projects & Property Management Services Limited,36AAJCR6636B1ZD,36,"Trends Small Town, Reliance Retail Limited, D.no. 12-84, Near Bhanu Hospital,
Hanmakonda Road, Husnabad, Karimnagar Dist., Telangana - 505467
",Ravi Kumar,Ravi Kumar,Katukoori Sairam,"Trends Small Town, Reliance Retail Limited, D.no. 12-84, Near Bhanu Hospital,
Hanmakonda Road, Husnabad, Karimnagar Dist., Telangana - 505467
",Reliance Projects & Property Management Services Limited,Telangana,36AAJCR6636B1ZD,Husnabad
,168,Telangana,Machiryala,Digital,TH21,Machiryala,Reliance Projects & Property Management Services Limited,36AAJCR6636B1ZD,36,"Reliance Retail Limited,Ground / First Floor Sy No 54/A1,Naspur Village Mancherial Town & Mandal,Mancherial District Telangana.Mancherial-504208",M Shivaji,M Shivaji,Katukoori Sairam,"Reliance Retail Limited,Ground / First Floor Sy No 54/A1,Naspur Village Mancherial Town & Mandal,Mancherial District Telangana.Mancherial-504208",Reliance Projects & Property Management Services Limited,Telangana,36AAJCR6636B1ZD,Machiryala
,169,Telangana,Peddapalli,Trends,TKC4,Peddapalli,Reliance Projects & Property Management Services Limited,36AAJCR6636B1ZD,36,"Opp bus stand area,Peddapalli Telangana -505172",M Shivaji,M Shivaji,Katukoori Sairam,"Opp bus stand area,Peddapalli Telangana -505172",Reliance Projects & Property Management Services Limited,Telangana,36AAJCR6636B1ZD,Peddapalli
,170,Telangana,Adilabad,Smart,TKX3,Naspur,Reliance Projects & Property Management Services Limited,36AAJCR6636B1ZD,36,"Smart Naspur, Sy No. 94, Naspur Village, Mancherial Mandal & District, Adilabad - Telangan, Mancherial Mandal & District, Adilabad - Telangana 504302",M Shivaji,M Shivaji,Katukoori Sairam,"Smart Naspur, Sy No. 94, Naspur Village, Mancherial Mandal & District, Adilabad - Telangan, Mancherial Mandal & District, Adilabad - Telangana 504302",Reliance Projects & Property Management Services Limited,Telangana,36AAJCR6636B1ZD,Adilabad
,171,Telangana,Mancherial,Trends,TN03,Mancherial,Reliance Projects & Property Management Services Limited,36AAJCR6636B1ZD,36,"RRL Trends Mancherial,Reliance Retail Limited,D.No.4-540 (Old D.No.4-75),Sy.No.88 Besides : BSNL Compound,Mancherial Town & Dist-504208,MANCHERIAL",M Shivaji,M Shivaji,Katukoori Sairam,"RRL Trends Mancherial,Reliance Retail Limited,D.No.4-540 (Old D.No.4-75),Sy.No.88 Besides : BSNL Compound,Mancherial Town & Dist-504208,MANCHERIAL",Reliance Projects & Property Management Services Limited,Telangana,36AAJCR6636B1ZD,Mancherial
,172,Telangana,Ramgundam,Trends,TSQ9,Ramagundam,Reliance Projects & Property Management Services Limited,36AAJCR6636B1ZD,36,"RRL Trends Ramagundam,H No 5-6-114115116&117, SY Nos259/A & 261 Rajeev High Way, Krishna Nagar, Ramagundam town, PEDDAPALLI,Telangana,Pin code: 505209",M Shivaji,M Shivaji,Katukoori Sairam,"RRL Trends Ramagundam,H No 5-6-114115116&117, SY Nos259/A & 261 Rajeev High Way, Krishna Nagar, Ramagundam town, PEDDAPALLI,Telangana,Pin code: 505209",Reliance Projects & Property Management Services Limited,Telangana,36AAJCR6636B1ZD,Ramgundam
,173,Telangana,Luxetipet,Trends Small Town,TTD4,Luxetipet,Reliance Projects & Property Management Services Limited,36AAJCR6636B1ZD,36,"RRL TST Luxettipet,RRL TST Luxettipet,Sy Nos 271 271A2,Uthkoor Village Shivar,Luxettipet Dist Mancherial,LUXETTIPET-LUXETTIPET",M Shivaji,M Shivaji,Katukoori Sairam,"RRL TST Luxettipet,RRL TST Luxettipet,Sy Nos 271 271A2,Uthkoor Village Shivar,Luxettipet Dist Mancherial,LUXETTIPET-LUXETTIPET",Reliance Projects & Property Management Services Limited,Telangana,36AAJCR6636B1ZD,Luxetipet
,174,Telangana,Siddipet,SP Pharma SIS,TTP7,NGO Colony,Reliance Retail Ventures Limited,36AADCR6715M1Z0,36,H No 18 14 119 on Ground Floor situate in Siddipet Town Mandal and Dist Hyderabad 502103 Telangana,Ravi Kumar,Ravi Kumar,Katukoori Sairam,H No 18 14 119 on Ground Floor situate in Siddipet Town Mandal and Dist Hyderabad 502103 Telangana,Reliance Retail Ventures Limited,Telangana,36AADCR6715M1Z0,Siddipet
,175,Telangana,Karim Nagar,Trends,TV28,Karim Nagar,Reliance Projects & Property Management Services Limited,36AAJCR6636B1ZD,36,"D.No.2-8-272/273 and situate in Mukarampura,Karimnagar Town & District Telangana – 505001",Ravi Kumar,Ravi Kumar,Katukoori Sairam,"D.No.2-8-272/273 and situate in Mukarampura,Karimnagar Town & District Telangana – 505001",Reliance Projects & Property Management Services Limited,Telangana,36AAJCR6636B1ZD,Karim Nagar
,176,Telangana,Siricilla,Trends,TV41,Siricilla,Reliance Projects & Property Management Services Limited,36AAJCR6636B1ZD,36,"RRL Trends siricilla,Reliance retail limited, M.No.9-4-84 and situate in Siricilla Town & Mandal, Rajanna Siricilla District, Telangana - 505301",Ravi Kumar,Ravi Kumar,Katukoori Sairam,"RRL Trends siricilla,Reliance retail limited, M.No.9-4-84 and situate in Siricilla Town & Mandal, Rajanna Siricilla District, Telangana - 505301",Reliance Projects & Property Management Services Limited,Telangana,36AAJCR6636B1ZD,Siricilla
,177,Telangana,Karim Nagar,SP Pharma SIS,TW7W,Ashok Reddy Property,Reliance Retail Ventures Limited,36AADCR6715M1Z0,36,"Q1KG-U761-SP ASHOK REDDY PROPERTY,DMART Beside 1,2,3,4&5 DMART Road Karimnagar, Telangana-505001",M Shivaji,M Shivaji,Katukoori Sairam,"Q1KG-U761-SP ASHOK REDDY PROPERTY,DMART Beside 1,2,3,4&5 DMART Road Karimnagar, Telangana-505001",Reliance Retail Ventures Limited,Telangana,36AADCR6715M1Z0,Karim Nagar
,178,Telangana,Ramgundam,SP Pharma SIS,TWE3,Markandeya Colony,Reliance Retail Ventures Limited,36AADCR6715M1Z0,36,"Ramagundam Ramesh Property H.NO.212-195- 21A1 Markandeya Colony, Godavarikhani,Ramagundam- 505209 Telangana",M Shivaji,M Shivaji,Katukoori Sairam,"Ramagundam Ramesh Property H.NO.212-195- 21A1 Markandeya Colony, Godavarikhani,Ramagundam- 505209 Telangana",Reliance Retail Ventures Limited,Telangana,36AADCR6715M1Z0,Ramgundam
,179,Telangana,Husnabad,SP Pharma SIS,TWHM,Kankyyas Property,Reliance Retail Ventures Limited,36AADCR6715M1Z0,36,"SP Kankyyas property Husnabad, siddipet-  505302 Telangana",Ravi Kumar,Ravi Kumar,Katukoori Sairam,"SP Kankyyas property Husnabad, siddipet-  505302 Telangana",Reliance Retail Ventures Limited,Telangana,36AADCR6715M1Z0,Husnabad
,180,Telangana,Vemulawada,Trends Small Town,TWTP,Vemulawada,Reliance Projects & Property Management Services Limited,36AAJCR6636B1ZD,36,"TST VEMULAWADA,SY,NO.1378,1380,1381,1382&1384,VEMULAWADA- 505302 Telangana",Ravi Kumar,Ravi Kumar,Katukoori Sairam,"TST VEMULAWADA,SY,NO.1378,1380,1381,1382&1384,VEMULAWADA- 505302 Telangana",Reliance Projects & Property Management Services Limited,Telangana,36AAJCR6636B1ZD,Vemulawada
,181,Telangana,Cherial,Trends Small Town,TWUM,Cherial,Reliance Projects & Property Management Services Limited,36AAJCR6636B1ZD,36,"Reliance Retail Ltd, Plot No 26,27,28 & 29, Sy No: 984,Cherial Mandal & Village, Dist.Siddipet, Telangana - 506223",Ravi Kumar,Ravi Kumar,Katukoori Sairam,"Reliance Retail Ltd, Plot No 26,27,28 & 29, Sy No: 984,Cherial Mandal & Village, Dist.Siddipet, Telangana - 506223",Reliance Projects & Property Management Services Limited,Telangana,36AAJCR6636B1ZD,Cherial
,182,Telangana,Naspur,Trends Small Town,TWUZ,Naspur,Reliance Projects & Property Management Services Limited,36AAJCR6636B1ZD,36,"RRL TST Naspur,Reliance Retail Limited,Sy No 97 A And 98 A,Plot No 8 Naspur Municipality And Mandal,Naspur Dist Mancherial,NASPUR-504208",M Shivaji,M Shivaji,Katukoori Sairam,"RRL TST Naspur,Reliance Retail Limited,Sy No 97 A And 98 A,Plot No 8 Naspur Municipality And Mandal,Naspur Dist Mancherial,NASPUR-504208",Reliance Projects & Property Management Services Limited,Telangana,36AAJCR6636B1ZD,Naspur
,183,Telangana,ASIFABAD,Trends,TX3Q,RRL Trends Asifabad K B Chowk,Reliance Projects & Property Management Services Limited,36AAJCR6636B1ZD,36,"Sy No 189 Bearing H No 5 165/2,K B Chowk Asifabad Town & Mandal,Komaram Bheem,ASIFABAD-504293",M Shivaji,M Shivaji,Katukoori Sairam,"Sy No 189 Bearing H No 5 165/2,K B Chowk Asifabad Town & Mandal,Komaram Bheem,ASIFABAD-504293",Reliance Projects & Property Management Services Limited,Telangana,36AAJCR6636B1ZD,ASIFABAD
,184,Telangana,Siddipet,Avantra Trends,T8AE,Siddipet,Reliance Projects & Property Management Services Limited,36AAJCR6636B1ZD,36,"RRL Trends Sarees Siddipet,Reliance Retail Limited,H No 11 3 11/4 12 1 142 To 12 1 150,Siddipet Town Mandal & Dist,SIDDIPET-502103",Ravi Kumar,Ravi Kumar,Katukoori Sairam,"RRL Trends Sarees Siddipet,Reliance Retail Limited,H No 11 3 11/4 12 1 142 To 12 1 150,Siddipet Town Mandal & Dist,SIDDIPET-502103",Reliance Projects & Property Management Services Limited,Telangana,36AAJCR6636B1ZD,Siddipet
,185,Telangana,Siddipet,Trends,TXXN,Siddipet,Reliance Projects & Property Management Services Limited,36AAJCR6636B1ZD,36,"RRL Trends Siddipet,Reliance Retail Limited,Hno11 3 11/412 1 142 To12 1 150Old,Siddipet Town,Mandal & Dist Siddipet-502103",Ravi Kumar,Ravi Kumar,Katukoori Sairam,"RRL Trends Siddipet,Reliance Retail Limited,Hno11 3 11/412 1 142 To12 1 150Old,Siddipet Town,Mandal & Dist Siddipet-502103",Reliance Projects & Property Management Services Limited,Telangana,36AAJCR6636B1ZD,Siddipet
,186,Telangana,Karim Nagar,Kalanikethan,TY5Q,Karimnagar,Reliance Projects & Property Management Services Limited,36AAJCR6636B1ZD,36,"KFPL Karimnagar VRK Silks,Reliance Retail Limited,Municipal No 4 1 1 And 4 1 1/A,Swaran Street Osmanpura,Sawaranstree Karimnagar-505001",Ravi Kumar,Ravi Kumar,Katukoori Sairam,"KFPL Karimnagar VRK Silks,Reliance Retail Limited,Municipal No 4 1 1 And 4 1 1/A,Swaran Street Osmanpura,Sawaranstree Karimnagar-505001",Reliance Projects & Property Management Services Limited,Telangana,36AAJCR6636B1ZD,Karim Nagar
,187,Telangana,Karim Nagar,Kalanikethan,TY9S,Karimnagar Womens World,Reliance Projects & Property Management Services Limited,36AAJCR6636B1ZD,36,"KFPL Karimnagar Womens World,Reliance Retail Limited,4 1 1 And 4 1 1/A Zaheer Center,Sawaran Street House Osmanpura,Opp Andhra Bank Main Branch,Karimnagar-505001",Ravi Kumar,Ravi Kumar,Katukoori Sairam,"KFPL Karimnagar Womens World,Reliance Retail Limited,4 1 1 And 4 1 1/A Zaheer Center,Sawaran Street House Osmanpura,Opp Andhra Bank Main Branch,Karimnagar-505001",Reliance Projects & Property Management Services Limited,Telangana,36AAJCR6636B1ZD,Karim Nagar
,188,Telangana,Karim Nagar,Trends Footwear,TZWS,Arepally Road,Reliance Projects & Property Management Services Limited,36AAJCR6636B1ZD,36,"RRL TF Jagityal Road,Reliance Retail Limited,Premises no3 1 857858859 Situated At,Syno1333 Arepally Road Karimnagar Town,Mandal And District Karimnagar-505001",Ravi Kumar,Ravi Kumar,Katukoori Sairam,"RRL TF Jagityal Road,Reliance Retail Limited,Premises no3 1 857858859 Situated At,Syno1333 Arepally Road Karimnagar Town,Mandal And District Karimnagar-505001",Reliance Projects & Property Management Services Limited,Telangana,36AAJCR6636B1ZD,Karim Nagar
,189,Telangana,Ramgundam,Smart Point,U19T,Ramgundam,Reliance Projects & Property Management Services Limited,36AAJCR6636B1ZD,36,"Ramagundam Ramesh Property H.NO.212-195- 21A1 Markandeya Colony, Godavarikhani,Ramagundam- 505209 Telangana",M Shivaji,M Shivaji,Katukoori Sairam,"Ramagundam Ramesh Property H.NO.212-195- 21A1 Markandeya Colony, Godavarikhani,Ramagundam- 505209 Telangana",Reliance Projects & Property Management Services Limited,Telangana,36AAJCR6636B1ZD,Ramgundam
,190,Telangana,Husnabad,Smart Point,U1JP,Nagaram Road,Reliance Projects & Property Management Services Limited,36AAJCR6636B1ZD,36,"SP Kankyyas property Husnabad, siddipet-  505302 Telangana",Ravi Kumar,Ravi Kumar,Katukoori Sairam,"SP Kankyyas property Husnabad, siddipet-  505302 Telangana",Reliance Projects & Property Management Services Limited,Telangana,36AAJCR6636B1ZD,Husnabad
,191,Telangana,Belampalli,Smart Point,U2QK,Raheem property,Reliance Projects & Property Management Services Limited,36AAJCR6636B1ZD,36,"Raheem property plot no:61,62,survey no:109 17 beside st mary'sschool lane catlex area belampalli telangana-504251",M Shivaji,M Shivaji,Katukoori Sairam,"Raheem property plot no:61,62,survey no:109 17 beside st mary'sschool lane catlex area belampalli telangana-504251",Reliance Projects & Property Management Services Limited,Telangana,36AAJCR6636B1ZD,Belampalli
,192,Telangana,Sirpur,Smart Point,U2TM,Kaghaznagar,Reliance Projects & Property Management Services Limited,36AAJCR6636B1ZD,36,"17 18 And 19 Kapuwada Kagaznagar Mandal, Sirpur Kaghaznagar Kumarambheem Asifa, Pin - 504296",M Shivaji,M Shivaji,Katukoori Sairam,"17 18 And 19 Kapuwada Kagaznagar Mandal, Sirpur Kaghaznagar Kumarambheem Asifa, Pin - 504296",Reliance Projects & Property Management Services Limited,Telangana,36AAJCR6636B1ZD,Sirpur
,193,Telangana,Karim Nagar,Smart Point,U2V8,Kothapally,Reliance Projects & Property Management Services Limited,36AAJCR6636B1ZD,36,"Smart Point, Survey No:631, Near Bus Stand, Opposite Markandeya Temple, Kothapally, Karimnagar, Telangana-505451",Ravi Kumar,Ravi Kumar,Katukoori Sairam,"Smart Point, Survey No:631, Near Bus Stand, Opposite Markandeya Temple, Kothapally, Karimnagar, Telangana-505451",Reliance Projects & Property Management Services Limited,Telangana,36AAJCR6636B1ZD,Karim Nagar
,194,Telangana,Huzurabad,Smart Point,U2VQ,Kyasam mallaiah complex,Reliance Projects & Property Management Services Limited,36AAJCR6636B1ZD,36,"kysam mallaiah complex H.no:14 156 14 157 14 161,162 & 163 mamindlawada road beside city central conventions Huzurzbad ,Telanagana-505468",Ravi Kumar,Ravi Kumar,Katukoori Sairam,"kysam mallaiah complex H.no:14 156 14 157 14 161,162 & 163 mamindlawada road beside city central conventions Huzurzbad ,Telanagana-505468",Reliance Projects & Property Management Services Limited,Telangana,36AAJCR6636B1ZD,Huzurabad
,195,Telangana,Jammikunta,Smart Point,U3GO,Jammikunta,Reliance Projects & Property Management Services Limited,36AAJCR6636B1ZD,36,Bsr Complex H No 6 2 41 A A 2 Opp Govt Degree College Jammikunta Karimnagar JAMMIKUNTA 505122 Telangana,Ravi Kumar,Ravi Kumar,Katukoori Sairam,Bsr Complex H No 6 2 41 A A 2 Opp Govt Degree College Jammikunta Karimnagar JAMMIKUNTA 505122 Telangana,Reliance Projects & Property Management Services Limited,Telangana,36AAJCR6636B1ZD,Jammikunta
,196,Telangana,SIRICILLA,Smart Point,U3NX,Siricilla SMART POINT,Reliance Projects & Property Management Services Limited,36AAJCR6636B1ZD,36,"SP Prasad Building Siricilla,Prasad Building Plot No 37 & 38 ,At Sy No 720 Venkatronagar Siricilla-505301",Ravi Kumar,Ravi Kumar,Katukoori Sairam,"SP Prasad Building Siricilla,Prasad Building Plot No 37 & 38 ,At Sy No 720 Venkatronagar Siricilla-505301",Reliance Projects & Property Management Services Limited,Telangana,36AAJCR6636B1ZD,SIRICILLA
,197,Telangana,Karim Nagar,Smart Point,U761,Ashok reddy Property,Reliance Projects & Property Management Services Limited,36AAJCR6636B1ZD,36,"Q1KG-U761-SP ASHOK REDDY PROPERTY,DMART Beside 1,2,3,4&5 DMART Road Karimnagar, Telangana-505001",Ravi Kumar,Ravi Kumar,Katukoori Sairam,"Q1KG-U761-SP ASHOK REDDY PROPERTY,DMART Beside 1,2,3,4&5 DMART Road Karimnagar, Telangana-505001",Reliance Projects & Property Management Services Limited,Telangana,36AAJCR6636B1ZD,Karim Nagar
,198,Telangana,Siddipet,Smart Point,U962,NGO Colony,Reliance Projects & Property Management Services Limited,36AAJCR6636B1ZD,36,H No 18 14 119 on Ground Floor situate in Siddipet Town Mandal and Dist Hyderabad 502103 Telangana,Ravi Kumar,Ravi Kumar,Katukoori Sairam,H No 18 14 119 on Ground Floor situate in Siddipet Town Mandal and Dist Hyderabad 502103 Telangana,Reliance Projects & Property Management Services Limited,Telangana,36AAJCR6636B1ZD,Siddipet
,199,Telangana,Hyderabad,VF GM DC,SI08,Devarayamzal (SH68),Reliance Retail Ventures Limited,36AADCR6715M1Z0,36,"QSCPL VF TS Hyderabad GM DC,QWIK Supply Chain Private Ltd,Sy No 6095 Shameerpet Mandal,Deveyarmzal Villageshameerpet,HYDERABAD-500014",V.U.V.Prasad,V.U.V.Prasad,M. Vijay Kumar,"QSCPL VF TS Hyderabad GM DC,QWIK Supply Chain Private Ltd,Sy No 6095 Shameerpet Mandal,Deveyarmzal Villageshameerpet,HYDERABAD-500014",Reliance Retail Ventures Limited,Telangana,36AADCR6715M1Z0,Hyderabad
,200,Telangana,Hyderabad,VF CDC,SD42,Gundla Pochampally ( FREI CDC),Reliance Retail Ventures Limited,36AADCR6715M1Z0,36,"SURVEY NO 695/696,BEHIND LIFESTYLE WARE, HOUSE,GUNDLA POCHAMPALLY VILLAGE",Hari Krishna,Hari Krishna,M. Vijay Kumar,"SURVEY NO 695/696,BEHIND LIFESTYLE WARE, HOUSE,GUNDLA POCHAMPALLY VILLAGE",Reliance Retail Ventures Limited,Telangana,36AADCR6715M1Z0,Hyderabad
,201,Telangana,Hyderabad,Trends DC,R302,Devarayamjal Trends,Reliance Projects & Property Management Services Limited,36AAJCR6636B1ZD,36,"RRL Trends HYD Devarayam Jal,Reliance Retail Limited,Sy No. 645/B DevarayamJal Village, Shamirpet Mandal,Medchal- Malkajgiri Dist-500014,Hyderabad",V.U.V.Prasad,V.U.V.Prasad,M. Vijay Kumar,"RRL Trends HYD Devarayam Jal,Reliance Retail Limited,Sy No. 645/B DevarayamJal Village, Shamirpet Mandal,Medchal- Malkajgiri Dist-500014,Hyderabad",Reliance Projects & Property Management Services Limited,Telangana,36AAJCR6636B1ZD,Hyderabad
,202,Telangana,Hyderabad,VF DC,R303,Devarayamjal VF DC,Reliance Retail Ventures Limited,36AADCR6715M1Z0,36,"RRL Super Kompally VS,Reliance Retail Limited,Sy No. 645/B DevarayamJal Village, Shamirpet Mandal,Medchal- Malkajgiri Dist-500014,Hyderabad",V.U.V.Prasad,V.U.V.Prasad,M. Vijay Kumar,"RRL Super Kompally VS,Reliance Retail Limited,Sy No. 645/B DevarayamJal Village, Shamirpet Mandal,Medchal- Malkajgiri Dist-500014,Hyderabad",Reliance Retail Ventures Limited,Telangana,36AADCR6715M1Z0,Hyderabad
,203,Telangana,Hyderabad,CDIT-DC,SE40,Pudur Digital DC,Reliance Retail Ventures Limited,36AADCR6715M1Z0,36,"RRLCDIT Hyderabad DC,SY328 to 337 358 359 359 361465 475 476,Pudoor Village Medchal Mandal,Medchal Malkajgiri District Hyderabad-501401",Anand kumar,Anand kumar,M. Vijay Kumar,"RRLCDIT Hyderabad DC,SY328 to 337 358 359 359 361465 475 476,Pudoor Village Medchal Mandal,Medchal Malkajgiri District Hyderabad-501401",Reliance Retail Ventures Limited,Telangana,36AADCR6715M1Z0,Hyderabad
,204,Telangana,Hyderabad,Jio mart FC,SKAA,Pudur JFC,Reliance Projects & Property Management Services Limited,36AAJCR6636B1ZD,36,"Reliance Project & Property management services ltd, 
SKAA RRL TS HYD Pudur 3P RFC, HYDERABAD
Sy no:594/ part of and situated in 36AAJCR6636B1ZD, Pudur village, 
medchal mandal, medchal,malkajgiri, kamareddy, 
HYDERABAD 501401, TELANGANA, INDIA.",Baki Raju,Baki Raju,M. Vijay Kumar,"Reliance Project & Property management services ltd, 
SKAA RRL TS HYD Pudur 3P RFC, HYDERABAD
Sy no:594/ part of and situated in 36AAJCR6636B1ZD, Pudur village, 
medchal mandal, medchal,malkajgiri, kamareddy, 
HYDERABAD 501401, TELANGANA, INDIA.",Reliance Projects & Property Management Services Limited,Telangana,36AAJCR6636B1ZD,Hyderabad
,205,Telangana,Hyderabad,PCS,YPA2,Pudur PCS,Reliance Retail Ventures Limited,36AADCR6715M1Z0,36,"Reliance Food Processing Solutions Ltd., C/O Wrinkle Card Packages Pvt. Ltd., Survey No. 479, 481, 488, Yamjal Road, Pudur Village, Medchal Mandal, RR District, AP, PIN: 501401",Kotha. Kumaraswamy,Kotha. Kumaraswamy,M. Vijay Kumar,"Reliance Food Processing Solutions Ltd., C/O Wrinkle Card Packages Pvt. Ltd., Survey No. 479, 481, 488, Yamjal Road, Pudur Village, Medchal Mandal, RR District, AP, PIN: 501401",Reliance Retail Ventures Limited,Telangana,36AADCR6715M1Z0,Hyderabad
,206,Telangana,Hyderabad,FFDC(CPC),SP9G,Kandlakoya,Reliance Retail Ventures Limited,36AADCR6715M1Z0,36,"Sy No. 249 (P) & 250(P), Kandlakoya (V), Medchal (M), Medchal District, Hyderabad - 501401",Nagaraju D,Nagaraju D,Nagaraju Dameruppula,"Sy No. 249 (P) & 250(P), Kandlakoya (V), Medchal (M), Medchal District, Hyderabad - 501401",Reliance Retail Ventures Limited,Telangana,36AADCR6715M1Z0,Hyderabad
,207,Telangana,Hyderabad,Smart Point,2012,Vidya nagar,Reliance Projects & Property Management Services Limited,36AAJCR6636B1ZD,36,"M.No 1-9-640 & 1-9-640/1, Samhitha Enclave, Vidyanagar, Hyderabad - 500 044",Suman Naik Banoth,Suman Naik Banoth,Paruchuri Rajesh,"M.No 1-9-640 & 1-9-640/1, Samhitha Enclave, Vidyanagar, Hyderabad - 500 044",Reliance Projects & Property Management Services Limited,Telangana,36AAJCR6636B1ZD,Hyderabad
,208,Telangana,Hyderabad,Digital,8959,A S Rao Nagar,Reliance Projects & Property Management Services Limited,36AAJCR6636B1ZD,36,"M.No 1-7-43/220, 221, 236 & 237, Mahesh Nagar, Besides radhika Theatre, Dr. AS Rao Nagar. ECIL Post , Hyderabad - 500 062",Venkata Subba Rao Maguluri,Venkata Subba Rao Maguluri,Paruchuri Rajesh,"M.No 1-7-43/220, 221, 236 & 237, Mahesh Nagar, Besides radhika Theatre, Dr. AS Rao Nagar. ECIL Post , Hyderabad - 500 062",Reliance Projects & Property Management Services Limited,Telangana,36AAJCR6636B1ZD,Hyderabad
,209,Telangana,Hyderabad,Digital,8813,Amsri Faust,Reliance Projects & Property Management Services Limited,36AAJCR6636B1ZD,36,"SM-Srikar.p:9000204176,Municipal No.9-1-165 & 166/a ""Amsri Faust"" , Beside Hotel Basera, S.D. Road, Secunderabad - 3,Pin Code:500003-Hyderabad",Venkata Subba Rao Maguluri,Venkata Subba Rao Maguluri,Paruchuri Rajesh,"SM-Srikar.p:9000204176,Municipal No.9-1-165 & 166/a ""Amsri Faust"" , Beside Hotel Basera, S.D. Road, Secunderabad - 3,Pin Code:500003-Hyderabad",Reliance Projects & Property Management Services Limited,Telangana,36AAJCR6636B1ZD,Hyderabad
,210,Telangana,Hyderabad,Trends Footwear,8148,AS Rao Nagar,Reliance Projects & Property Management Services Limited,36AAJCR6636B1ZD,36,"Plot No.7, Sy.No.498 and 499, Block No.19, Tyagarayanagar Housing Colony, Kapra Village & Municipality, Keesara Mandal, Ranga Reddy Dist.Pin Code:500062",Venkata Subba Rao Maguluri,Venkata Subba Rao Maguluri,Paruchuri Rajesh,"Plot No.7, Sy.No.498 and 499, Block No.19, Tyagarayanagar Housing Colony, Kapra Village & Municipality, Keesara Mandal, Ranga Reddy Dist.Pin Code:500062",Reliance Projects & Property Management Services Limited,Telangana,36AAJCR6636B1ZD,Hyderabad
,211,Telangana,Hyderabad,Digital,8815,Malakpet,Reliance Projects & Property Management Services Limited,36AAJCR6636B1ZD,36,"MARAM SATISH CENTRAL,16-10-27/105/1 TO 7 & 106/1,MUNICIPAL COLONY, MAIN ROAD,MALAKPET, HYDERABAD - 500 036",Suman Naik Banoth,Suman Naik Banoth,Paruchuri Rajesh,"MARAM SATISH CENTRAL,16-10-27/105/1 TO 7 & 106/1,MUNICIPAL COLONY, MAIN ROAD,MALAKPET, HYDERABAD - 500 036",Reliance Projects & Property Management Services Limited,Telangana,36AAJCR6636B1ZD,Hyderabad
,212,Telangana,Hyderabad,Trends,8008,Malakpet,Reliance Projects & Property Management Services Limited,36AAJCR6636B1ZD,36,"""M.Nos.16-11-1/5/A/1, A/2, A/3, A/4, A/5, A/6 and 16-11-1/5/A/4/A, Lot Nos.1 & 2 in Sy.No.87, Saleem Nagar Colony, Moosarambagh, Hyderabad - 500 036",Suman Naik Banoth,Suman Naik Banoth,Paruchuri Rajesh,"""M.Nos.16-11-1/5/A/1, A/2, A/3, A/4, A/5, A/6 and 16-11-1/5/A/4/A, Lot Nos.1 & 2 in Sy.No.87, Saleem Nagar Colony, Moosarambagh, Hyderabad - 500 036",Reliance Projects & Property Management Services Limited,Telangana,36AAJCR6636B1ZD,Hyderabad
,213,Telangana,Hyderabad,Digital,8823,Shivam RD,Reliance Projects & Property Management Services Limited,36AAJCR6636B1ZD,36,"SM:Md Ahmad: 9963553183, Reliance digital Retail Ltd, RDRL Shivam Road Hyderabad Store, Municipal No.2-2-3Adikmet, Vidyanagar, Shivam Road Hyderabad- 500013",Suman Naik Banoth,Suman Naik Banoth,Paruchuri Rajesh,"SM:Md Ahmad: 9963553183, Reliance digital Retail Ltd, RDRL Shivam Road Hyderabad Store, Municipal No.2-2-3Adikmet, Vidyanagar, Shivam Road Hyderabad- 500013",Reliance Projects & Property Management Services Limited,Telangana,36AAJCR6636B1ZD,Hyderabad
,214,Telangana,Hyderabad,Trends,8010,Kothapet (DSNR),Reliance Projects & Property Management Services Limited,36AAJCR6636B1ZD,36,"SM.Mahesh:9963029701,Reliance Trends,Saroornagar Village,Municipal No:11-9-133,L.B.Nagar, Opp:Bharath Petroleum,Hyderabad,R.R.Dist,Pin Code:500060",Suman Naik Banoth,Suman Naik Banoth,Paruchuri Rajesh,"SM.Mahesh:9963029701,Reliance Trends,Saroornagar Village,Municipal No:11-9-133,L.B.Nagar, Opp:Bharath Petroleum,Hyderabad,R.R.Dist,Pin Code:500060",Reliance Projects & Property Management Services Limited,Telangana,36AAJCR6636B1ZD,Hyderabad
,215,Telangana,Hyderabad,Digital,8834,Kothapet (DSNR),Reliance Projects & Property Management Services Limited,36AAJCR6636B1ZD,36,"SM.Murali:,Reliance Digital,Saroornagar Village,Municipal No:11-9-133,L.B.Nagar, Opp:Bharath Petroleum,Hyderabad,R.R.Dist,Pin Code:500060",Suman Naik Banoth,Suman Naik Banoth,Paruchuri Rajesh,"SM.Murali:,Reliance Digital,Saroornagar Village,Municipal No:11-9-133,L.B.Nagar, Opp:Bharath Petroleum,Hyderabad,R.R.Dist,Pin Code:500060",Reliance Projects & Property Management Services Limited,Telangana,36AAJCR6636B1ZD,Hyderabad
,216,Telangana,Hyderabad,Digital,8961,Nacharam,Reliance Projects & Property Management Services Limited,36AAJCR6636B1ZD,36,"Reliance Retail Ltd., Reliance Digital, M/S Amala Building, IDA Nacharam, Opp ESI Hospitals, Hyderabad, A.P-500076,",Suman Naik Banoth,Suman Naik Banoth,Paruchuri Rajesh,"Reliance Retail Ltd., Reliance Digital, M/S Amala Building, IDA Nacharam, Opp ESI Hospitals, Hyderabad, A.P-500076,",Reliance Projects & Property Management Services Limited,Telangana,36AAJCR6636B1ZD,Hyderabad
,217,Telangana,Hyderabad,Smart,6728,Nacharam,Reliance Projects & Property Management Services Limited,36AAJCR6636B1ZD,36,"Reliance Retail Ltd., Reliance Super, M/S Amala Building, IDA Nacharam, Opp ESI Hospitals, Hyderabad, A.P-500076,",Suman Naik Banoth,Suman Naik Banoth,Paruchuri Rajesh,"Reliance Retail Ltd., Reliance Super, M/S Amala Building, IDA Nacharam, Opp ESI Hospitals, Hyderabad, A.P-500076,",Reliance Projects & Property Management Services Limited,Telangana,36AAJCR6636B1ZD,Hyderabad
,218,Telangana,Hyderabad,Trends Footwear,8296,Malakpet,Reliance Projects & Property Management Services Limited,36AAJCR6636B1ZD,36,"""M.Nos.16-11-1/5/A/1, A/2, A/3, A/4, A/5, A/6 and 16-11-1/5/A/4/A, Lot Nos.1 & 2 in Sy.No.87, Saleem Nagar Colony, Moosarambagh, Hyderabad - 500 036",Suman Naik Banoth,Suman Naik Banoth,Paruchuri Rajesh,"""M.Nos.16-11-1/5/A/1, A/2, A/3, A/4, A/5, A/6 and 16-11-1/5/A/4/A, Lot Nos.1 & 2 in Sy.No.87, Saleem Nagar Colony, Moosarambagh, Hyderabad - 500 036",Reliance Projects & Property Management Services Limited,Telangana,36AAJCR6636B1ZD,Hyderabad
,219,Telangana,Hyderabad,Trends,8334,Vanasthalipuram,Reliance Projects & Property Management Services Limited,36AAJCR6636B1ZD,36,"Plot No.10 & 12, 12s Saheb Nagar,Khurd Village Hayathnagar Mandal Ranga R,Vanasthalipuram,hyd-500070.",Suman Naik Banoth,Suman Naik Banoth,Paruchuri Rajesh,"Plot No.10 & 12, 12s Saheb Nagar,Khurd Village Hayathnagar Mandal Ranga R,Vanasthalipuram,hyd-500070.",Reliance Projects & Property Management Services Limited,Telangana,36AAJCR6636B1ZD,Hyderabad
,220,Telangana,Hyderabad,Trends Footwear,8342,Vanasthalipuram,Reliance Projects & Property Management Services Limited,36AAJCR6636B1ZD,36,"Reliance Footprint ,PLOT 10 & 12, Hayathnagar Mandal RR Dist,Vanasthalipuram, Hyderabad,Telangana-500070",Suman Naik Banoth,Suman Naik Banoth,Paruchuri Rajesh,"Reliance Footprint ,PLOT 10 & 12, Hayathnagar Mandal RR Dist,Vanasthalipuram, Hyderabad,Telangana-500070",Reliance Projects & Property Management Services Limited,Telangana,36AAJCR6636B1ZD,Hyderabad
,221,Telangana,Hyderabad,Digital,8742,Vanasthalipuram,Reliance Projects & Property Management Services Limited,36AAJCR6636B1ZD,36,"Plot No 101212S & 12N parts Saheb nagar,Khurd village,Hayathnagar Mandal,R R Dist,Vanasthalipuram,Hyderabad-500070",Suman Naik Banoth,Suman Naik Banoth,Paruchuri Rajesh,"Plot No 101212S & 12N parts Saheb nagar,Khurd village,Hayathnagar Mandal,R R Dist,Vanasthalipuram,Hyderabad-500070",Reliance Projects & Property Management Services Limited,Telangana,36AAJCR6636B1ZD,Hyderabad
,222,Telangana,Hyderabad,Smart Bazaar,FRBK,Tarnaka,Reliance Projects & Property Management Services Limited,36AAJCR6636B1ZD,36,"Smart Bazaar TARNAKA HYDERABAD,SB Hyderabad Tarnaka,D No 12 13 96 Saadath Plaza,Opp Aradhana Theatre Newflyover,HYDERABAD-500019",Zumer Mohammad,Zumer Mohammad,Paruchuri Rajesh,"Smart Bazaar TARNAKA HYDERABAD,SB Hyderabad Tarnaka,D No 12 13 96 Saadath Plaza,Opp Aradhana Theatre Newflyover,HYDERABAD-500019",Reliance Projects & Property Management Services Limited,Telangana,36AAJCR6636B1ZD,Hyderabad
,223,Telangana,Hyderabad,Trends Man,T176,AMR Planet,Reliance Projects & Property Management Services Limited,36AAJCR6636B1ZD,36,"RRL TM AMR PLANET,Amr Planetsyno 373/1373/3Unitno F25/26 Mandal & Medchal Malkajgiri Village-500047",Venkata Subba Rao Maguluri,Venkata Subba Rao Maguluri,Paruchuri Rajesh,"RRL TM AMR PLANET,Amr Planetsyno 373/1373/3Unitno F25/26 Mandal & Medchal Malkajgiri Village-500047",Reliance Projects & Property Management Services Limited,Telangana,36AAJCR6636B1ZD,Hyderabad
,224,Telangana,Hyderabad,Zivame,T1AA,AMR Planet,Reliance Projects & Property Management Services Limited,36AAJCR6636B1ZD,36,"RRL TM AMR PLANET,Amr Planetsyno 373/1373/3Unitno F25/26 Mandal & Medchal Malkajgiri Village-500047",Venkata Subba Rao Maguluri,Venkata Subba Rao Maguluri,Paruchuri Rajesh,"RRL TM AMR PLANET,Amr Planetsyno 373/1373/3Unitno F25/26 Mandal & Medchal Malkajgiri Village-500047",Reliance Projects & Property Management Services Limited,Telangana,36AAJCR6636B1ZD,Hyderabad
,225,Telangana,Hyderabad,John player,T1AU,AMR Planet,Reliance Projects & Property Management Services Limited,36AAJCR6636B1ZD,36,"RRL TM AMR PLANET,Amr Planetsyno 373/1373/3Unitno F25/26 Mandal & Medchal Malkajgiri Village-500047",Venkata Subba Rao Maguluri,Venkata Subba Rao Maguluri,Paruchuri Rajesh,"RRL TM AMR PLANET,Amr Planetsyno 373/1373/3Unitno F25/26 Mandal & Medchal Malkajgiri Village-500047",Reliance Projects & Property Management Services Limited,Telangana,36AAJCR6636B1ZD,Hyderabad
,226,Telangana,Hyderabad,Lee Cooper,T1AX,AMR Planet,Reliance Projects & Property Management Services Limited,36AAJCR6636B1ZD,36,"RRL LC AMR PLANET,Amr Planetsyno 373/1373/3Unitno F25/26 Mandal & Medchal Malkajgiri Village-500047",Venkata Subba Rao Maguluri,Venkata Subba Rao Maguluri,Paruchuri Rajesh,"RRL LC AMR PLANET,Amr Planetsyno 373/1373/3Unitno F25/26 Mandal & Medchal Malkajgiri Village-500047",Reliance Projects & Property Management Services Limited,Telangana,36AAJCR6636B1ZD,Hyderabad
,227,Telangana,Hyderabad,Trends,T541,Habsiguda,Reliance Projects & Property Management Services Limited,36AAJCR6636B1ZD,36,"Beside Mega Mart, D.No. 10-2-10/3 , Kakatiya Nagar, Habsiguda, Hyderabad",Suman Naik Banoth,Suman Naik Banoth,Paruchuri Rajesh,"Beside Mega Mart, D.No. 10-2-10/3 , Kakatiya Nagar, Habsiguda, Hyderabad",Reliance Projects & Property Management Services Limited,Telangana,36AAJCR6636B1ZD,Hyderabad
,228,Telangana,Hyderabad,Digital,T751,East Maredpally,Reliance Projects & Property Management Services Limited,36AAJCR6636B1ZD,36,"RELIANCE RETAIL LIMITED, DIGITAL, NORTHSTAR AMG PLAZA, GROUND And FIRST FLOOR, BEARING M.NO10-2-277,10-2-277/A And B ENTRENDCHMENT ROAD MARREDPALLY, SECUNDERABAD, TELANGANA, TELANGANA - 500026.",Venkata Subba Rao Maguluri,Venkata Subba Rao Maguluri,Paruchuri Rajesh,"RELIANCE RETAIL LIMITED, DIGITAL, NORTHSTAR AMG PLAZA, GROUND And FIRST FLOOR, BEARING M.NO10-2-277,10-2-277/A And B ENTRENDCHMENT ROAD MARREDPALLY, SECUNDERABAD, TELANGANA, TELANGANA - 500026.",Reliance Projects & Property Management Services Limited,Telangana,36AAJCR6636B1ZD,Hyderabad
,229,Telangana,Hyderabad,Avantra Trends,T80O,AMR Planet,Reliance Projects & Property Management Services Limited,36AAJCR6636B1ZD,36,"Avantra by Trends - AMR Planet Mall-1, Rd, Sy no 373/1 & 373, 3, Trimulgherry - Ecil Rd, Extn, Moula Ali, Secunderabad, Telangana",Venkata Subba Rao Maguluri,Venkata Subba Rao Maguluri,Paruchuri Rajesh,"Avantra by Trends - AMR Planet Mall-1, Rd, Sy no 373/1 & 373, 3, Trimulgherry - Ecil Rd, Extn, Moula Ali, Secunderabad, Telangana",Reliance Projects & Property Management Services Limited,Telangana,36AAJCR6636B1ZD,Hyderabad
,230,Telangana,Hyderabad,Trends,T9HJ,Shivam Road Trends DD Colony,Reliance Projects & Property Management Services Limited,36AAJCR6636B1ZD,36,"RELIANCE PROJECTS & PROPERTY MANAGEMENT SERVICES LIMITED , Gf Ff SfD No 2 2 3/A Old DD Colony , Shivam Road Hyderabad Telangana 500007-",Suman Naik Banoth,Suman Naik Banoth,Paruchuri Rajesh,"RELIANCE PROJECTS & PROPERTY MANAGEMENT SERVICES LIMITED , Gf Ff SfD No 2 2 3/A Old DD Colony , Shivam Road Hyderabad Telangana 500007-",Reliance Projects & Property Management Services Limited,Telangana,36AAJCR6636B1ZD,Hyderabad
,231,Telangana,Hyderabad,Centro Shoes,T9HV,Centro As Rao Nagar,V Retail Limited,36AACCV9907G1Z2,36,"D. No: 1-1-257/1, at Srinivasa Nagar Colony, AS Rao Nagar, GHMC Kapra Circle, Keesara Mandal, Medchal district. Hyderabad- 500062.",Venkata Subba Rao Maguluri,Venkata Subba Rao Maguluri,Paruchuri Rajesh,"D. No: 1-1-257/1, at Srinivasa Nagar Colony, AS Rao Nagar, GHMC Kapra Circle, Keesara Mandal, Medchal district. Hyderabad- 500062.",V Retail Limited,Telangana,36AACCV9907G1Z2,Hyderabad
,232,Telangana,Hyderabad,Blush lace SIS,T9VM,Tarnaka,Reliance Projects & Property Management Services Limited,36AAJCR6636B1ZD,36,"Smart Bazaar TARNAKA HYDERABAD,SB Hyderabad Tarnaka,D No 12 13 96 Saadath Plaza,Opp Aradhana Theatre Newflyover,HYDERABAD-500019",Suman Naik Banoth,Suman Naik Banoth,Paruchuri Rajesh,"Smart Bazaar TARNAKA HYDERABAD,SB Hyderabad Tarnaka,D No 12 13 96 Saadath Plaza,Opp Aradhana Theatre Newflyover,HYDERABAD-500019",Reliance Projects & Property Management Services Limited,Telangana,36AAJCR6636B1ZD,Hyderabad
,233,Telangana,Hyderabad,Foot print SIS,TDL7,Patny Center,Reliance Projects & Property Management Services Limited,36AAJCR6636B1ZD,36,"RRL Trends Sarojini Devi Rd Secndrab,Reliance Retail Limited,No.3-1-1 to 7 Part,Sarojini Devi Road,Secunderabad-500003,Hyderabad",Suman Naik Banoth,Suman Naik Banoth,Paruchuri Rajesh,"RRL Trends Sarojini Devi Rd Secndrab,Reliance Retail Limited,No.3-1-1 to 7 Part,Sarojini Devi Road,Secunderabad-500003,Hyderabad",Reliance Projects & Property Management Services Limited,Telangana,36AAJCR6636B1ZD,Hyderabad
,234,Telangana,Hyderabad,Digital,TEZ7,Dilsukhnagar,Reliance Projects & Property Management Services Limited,36AAJCR6636B1ZD,36,"RRL CDIT-Moosarambagh Dilsukh Nagar,Ground floor to Third Floor H N0 16-11-447/6,Moosarambagh Dilsukh Nagar,Hyderabad, Telangana-500036",Suman Naik Banoth,Suman Naik Banoth,Paruchuri Rajesh,"RRL CDIT-Moosarambagh Dilsukh Nagar,Ground floor to Third Floor H N0 16-11-447/6,Moosarambagh Dilsukh Nagar,Hyderabad, Telangana-500036",Reliance Projects & Property Management Services Limited,Telangana,36AAJCR6636B1ZD,Hyderabad
,235,Telangana,Hyderabad,Trends,TG90,Patny Centre,Reliance Projects & Property Management Services Limited,36AAJCR6636B1ZD,36,"RRL Trends Sarojini Devi Rd Secndrab,Reliance Retail Limited,No.3-1-1 to 7 Part,Sarojini Devi Road,Secunderabad-500003,Hyderabad",Venkata Subba Rao Maguluri,Venkata Subba Rao Maguluri,Paruchuri Rajesh,"RRL Trends Sarojini Devi Rd Secndrab,Reliance Retail Limited,No.3-1-1 to 7 Part,Sarojini Devi Road,Secunderabad-500003,Hyderabad",Reliance Projects & Property Management Services Limited,Telangana,36AAJCR6636B1ZD,Hyderabad
,236,Telangana,Hyderabad,Trends,TG91,AS Rao Nagar,Reliance Projects & Property Management Services Limited,36AAJCR6636B1ZD,36,"Plot No.13 & 14 Sy.No.466 ECIL,Kapra Municipality Dr.AS Rao Nagar,Medchal-Malkajgiri Dist,Hyderabad-500062",Venkata Subba Rao Maguluri,Venkata Subba Rao Maguluri,Paruchuri Rajesh,"Plot No.13 & 14 Sy.No.466 ECIL,Kapra Municipality Dr.AS Rao Nagar,Medchal-Malkajgiri Dist,Hyderabad-500062",Reliance Projects & Property Management Services Limited,Telangana,36AAJCR6636B1ZD,Hyderabad
,237,Telangana,Hyderabad,Smart,TGC4,Ace Ventures Kothapet,Reliance Projects & Property Management Services Limited,36AAJCR6636B1ZD,36,"RRL Smart ACE Venture Kothapeth,Reliance Retail Limited,P No 3638 38A Sy No 9/11 W No 11 B No 10,APSEB Emp CHS Ltd Vijayapuri Colony,Saroornagar Villg & Mandal Ranga Reddy,HYDERABAD-500035",Suman Naik Banoth,Suman Naik Banoth,Paruchuri Rajesh,"RRL Smart ACE Venture Kothapeth,Reliance Retail Limited,P No 3638 38A Sy No 9/11 W No 11 B No 10,APSEB Emp CHS Ltd Vijayapuri Colony,Saroornagar Villg & Mandal Ranga Reddy,HYDERABAD-500035",Reliance Projects & Property Management Services Limited,Telangana,36AAJCR6636B1ZD,Hyderabad
,238,Telangana,Hyderabad,SP Pharma SIS,TOZ2,Kuntloor,Reliance Retail Ventures Limited,36AADCR6715M1Z0,36,"Plot No.11, 12 & 13 covered by Sy. No.157   and situate in Bagh Hayathnagar Village and Hayathnagar  Mandal,  Hyderabad, Telangana– 501505",Suman Naik Banoth,Suman Naik Banoth,Paruchuri Rajesh,"Plot No.11, 12 & 13 covered by Sy. No.157   and situate in Bagh Hayathnagar Village and Hayathnagar  Mandal,  Hyderabad, Telangana– 501505",Reliance Retail Ventures Limited,Telangana,36AADCR6715M1Z0,Hyderabad
,239,Telangana,Hyderabad,Jewells,TR56,Gokul Nagar,Reliance Projects & Property Management Services Limited,36AAJCR6636B1ZD,36,"Reliance Jewels, House no.30-266/3/31, Sy. No- 278, Gokul Nagar, Malakjgiri Village and Mandal, Telangana -500062",Venkata Subba Rao Maguluri,Venkata Subba Rao Maguluri,Paruchuri Rajesh,"Reliance Jewels, House no.30-266/3/31, Sy. No- 278, Gokul Nagar, Malakjgiri Village and Mandal, Telangana -500062",Reliance Projects & Property Management Services Limited,Telangana,36AAJCR6636B1ZD,Hyderabad
,240,Telangana,Hyderabad,Trends Women,TTG2,AMR Planet,Reliance Projects & Property Management Services Limited,36AAJCR6636B1ZD,36,"RRL TM AMR PLANET,Amr Planetsyno 373/1373/3Unitno F25/26 Mandal & Medchal Malkajgiri Village-500047",Venkata Subba Rao Maguluri,Venkata Subba Rao Maguluri,Paruchuri Rajesh,"RRL TM AMR PLANET,Amr Planetsyno 373/1373/3Unitno F25/26 Mandal & Medchal Malkajgiri Village-500047",Reliance Projects & Property Management Services Limited,Telangana,36AAJCR6636B1ZD,Hyderabad
,241,Telangana,Hyderabad,Foot print SIS,TVS0,Nacharam,Reliance Projects & Property Management Services Limited,36AAJCR6636B1ZD,36,"RRL SIS Nacharam,Reliance Retail Limited,Door No. 4-7-20/B Of,Survey No. 200 To 204206/1 & 206/2,Opp. Nacharam Police Station,NACHARAM-500076",Suman Naik Banoth,Suman Naik Banoth,Paruchuri Rajesh,"RRL SIS Nacharam,Reliance Retail Limited,Door No. 4-7-20/B Of,Survey No. 200 To 204206/1 & 206/2,Opp. Nacharam Police Station,NACHARAM-500076",Reliance Projects & Property Management Services Limited,Telangana,36AAJCR6636B1ZD,Hyderabad
,242,Telangana,Hyderabad,Jewells SIS ,TW54,AS Rao Nagar,Reliance Projects & Property Management Services Limited,36AAJCR6636B1ZD,36,"Reliance Jewels, Trends, Plot No13 & 14 Syno466 Ecil, Kapra Municipality Dr. As Rao Nagar Medchal-Malkajgiri  Hyderabad 500062",Venkata Subba Rao Maguluri,Venkata Subba Rao Maguluri,Paruchuri Rajesh,"Reliance Jewels, Trends, Plot No13 & 14 Syno466 Ecil, Kapra Municipality Dr. As Rao Nagar Medchal-Malkajgiri  Hyderabad 500062",Reliance Projects & Property Management Services Limited,Telangana,36AAJCR6636B1ZD,Hyderabad
,243,Telangana,Hyderabad,Foot print SIS,TW97,AS Rao Nagar,Reliance Projects & Property Management Services Limited,36AAJCR6636B1ZD,36,"Plot No.13 & 14 Sy.No.466 ECIL,Kapra Municipality  Dr.AS Rao Nagar,Medchal-Malkajgiri Dist,Hyderabad-500062",Venkata Subba Rao Maguluri,Venkata Subba Rao Maguluri,Paruchuri Rajesh,"Plot No.13 & 14 Sy.No.466 ECIL,Kapra Municipality  Dr.AS Rao Nagar,Medchal-Malkajgiri Dist,Hyderabad-500062",Reliance Projects & Property Management Services Limited,Telangana,36AAJCR6636B1ZD,Hyderabad
,244,Telangana,Hyderabad,Trends,TWQD,Nacharam,Reliance Projects & Property Management Services Limited,36AAJCR6636B1ZD,36,"RRL Trends Nacharam,Reliance Retail Limited,Door No. 4-7-20/B Of,Survey No. 200 To 204206/1 & 206/2,Opp. Nacharam Police Station,NACHARAM-500076",Suman Naik Banoth,Suman Naik Banoth,Paruchuri Rajesh,"RRL Trends Nacharam,Reliance Retail Limited,Door No. 4-7-20/B Of,Survey No. 200 To 204206/1 & 206/2,Opp. Nacharam Police Station,NACHARAM-500076",Reliance Projects & Property Management Services Limited,Telangana,36AAJCR6636B1ZD,Hyderabad
,245,Telangana,Hyderabad,Trends Junior,TWRJ,Chaitanya Plaza,Reliance Projects & Property Management Services Limited,36AAJCR6636B1ZD,36,"TJ Sahara Road Mansoorabad,Reliance Retail Limited,Reliance Retail Limited,H No 3 14 124/ Cp/103 Plot Nos 78 & 9,Mansoorabad Village Saroornagar Mandal,HYDERABAD-500068",Suman Naik Banoth,Suman Naik Banoth,Paruchuri Rajesh,"TJ Sahara Road Mansoorabad,Reliance Retail Limited,Reliance Retail Limited,H No 3 14 124/ Cp/103 Plot Nos 78 & 9,Mansoorabad Village Saroornagar Mandal,HYDERABAD-500068",Reliance Projects & Property Management Services Limited,Telangana,36AAJCR6636B1ZD,Hyderabad
,246,Telangana,Hyderabad,Trends,TX58,Praga Mall,Reliance Projects & Property Management Services Limited,36AAJCR6636B1ZD,36,"Reliance Trends, Praga mall, satva Group, Kavadiguda Main Road, Secundrabad-500080,Telangana",Venkata Subba Rao Maguluri,Venkata Subba Rao Maguluri,Paruchuri Rajesh,"Reliance Trends, Praga mall, satva Group, Kavadiguda Main Road, Secundrabad-500080,Telangana",Reliance Projects & Property Management Services Limited,Telangana,36AAJCR6636B1ZD,Hyderabad
,247,Telangana,Hyderabad,Kalanikethan,TY5T,Secunderabad VRK Silks,Reliance Projects & Property Management Services Limited,36AAJCR6636B1ZD,36,"KFPL Secunderabad VRK Silks,Reliance Retail Limited,Vasavi Ededn Square Ground Floor 9 1 87& 9 1 119/1,St John S Road,Secunderabad-500003",Venkata Subba Rao Maguluri,Venkata Subba Rao Maguluri,Paruchuri Rajesh,"KFPL Secunderabad VRK Silks,Reliance Retail Limited,Vasavi Ededn Square Ground Floor 9 1 87& 9 1 119/1,St John S Road,Secunderabad-500003",Reliance Projects & Property Management Services Limited,Telangana,36AAJCR6636B1ZD,Hyderabad
,248,Telangana,Hyderabad,Kalanikethan,TY5V,Patny Center,Reliance Projects & Property Management Services Limited,36AAJCR6636B1ZD,36,"KFPL SECUNDERABAD Patny,Reliance Retail Limited,Municipal No 1 1 114 And 1 1 115,Old No S 70/1 Stephen S Cottage,Rashtrapathi Road Clocktower,Secunderabad-500003",Venkata Subba Rao Maguluri,Venkata Subba Rao Maguluri,Paruchuri Rajesh,"KFPL SECUNDERABAD Patny,Reliance Retail Limited,Municipal No 1 1 114 And 1 1 115,Old No S 70/1 Stephen S Cottage,Rashtrapathi Road Clocktower,Secunderabad-500003",Reliance Projects & Property Management Services Limited,Telangana,36AAJCR6636B1ZD,Hyderabad
,249,Telangana,Hyderabad,Kalanikethan,TY9J,AS Rao Nagar,Reliance Projects & Property Management Services Limited,36AAJCR6636B1ZD,36,"KFPL A S Rao Nagar Womens World,Reliance Retail Limited,H No 1 12 117 Plot No 13,Beside Tmc As Rao Nagar Ecil Hyderabad,Kapra Village Keesara Mandal,HYDERABAD-500062",Venkata Subba Rao Maguluri,Venkata Subba Rao Maguluri,Paruchuri Rajesh,"KFPL A S Rao Nagar Womens World,Reliance Retail Limited,H No 1 12 117 Plot No 13,Beside Tmc As Rao Nagar Ecil Hyderabad,Kapra Village Keesara Mandal,HYDERABAD-500062",Reliance Projects & Property Management Services Limited,Telangana,36AAJCR6636B1ZD,Hyderabad
,250,Telangana,Hyderabad,Trends,TZ57,Malkajgiri,Reliance Projects & Property Management Services Limited,36AAJCR6636B1ZD,36,"D.No.5-32/2 (Old No.5-4) covered by Sy.No.908/1 & 908/2 situated at Malkajgiri Municipality, Medchal Malkajigiri District, Hyderabad – 500047, Telangana",Venkata Subba Rao Maguluri,Venkata Subba Rao Maguluri,Paruchuri Rajesh,"D.No.5-32/2 (Old No.5-4) covered by Sy.No.908/1 & 908/2 situated at Malkajgiri Municipality, Medchal Malkajigiri District, Hyderabad – 500047, Telangana",Reliance Projects & Property Management Services Limited,Telangana,36AAJCR6636B1ZD,Hyderabad
,251,Telangana,Hyderabad,Smart Point,U368,Hayath nagar,Reliance Projects & Property Management Services Limited,36AAJCR6636B1ZD,36,"Plot No.11, 12 & 13 covered by Sy. No.157   and situate in Bagh Hayathnagar Village and Hayathnagar  Mandal,  Hyderabad, Telangana– 501505",Suman Naik Banoth,Suman Naik Banoth,Paruchuri Rajesh,"Plot No.11, 12 & 13 covered by Sy. No.157   and situate in Bagh Hayathnagar Village and Hayathnagar  Mandal,  Hyderabad, Telangana– 501505",Reliance Projects & Property Management Services Limited,Telangana,36AAJCR6636B1ZD,Hyderabad
,252,Telangana,Hyderabad,Smart Point,U649,Malkajgiri  Smart Point,Reliance Projects & Property Management Services Limited,36AAJCR6636B1ZD,36,"SP Geetha Nagar Malkajgiri,Reliance Retail Limited,GF Plot No. 56 Sy No. 804 Geetha Nagar,Malkajgiri Under GHMC Dist. Medchal,HYDERABAD-500047",Venkata Subba Rao Maguluri,Venkata Subba Rao Maguluri,Paruchuri Rajesh,"SP Geetha Nagar Malkajgiri,Reliance Retail Limited,GF Plot No. 56 Sy No. 804 Geetha Nagar,Malkajgiri Under GHMC Dist. Medchal,HYDERABAD-500047",Reliance Projects & Property Management Services Limited,Telangana,36AAJCR6636B1ZD,Hyderabad
,253,Telangana,Hyderabad,Smart Point,2021,Survey of India,Reliance Projects & Property Management Services Limited,36AAJCR6636B1ZD,36,"Survey No 734/4, Plot No 25, Balaji Pride, Prasanth Nagar, Uppal, Hyderabad - 500 039",T Ganesh,T Ganesh,Pavan Grandhi,"Survey No 734/4, Plot No 25, Balaji Pride, Prasanth Nagar, Uppal, Hyderabad - 500 039",Reliance Projects & Property Management Services Limited,Telangana,36AAJCR6636B1ZD,Hyderabad
,254,Telangana,Hyderabad,Digital,8824,Kachiguda,Reliance Projects & Property Management Services Limited,36AAJCR6636B1ZD,36,"RDRL Kachiguda Hyderabad Store, Reliancedigital Retail Ltd, 03/03/1942 Veersavarkar Road, Kachiguda, Hyderabad- 500027",Suman Naik Banoth,Suman Naik Banoth,Pavan Grandhi,"RDRL Kachiguda Hyderabad Store, Reliancedigital Retail Ltd, 03/03/1942 Veersavarkar Road, Kachiguda, Hyderabad- 500027",Reliance Projects & Property Management Services Limited,Telangana,36AAJCR6636B1ZD,Hyderabad
,255,Telangana,Hyderabad,Trends,8332,Hema durga mall -Uppal,Reliance Projects & Property Management Services Limited,36AAJCR6636B1ZD,36,"Municipal No : 3-1/B Part,Shanti Nagar, Uppal Village Uppal Mandal,Uppal Kalan Municipality ,RR Dist,Hyderabad-500039",T Ganesh,T Ganesh,Pavan Grandhi,"Municipal No : 3-1/B Part,Shanti Nagar, Uppal Village Uppal Mandal,Uppal Kalan Municipality ,RR Dist,Hyderabad-500039",Reliance Projects & Property Management Services Limited,Telangana,36AAJCR6636B1ZD,Hyderabad
,256,Telangana,Hyderabad,Digital,8697,Ramantapur,Reliance Projects & Property Management Services Limited,36AAJCR6636B1ZD,36,"Municipal no's:3-10-2,3-10-2/1,3-10-2/3, 3-10-2/4,3-10-2/6,3-95,Ward no:3,  Block no:10,Survey no:35/2 at Ramanthpur Main Rd, Uppal Mandal, Under GHMC RR DISTRICT-500048 ",Suman Naik Banoth,Suman Naik Banoth,Pavan Grandhi,"Municipal no's:3-10-2,3-10-2/1,3-10-2/3, 3-10-2/4,3-10-2/6,3-95,Ward no:3,  Block no:10,Survey no:35/2 at Ramanthpur Main Rd, Uppal Mandal, Under GHMC RR DISTRICT-500048 ",Reliance Projects & Property Management Services Limited,Telangana,36AAJCR6636B1ZD,Hyderabad
,257,Telangana,Hyderabad,Digital,8731,Hema durga mall -Uppal,Reliance Projects & Property Management Services Limited,36AAJCR6636B1ZD,36,"Municipal No 3-1/B part Shanti nagar Upp,Uppal kalan Municipality, Uppal mandal Ranga Reddi Dist,Hyderabad,500039",T Ganesh,T Ganesh,Pavan Grandhi,"Municipal No 3-1/B part Shanti nagar Upp,Uppal kalan Municipality, Uppal mandal Ranga Reddi Dist,Hyderabad,500039",Reliance Projects & Property Management Services Limited,Telangana,36AAJCR6636B1ZD,Hyderabad
,258,Telangana,Hyderabad,Smart Point,FR4J,Boduppal,Reliance Projects & Property Management Services Limited,36AAJCR6636B1ZD,36,"Ground Flr,Hno-8-43/5/3/A, Balaji Nivas, Balaji Hills Colony, Boduppal, Hyderabad - 500039",T Ganesh,T Ganesh,Pavan Grandhi,"Ground Flr,Hno-8-43/5/3/A, Balaji Nivas, Balaji Hills Colony, Boduppal, Hyderabad - 500039",Reliance Projects & Property Management Services Limited,Telangana,36AAJCR6636B1ZD,Hyderabad
,259,Telangana,Rangareddy,Smart Point,FR5Z,Ghatkesar,Reliance Projects & Property Management Services Limited,36AAJCR6636B1ZD,36,"Plot No.1,2,3 , Sy No 486, 487 & 488,Ghatkesar Village, Grampanchyat & MandalRangareddy - 501301",T Ganesh,T Ganesh,Pavan Grandhi,"Plot No.1,2,3 , Sy No 486, 487 & 488,Ghatkesar Village, Grampanchyat & MandalRangareddy - 501301",Reliance Projects & Property Management Services Limited,Telangana,36AAJCR6636B1ZD,Rangareddy
,260,Telangana,Hyderabad,Smart Bazaar,FRBN,Maheswari,Reliance Projects & Property Management Services Limited,36AAJCR6636B1ZD,36,"Smart Bazaar HYDERABADMAHESHWA,SB Hyderabad Maheshwari,Maheshwari Parameshwari Towers,Plot No 4 2 47 Kaciguda X Road,HYDERABAD-500027",M Narender,M Narender,Pavan Grandhi,"Smart Bazaar HYDERABADMAHESHWA,SB Hyderabad Maheshwari,Maheshwari Parameshwari Towers,Plot No 4 2 47 Kaciguda X Road,HYDERABAD-500027",Reliance Projects & Property Management Services Limited,Telangana,36AAJCR6636B1ZD,Hyderabad
,261,Telangana,Hyderabad,Zivame,T1E5,DSL Mall,Reliance Projects & Property Management Services Limited,36AAJCR6636B1ZD,36,"RRL TW-DSL MALL,Reliance Retail Limited,Plot No- B-1/1 B-1/2 B-2/B & B-2,R R Dist,Uppal Ramanthapur Main Rd,HYDERABAD-500039",T Ganesh,T Ganesh,Pavan Grandhi,"RRL TW-DSL MALL,Reliance Retail Limited,Plot No- B-1/1 B-1/2 B-2/B & B-2,R R Dist,Uppal Ramanthapur Main Rd,HYDERABAD-500039",Reliance Projects & Property Management Services Limited,Telangana,36AAJCR6636B1ZD,Hyderabad
,262,Telangana,Hyderabad,John player,T29T,DSL Mall,Reliance Projects & Property Management Services Limited,36AAJCR6636B1ZD,36,"RRL John Players Rangareddy DSL Mall,Reliance Retail Limited,Unit No Ug 17 & 28 Dsl Abacus Mall,Plot No B1/1B 2B 2Ab 2B Sy No 581/1,Ida Uppal Kalsa Uppal,500039 RANGAREDDY",T Ganesh,T Ganesh,Pavan Grandhi,"RRL John Players Rangareddy DSL Mall,Reliance Retail Limited,Unit No Ug 17 & 28 Dsl Abacus Mall,Plot No B1/1B 2B 2Ab 2B Sy No 581/1,Ida Uppal Kalsa Uppal,500039 RANGAREDDY",Reliance Projects & Property Management Services Limited,Telangana,36AAJCR6636B1ZD,Hyderabad
,263,Telangana,Hyderabad,Fashion Factory,T3IY,ABIDS,Reliance Projects & Property Management Services Limited,36AAJCR6636B1ZD,36,"Abids Atria Mall, CTS No 4-1-1001, Methodist Boys High School, King Koti Road, Beside Taj Hotel, Hyderabad,Telangana 500001",Zumer Mohammad,Zumer Mohammad,Pavan Grandhi,"Abids Atria Mall, CTS No 4-1-1001, Methodist Boys High School, King Koti Road, Beside Taj Hotel, Hyderabad,Telangana 500001",Reliance Projects & Property Management Services Limited,Telangana,36AAJCR6636B1ZD,Hyderabad
,264,Telangana,Hyderabad,SP Pharma COCO,T51O,Fweerzadiguda,Reliance Retail Ventures Limited,36AADCR6715M1Z0,36,"Plot No.7H.No.18-1/43Adarsh Nagar,Peerzadiguda Medipalli Mandal,Medchal-Malkagjiri Dist-500039,HYDERABAD",T Ganesh,T Ganesh,Pavan Grandhi,"Plot No.7H.No.18-1/43Adarsh Nagar,Peerzadiguda Medipalli Mandal,Medchal-Malkagjiri Dist-500039,HYDERABAD",Reliance Retail Ventures Limited,Telangana,36AADCR6715M1Z0,Hyderabad
,265,Telangana,Hyderabad,Clovia,T85E,Abids clovia EBO,Reliance Brands Limited,36AADCR7395F1Z1,36,"Smart Bazaar HYDERABAD ABIDSMAH,SB Hyderabad Abids Maheshwari,Maheshwari Palace Mall,HYDERABAD-500001",Zumer Mohammad,Zumer Mohammad,Pavan Grandhi,"Smart Bazaar HYDERABAD ABIDSMAH,SB Hyderabad Abids Maheshwari,Maheshwari Palace Mall,HYDERABAD-500001",Reliance Brands Limited,Telangana,36AADCR7395F1Z1,Hyderabad
,266,Telangana,Hyderabad,Blush lace SIS,T87S,Maheswari,Reliance Projects & Property Management Services Limited,36AAJCR6636B1ZD,36,"HYDERABADMAHESHWA,SB Hyderabad Maheshwari,Maheshwari Parameshwari Towers,Plot No 4 2 47 Kaciguda X Road,HYDERABAD-500027",M Narender,M Narender,Pavan Grandhi,"HYDERABADMAHESHWA,SB Hyderabad Maheshwari,Maheshwari Parameshwari Towers,Plot No 4 2 47 Kaciguda X Road,HYDERABAD-500027",Reliance Projects & Property Management Services Limited,Telangana,36AAJCR6636B1ZD,Hyderabad
,267,Telangana,Hyderabad,Centro shoes,T8NS,Narapally Centro shoes,V Retail Limited,36AACCV9907G1Z2,36,"V-Retail LTD, VRL MJR Mall Narapalli SS, FF SY No 757 Chowdharyguda, Koreemula Village Ghatkesar Mandal Medchal Malkajgiri Dist 500088",T Ganesh,T Ganesh,Pavan Grandhi,"V-Retail LTD, VRL MJR Mall Narapalli SS, FF SY No 757 Chowdharyguda, Koreemula Village Ghatkesar Mandal Medchal Malkajgiri Dist 500088",V Retail Limited,Telangana,36AACCV9907G1Z2,Hyderabad
,268,Telangana,Hyderabad,Centro Shoes,T9HB,Centro Abids,V Retail Limited,36AACCV9907G1Z2,36,"Shop No. G-1, Ground Floor,“LEGEND BLUE HOPE”, H. No.4-1-875, 876, 877 & 877/1, Tilak Road, Abids, Hyderabad - 500001, Telangana.",Zumer Mohammad,Zumer Mohammad,Pavan Grandhi,"Shop No. G-1, Ground Floor,“LEGEND BLUE HOPE”, H. No.4-1-875, 876, 877 & 877/1, Tilak Road, Abids, Hyderabad - 500001, Telangana.",V Retail Limited,Telangana,36AACCV9907G1Z2,Hyderabad
,269,Telangana,Hyderabad,Centro Shoes,T9HU,Centro Himayath Nagar II,V Retail Limited,36AACCV9907G1Z2,36,"3-6-476 Ground and First Floor Beside HDFC Bank ,Main Road Himayatnagar Hyderabad-29,HYDERABAD,500029.",Zumer Mohammad,Zumer Mohammad,Pavan Grandhi,"3-6-476 Ground and First Floor Beside HDFC Bank ,Main Road Himayatnagar Hyderabad-29,HYDERABAD,500029.",V Retail Limited,Telangana,36AACCV9907G1Z2,Hyderabad
,270,Telangana,Hyderabad,Trends Junior,TDX3,DSL Mall,Reliance Projects & Property Management Services Limited,36AAJCR6636B1ZD,36,"RRL Trends Junior Hyd DSL,Reliance Retail Limited,DSL Mall,Plot No B-1/1 B-1/2 B-2/B & B-2,R R Dist Uppal Ramanthapur Main Rd,HYDERABAD-500039",T Ganesh,T Ganesh,Pavan Grandhi,"RRL Trends Junior Hyd DSL,Reliance Retail Limited,DSL Mall,Plot No B-1/1 B-1/2 B-2/B & B-2,R R Dist Uppal Ramanthapur Main Rd,HYDERABAD-500039",Reliance Projects & Property Management Services Limited,Telangana,36AAJCR6636B1ZD,Hyderabad
,271,Telangana,Choutuppal,Trends Small Town,TEZ1,Choutuppal,Reliance Projects & Property Management Services Limited,36AAJCR6636B1ZD,36,"Reliance Trend ,Ho no: 3-200,3-201,Besides Hero show room,Choutuppal, Dist-Yadadri Bhubanagiri, Pin -508252",T Ganesh,T Ganesh,Pavan Grandhi,"Reliance Trend ,Ho no: 3-200,3-201,Besides Hero show room,Choutuppal, Dist-Yadadri Bhubanagiri, Pin -508252",Reliance Projects & Property Management Services Limited,Telangana,36AAJCR6636B1ZD,Choutuppal
,272,Telangana,Hyderabad,Trends,TG17,Narapally Multiplex,Reliance Projects & Property Management Services Limited,36AAJCR6636B1ZD,36,"RRL Trends Narapally Multiplex Hyd,Reliance Retail Limited,Narapally Multiplex Sy No 757,Korremul Village Ghatkesar Mandal,Hyderabad-501301",T Ganesh,T Ganesh,Pavan Grandhi,"RRL Trends Narapally Multiplex Hyd,Reliance Retail Limited,Narapally Multiplex Sy No 757,Korremul Village Ghatkesar Mandal,Hyderabad-501301",Reliance Projects & Property Management Services Limited,Telangana,36AAJCR6636B1ZD,Hyderabad
,273,Telangana,Hyderabad,SP Pharma SIS,TG7M,Boduppal,Reliance Retail Ventures Limited,36AADCR6715M1Z0,36,"Ground Flr,Hno-8-43/5/3/A, Balaji Nivas, Balaji Hills Colony, Boduppal, Hyderabad - 500039",T Ganesh,T Ganesh,Pavan Grandhi,"Ground Flr,Hno-8-43/5/3/A, Balaji Nivas, Balaji Hills Colony, Boduppal, Hyderabad - 500039",Reliance Retail Ventures Limited,Telangana,36AADCR6715M1Z0,Hyderabad
,274,Telangana,Hyderabad,Hamleys,TJU4,Ramanthpur,Reliance Brands Limited,36AADCR7395F1Z1,36,"TF-03/04/05, third floor,DSL Mall Hyderabad, Plot No.B-1/1,B-1/2,B-2/B&B-2, Uppal Ramanathapur Main Road, Uppal, R.R. Dist, Hyderabad, Telangana-500039",T Ganesh,T Ganesh,Pavan Grandhi,"TF-03/04/05, third floor,DSL Mall Hyderabad, Plot No.B-1/1,B-1/2,B-2/B&B-2, Uppal Ramanathapur Main Road, Uppal, R.R. Dist, Hyderabad, Telangana-500039",Reliance Brands Limited,Telangana,36AADCR7395F1Z1,Hyderabad
,275,Telangana,Hyderabad,SP Pharma SIS,TNU7,Ghatkesar,Reliance Retail Ventures Limited,36AADCR6715M1Z0,36,"Plot No.1,2,3 , Sy No 486, 487 & 488,Ghatkesar Village, Grampanchyat & MandalRangareddy - 501301",T Ganesh,T Ganesh,Pavan Grandhi,"Plot No.1,2,3 , Sy No 486, 487 & 488,Ghatkesar Village, Grampanchyat & MandalRangareddy - 501301",Reliance Retail Ventures Limited,Telangana,36AADCR6715M1Z0,Hyderabad
,276,Telangana,Hyderabad,Smart,TP62,Boduppal,Reliance Projects & Property Management Services Limited,36AAJCR6636B1ZD,36,"RRL Super T Raju Property Boduppal,Reliance Retail Limited,Sy 258 Plot-3,Boduppal VillageGhatkesar Mandal,K.V.Ranga Reddy Dist,HYDERABAD-500092",T Ganesh,T Ganesh,Pavan Grandhi,"RRL Super T Raju Property Boduppal,Reliance Retail Limited,Sy 258 Plot-3,Boduppal VillageGhatkesar Mandal,K.V.Ranga Reddy Dist,HYDERABAD-500092",Reliance Projects & Property Management Services Limited,Telangana,36AAJCR6636B1ZD,Hyderabad
,277,Telangana,Hyderabad,Digital,TR67,Narapally Multiplex,Reliance Projects & Property Management Services Limited,36AAJCR6636B1ZD,36,"RRL CDIT-Narapally,Reliance Retail Limited,Ground FloorSy.No. 757,korremal village Ghatkesar mandal,Medchal Malkajgiri Dist,HYDERABAD-500088",T Ganesh,T Ganesh,Pavan Grandhi,"RRL CDIT-Narapally,Reliance Retail Limited,Ground FloorSy.No. 757,korremal village Ghatkesar mandal,Medchal Malkajgiri Dist,HYDERABAD-500088",Reliance Projects & Property Management Services Limited,Telangana,36AAJCR6636B1ZD,Hyderabad
,278,Telangana,Hyderabad,SP Pharma SIS,TRQ2,Survey of India,Reliance Retail Ventures Limited,36AADCR6715M1Z0,36,"Survey No 734/4, Plot No 25, Balaji Pride, Prasanth Nagar, Uppal, Hyderabad - 500 039",T Ganesh,T Ganesh,Pavan Grandhi,"Survey No 734/4, Plot No 25, Balaji Pride, Prasanth Nagar, Uppal, Hyderabad - 500 039",Reliance Retail Ventures Limited,Telangana,36AADCR6715M1Z0,Hyderabad
,279,Telangana,Hyderabad,Trends Man,TS83,DSL mall,Reliance Projects & Property Management Services Limited,36AAJCR6636B1ZD,36,"RRL TM-DSL MALL,Reliance Retail Limited,Plot no- B-1/1 B-1/2 B-2/B&B-2,F-24 & 25 R R Dist,Uppal Ramanthapur Main Rd,HYDERABAD-500039",T Ganesh,T Ganesh,Pavan Grandhi,"RRL TM-DSL MALL,Reliance Retail Limited,Plot no- B-1/1 B-1/2 B-2/B&B-2,F-24 & 25 R R Dist,Uppal Ramanthapur Main Rd,HYDERABAD-500039",Reliance Projects & Property Management Services Limited,Telangana,36AAJCR6636B1ZD,Hyderabad
,280,Telangana,Hyderabad,Trends Women,TS86,"DSL mall, Uppal",Reliance Projects & Property Management Services Limited,36AAJCR6636B1ZD,36,"RRL TW-DSL MALL,Reliance Retail Limited,Plot No- B-1/1 B-1/2 B-2/B & B-2,R R Dist,Uppal Ramanthapur Main Rd,HYDERABAD-500039",T Ganesh,T Ganesh,Pavan Grandhi,"RRL TW-DSL MALL,Reliance Retail Limited,Plot No- B-1/1 B-1/2 B-2/B & B-2,R R Dist,Uppal Ramanthapur Main Rd,HYDERABAD-500039",Reliance Projects & Property Management Services Limited,Telangana,36AAJCR6636B1ZD,Hyderabad
,281,Telangana,Hyderabad,Trends,TSR7,Nagole Bandlaguda,Reliance Projects & Property Management Services Limited,36AAJCR6636B1ZD,36,"Sy No 39&40 Bandalaguda Uppal Mandal, Undergreater Hyderabad municipal Corp., 500068",T Ganesh,T Ganesh,Pavan Grandhi,"Sy No 39&40 Bandalaguda Uppal Mandal, Undergreater Hyderabad municipal Corp., 500068",Reliance Projects & Property Management Services Limited,Telangana,36AAJCR6636B1ZD,Hyderabad
,282,Telangana,Hyderabad,Trends Women,TTW3,Chikkadpally,Reliance Projects & Property Management Services Limited,36AAJCR6636B1ZD,36,"TRENDS WOMEN CHIKKADPALLY H.NO 1-8-509 TO 518/12 & 3 CHIKKADPALLY MAIN ROAD, AMBEDKAR CLG ROAD JUNCTION HYDERABAD-500020",Zumer Mohammad,Zumer Mohammad,Pavan Grandhi,"TRENDS WOMEN CHIKKADPALLY H.NO 1-8-509 TO 518/12 & 3 CHIKKADPALLY MAIN ROAD, AMBEDKAR CLG ROAD JUNCTION HYDERABAD-500020",Reliance Projects & Property Management Services Limited,Telangana,36AAJCR6636B1ZD,Hyderabad
,283,Telangana,Hyderabad,Digital,TUC5,Nagole,Reliance Projects & Property Management Services Limited,36AAJCR6636B1ZD,36,"RRL CDIT -Nagole Hyd, SY No 102/3/B, Nagole Village Uppal Manda, Ranga Reddy, Hyderabad, Telangana 500035",T Ganesh,T Ganesh,Pavan Grandhi,"RRL CDIT -Nagole Hyd, SY No 102/3/B, Nagole Village Uppal Manda, Ranga Reddy, Hyderabad, Telangana 500035",Reliance Projects & Property Management Services Limited,Telangana,36AAJCR6636B1ZD,Hyderabad
,284,Telangana,Hyderabad,Avantra Trends,TYCY,DSL Mall,Reliance Projects & Property Management Services Limited,36AAJCR6636B1ZD,36,"Avantra by Trends DSL Virtue Mall Near Cricket Stadium, Uppal, Hyderabad, Telangana",T Ganesh,T Ganesh,Pavan Grandhi,"Avantra by Trends DSL Virtue Mall Near Cricket Stadium, Uppal, Hyderabad, Telangana",Reliance Projects & Property Management Services Limited,Telangana,36AAJCR6636B1ZD,Hyderabad
,285,Telangana,Hyderabad,Yousta,TZB0,Nagole Yousta,Reliance Projects & Property Management Services Limited,36AAJCR6636B1ZD,36,"Plot Nos.6,7 & 8 (Part) in Sy.No.101/18 situate at Nagole Village ,Uppal Revenue Mandal,  Hyderabad – 500068,Telangana",T Ganesh,T Ganesh,Pavan Grandhi,"Plot Nos.6,7 & 8 (Part) in Sy.No.101/18 situate at Nagole Village ,Uppal Revenue Mandal,  Hyderabad – 500068,Telangana",Reliance Projects & Property Management Services Limited,Telangana,36AAJCR6636B1ZD,Hyderabad
,286,Telangana,Hyderabad,Smart Point,U26Y,SP Karnati Complex pochanpalle,Reliance Projects & Property Management Services Limited,36AAJCR6636B1ZD,36,"Sy.No: 435, Karnati Complex,MG Road, Behind Canara Bank,Dist-Nalgonda,508284",T Ganesh,T Ganesh,Pavan Grandhi,"Sy.No: 435, Karnati Complex,MG Road, Behind Canara Bank,Dist-Nalgonda,508284",Reliance Projects & Property Management Services Limited,Telangana,36AAJCR6636B1ZD,Hyderabad
,287,Telangana,Hyderabad,Smart Point,U3AP,SP OU Colony,Reliance Projects & Property Management Services Limited,36AAJCR6636B1ZD,36,Sri Ram Property Plot No 276 & 277 Sy No751 & 752 O U Colony Road No 4 Korremal Vlg & G P Ghatkesar Mandal Malkajgiri HYDERABAD 500039 Telangana,T Ganesh,T Ganesh,Pavan Grandhi,Sri Ram Property Plot No 276 & 277 Sy No751 & 752 O U Colony Road No 4 Korremal Vlg & G P Ghatkesar Mandal Malkajgiri HYDERABAD 500039 Telangana,Reliance Projects & Property Management Services Limited,Telangana,36AAJCR6636B1ZD,Hyderabad
,288,Telangana,Karimnagar,Trends Small Town,T1CO,Manchiryal,Reliance Projects & Property Management Services Limited,36AAJCR6636B1ZD,36,"Ground and 1st Floor Sy No:983,Chennur Dist:Mancherial-504201",Ravi Kumar,Ravi Kumar,Katukoori Sairam,"Ground and 1st Floor Sy No:983,Chennur Dist:Mancherial-504201",Reliance Projects & Property Management Services Limited,Telangana,36AAJCR6636B1ZD,Karimnagar
,289,Telangana,Sangareddy,RELIANCE DIGITAL MINI,7529,Sangareddy,Reliance Projects & Property Management Services Limited,36AAJCR6636B1ZD,36,"MY JIO STORE, DOOR NO 5 2 32, BESIDE DISTRICT COURT, SANGAREDDY 502001",M Shivaji,M Shivaji,Amarender Reddy,"MY JIO STORE, DOOR NO 5 2 32, BESIDE DISTRICT COURT, SANGAREDDY 502001",Reliance Projects & Property Management Services Limited,Telangana,36AAJCR6636B1ZD,Sangareddy
,290,Telangana,KAMAREDDY,RELIANCE DIGITAL MINI,6650,VIVEKANANDA COLONY,Reliance Projects & Property Management Services Limited,36AAJCR6636B1ZD,36,"MY JIO STORE, H.NO.5-5-74 , VIVEKANANDA COLONY, MAIN ROAD KAMAREDDY NIZAMABAD. PIN: 503111",M Shivaji,M Shivaji,Amarender Reddy,"MY JIO STORE, H.NO.5-5-74 , VIVEKANANDA COLONY, MAIN ROAD KAMAREDDY NIZAMABAD. PIN: 503111",Reliance Projects & Property Management Services Limited,Telangana,36AAJCR6636B1ZD,KAMAREDDY
,291,Telangana,HYDERABAD,RELIANCE DIGITAL MINI,7569,HYDER NAGAR,Reliance Projects & Property Management Services Limited,36AAJCR6636B1ZD,36,"MY JIO STORE, HNO: 1 2 45/4, HYDERNAGAR, NIZAMPET ROAD, HYDERABAD 500072",Sravan Kumar,Sravan Kumar,Amarender Reddy,"MY JIO STORE, HNO: 1 2 45/4, HYDERNAGAR, NIZAMPET ROAD, HYDERABAD 500072",Reliance Projects & Property Management Services Limited,Telangana,36AAJCR6636B1ZD,HYDERABAD
,292,Telangana,HYDERABAD,RELIANCE DIGITAL MINI,6311,SANJEEVA REDDY NAGAR,Reliance Projects & Property Management Services Limited,36AAJCR6636B1ZD,36,"MY JIO STORE, SHOP NO 3, HOUSE NO 15/M8B, SANJEEVA REDDY NAGAR, HYDERABAD 500038",G.Suresh,G.Suresh,Hareesh Bhumireddy,"MY JIO STORE, SHOP NO 3, HOUSE NO 15/M8B, SANJEEVA REDDY NAGAR, HYDERABAD 500038",Reliance Projects & Property Management Services Limited,Telangana,36AAJCR6636B1ZD,HYDERABAD
,293,Telangana,HYDERABAD,RELIANCE DIGITAL MINI,7576,MIYAPUR,Reliance Projects & Property Management Services Limited,36AAJCR6636B1ZD,36,"MY JIO STORE, D NO 2 80/6, IN SY NO 210, MIYAPUR, SERILINGAMPALLY MANDAL & MUNICIPALITY, RANGA REDDY DISTRICT, HYDERABAD 500049",G.Suresh,G.Suresh,Hareesh Bhumireddy,"MY JIO STORE, D NO 2 80/6, IN SY NO 210, MIYAPUR, SERILINGAMPALLY MANDAL & MUNICIPALITY, RANGA REDDY DISTRICT, HYDERABAD 500049",Reliance Projects & Property Management Services Limited,Telangana,36AAJCR6636B1ZD,HYDERABAD
,294,Telangana,NIZAMABAD,RELIANCE DIGITAL MINI,6808,VINAYAK NAGAR,Reliance Projects & Property Management Services Limited,36AAJCR6636B1ZD,36,"MY JIO STORE, H NO 1 13 384, VINAYAK NAGAR, HYDERABAD ROAD, NIZAMABAD 503001",Karpe Srinivas,Karpe Srinivas,Jakku. Shankar,"MY JIO STORE, H NO 1 13 384, VINAYAK NAGAR, HYDERABAD ROAD, NIZAMABAD 503001",Reliance Projects & Property Management Services Limited,Telangana,36AAJCR6636B1ZD,NIZAMABAD
,295,Telangana,NIZAMABAD,RELIANCE DIGITAL MINI,6735,SARASWATHI NAGAR,Reliance Projects & Property Management Services Limited,36AAJCR6636B1ZD,36,"MY JIO STORE, H. NO. 5 6 361, SARASWATHI NAGAR, NIZAMABAD 503003",Karpe Srinivas,Karpe Srinivas,Jakku. Shankar,"MY JIO STORE, H. NO. 5 6 361, SARASWATHI NAGAR, NIZAMABAD 503003",Reliance Projects & Property Management Services Limited,Telangana,36AAJCR6636B1ZD,NIZAMABAD
,296,Telangana,ADILABAD,RELIANCE DIGITAL MINI,6904,HAMEEDPURA,Reliance Projects & Property Management Services Limited,36AAJCR6636B1ZD,36,"MY JIO STORE, H.NO: 4-4-75/2,HAMEED PURA,NEAR NETAJI CHOWK, ADILABAD, TELANGANA 504001",V. Ajay,V. Ajay,Jakku. Shankar,"MY JIO STORE, H.NO: 4-4-75/2,HAMEED PURA,NEAR NETAJI CHOWK, ADILABAD, TELANGANA 504001",Reliance Projects & Property Management Services Limited,Telangana,36AAJCR6636B1ZD,ADILABAD
,297,Telangana,ARMUR,RELIANCE DIGITAL MINI,3756,NH-16 ROAD MAMIDIPALLY,Reliance Projects & Property Management Services Limited,36AAJCR6636B1ZD,36,"MY JIO STORE, SHOP/UNIT/SY NO 99/AA G P NO 4-71/B-9 (PART), NH-16 ROAD MAMIDIPALLY, ARMOOR NIZAMABAD DISTRICT, ARMUR 503224",V. Ajay,V. Ajay,Jakku. Shankar,"MY JIO STORE, SHOP/UNIT/SY NO 99/AA G P NO 4-71/B-9 (PART), NH-16 ROAD MAMIDIPALLY, ARMOOR NIZAMABAD DISTRICT, ARMUR 503224",Reliance Projects & Property Management Services Limited,Telangana,36AAJCR6636B1ZD,ARMUR
,298,Telangana,NIRMAL,RELIANCE DIGITAL MINI,T51D,NIRMAL RELIANCE DIGITAL MINI,Reliance Projects & Property Management Services Limited,36AAJCR6636B1ZD,36,"H.No.1, 2-28/2B, Shop No.2, Nirmal Town, Telangana, Mandal & Dist. 504106.",V. Ajay,V. Ajay,Jakku. Shankar,"H.No.1, 2-28/2B, Shop No.2, Nirmal Town, Telangana, Mandal & Dist. 504106.",Reliance Projects & Property Management Services Limited,Telangana,36AAJCR6636B1ZD,NIRMAL
,299,Telangana,GODAVARIKHANI,RELIANCE DIGITAL MINI,6410,GODAVARI KHANI,Reliance Projects & Property Management Services Limited,36AAJCR6636B1ZD,36,"MY JIO STORE, H.N 18 5 188/A, LAKSHMI NAGAR, GODAVARI KHANI, KARIMNAGAR DISTRICT ALAKNANDA SHOPPING COMPLEX, NEAR TARA. PIN 505209",M Shivaji,M Shivaji,Katukoori Sairam,"MY JIO STORE, H.N 18 5 188/A, LAKSHMI NAGAR, GODAVARI KHANI, KARIMNAGAR DISTRICT ALAKNANDA SHOPPING COMPLEX, NEAR TARA. PIN 505209",Reliance Projects & Property Management Services Limited,Telangana,36AAJCR6636B1ZD,GODAVARIKHANI
,300,Telangana,SIRSILLA,RELIANCE DIGITAL MINI,6921,SANGJIVAYA ROAD,Reliance Projects & Property Management Services Limited,36AAJCR6636B1ZD,36,"MY JIO STORE, H.NO:2-7-80,KARIMNAGAR ROAD SANGJIVAYA ROAD,SIRSILLA 505301",Ravi Kumar,Ravi Kumar,Katukoori Sairam,"MY JIO STORE, H.NO:2-7-80,KARIMNAGAR ROAD SANGJIVAYA ROAD,SIRSILLA 505301",Reliance Projects & Property Management Services Limited,Telangana,36AAJCR6636B1ZD,SIRSILLA
,301,Telangana,KAGHAZNAGAR,RELIANCE DIGITAL MINI,3873,KAGHAZNAGAR,Reliance Projects & Property Management Services Limited,36AAJCR6636B1ZD,36,"MY JIO STORE, GROUND FLOOR H NO 1-1-31 & 1-1-31/A, KOTHAPET KAGHANAGAR, ADILABAD DISTRICT TELANGANA, KAGHAZNAGAR 504296",M Shivaji,M Shivaji,Katukoori Sairam,"MY JIO STORE, GROUND FLOOR H NO 1-1-31 & 1-1-31/A, KOTHAPET KAGHANAGAR, ADILABAD DISTRICT TELANGANA, KAGHAZNAGAR 504296",Reliance Projects & Property Management Services Limited,Telangana,36AAJCR6636B1ZD,KAGHAZNAGAR
,302,Telangana,KARIMNAGAR,RELIANCE DIGITAL MINI,6436,KARIMNAGAR,Reliance Projects & Property Management Services Limited,36AAJCR6636B1ZD,36,"MY JIO STORE, H NO. 2 6 289, NEAR INSPECTION BUNGLOW, CAPTAIN VIJAY RAGHUNADHAN ROAD,KARIMNAGAR, TELANGANA 505001",Ravi Kumar,Ravi Kumar,Katukoori Sairam,"MY JIO STORE, H NO. 2 6 289, NEAR INSPECTION BUNGLOW, CAPTAIN VIJAY RAGHUNADHAN ROAD,KARIMNAGAR, TELANGANA 505001",Reliance Projects & Property Management Services Limited,Telangana,36AAJCR6636B1ZD,KARIMNAGAR
,303,Telangana,HYDERABAD,RELIANCE DIGITAL MINI,7578,CHILAKGUDA,Reliance Projects & Property Management Services Limited,36AAJCR6636B1ZD,36,"MY JIO STORE, HILTON PLATINUM, SHOP NO 3, GROUND FLOOR, 11 1 690/91/1, CHILAKAGUDA, HYDERABAD 500061",Suman Naik Banoth,Suman Naik Banoth,Paruchuri Rajesh,"MY JIO STORE, HILTON PLATINUM, SHOP NO 3, GROUND FLOOR, 11 1 690/91/1, CHILAKAGUDA, HYDERABAD 500061",Reliance Projects & Property Management Services Limited,Telangana,36AAJCR6636B1ZD,HYDERABAD
,304,Telangana,HYDERABAD,RELIANCE DIGITAL MINI,7529,DILSUKHNAGAR,Reliance Projects & Property Management Services Limited,36AAJCR6636B1ZD,36,"MY JIO STORE, ADJ RELIANCE TRENDS, MALKPET, DILSUKHNAGAR, HYDERABAD 500036",Suman Naik Banoth,Suman Naik Banoth,Paruchuri Rajesh,"MY JIO STORE, ADJ RELIANCE TRENDS, MALKPET, DILSUKHNAGAR, HYDERABAD 500036",Reliance Projects & Property Management Services Limited,Telangana,36AAJCR6636B1ZD,HYDERABAD
,305,Telangana,HYDERABAD,RELIANCE DIGITAL MINI,7672,DILSUKHNAGAR,Reliance Projects & Property Management Services Limited,36AAJCR6636B1ZD,36,"MY JIO STORE, H NO 13 4 30, MAIN ROAD, VIKAS NAGAR, DILSUKHNAGAR, HYDERABAD 500060",Suman Naik Banoth,Suman Naik Banoth,Paruchuri Rajesh,"MY JIO STORE, H NO 13 4 30, MAIN ROAD, VIKAS NAGAR, DILSUKHNAGAR, HYDERABAD 500060",Reliance Projects & Property Management Services Limited,Telangana,36AAJCR6636B1ZD,HYDERABAD
,306,Telangana,HYDERABAD,RELIANCE DIGITAL MINI,7835,ALWAL,Reliance Projects & Property Management Services Limited,36AAJCR6636B1ZD,36,"MY JIO STORE, NO 5 1 104/5, ANNAPURNA CLY, MALLAPUR, RR DIST, HYDERABAD, 500076",Zumer Mohammad,Zumer Mohammad,Paruchuri Rajesh,"MY JIO STORE, NO 5 1 104/5, ANNAPURNA CLY, MALLAPUR, RR DIST, HYDERABAD, 500076",Reliance Projects & Property Management Services Limited,Telangana,36AAJCR6636B1ZD,HYDERABAD
,307,Telangana,HYDERABAD,RELIANCE DIGITAL MINI,TY19,HABSIGUDA,Reliance Projects & Property Management Services Limited,36AAJCR6636B1ZD,36,"MY JIO STORE, GROUND FLOOR STREET NO 8, HABSIGUDA UPPAL MANDA, MEDCHAL MALKAJGIRI DISTRICT, HYDERABAD",Suman Naik Banoth,Suman Naik Banoth,Paruchuri Rajesh,"MY JIO STORE, GROUND FLOOR STREET NO 8, HABSIGUDA UPPAL MANDA, MEDCHAL MALKAJGIRI DISTRICT, HYDERABAD",Reliance Projects & Property Management Services Limited,Telangana,36AAJCR6636B1ZD,HYDERABAD
,308,Telangana,HYDERABAD,RELIANCE DIGITAL MINI,TJQ9,AMBERPET,Reliance Projects & Property Management Services Limited,36AAJCR6636B1ZD,36,"MY JIO STORE, GF SHOP NO 6, H NO 2 3 528/C/1 C/2, BAGH AMBERPET HYD, HYDERABAD",Suman Naik Banoth,Suman Naik Banoth,Paruchuri Rajesh,"MY JIO STORE, GF SHOP NO 6, H NO 2 3 528/C/1 C/2, BAGH AMBERPET HYD, HYDERABAD",Reliance Projects & Property Management Services Limited,Telangana,36AAJCR6636B1ZD,HYDERABAD
,309,Telangana,HYDERABAD,RELIANCE DIGITAL MINI,6262,NARAYANAGUDA,Reliance Projects & Property Management Services Limited,36AAJCR6636B1ZD,36,"MY JIO STORE, SURVEY NO 35, FEROZGUDA VILLAGE, URBAN TALUQ, NARAYANGUDA, HYDERABAD 500029",Suman Naik Banoth,Suman Naik Banoth,Pavan Grandhi,"MY JIO STORE, SURVEY NO 35, FEROZGUDA VILLAGE, URBAN TALUQ, NARAYANGUDA, HYDERABAD 500029",Reliance Projects & Property Management Services Limited,Telangana,36AAJCR6636B1ZD,HYDERABAD
,310,Telangana,HYDERABAD,RELIANCE DIGITAL MINI,7558,AMBERPET,Reliance Projects & Property Management Services Limited,36AAJCR6636B1ZD,36,"MY JIO STORE, HNO: 2 3 70/1/6, SRISAI APARTMENTS, PADMAYALA COLONY, POLICE LINE, AMBERPET, HYDERABAD 500013",Suman Naik Banoth,Suman Naik Banoth,Pavan Grandhi,"MY JIO STORE, HNO: 2 3 70/1/6, SRISAI APARTMENTS, PADMAYALA COLONY, POLICE LINE, AMBERPET, HYDERABAD 500013",Reliance Projects & Property Management Services Limited,Telangana,36AAJCR6636B1ZD,HYDERABAD
,311,Telangana,HYDERABAD,RELIANCE DIGITAL MINI,7656,BODUPPAL,Reliance Projects & Property Management Services Limited,36AAJCR6636B1ZD,36,"MY JIO STORE, H NO 1 22/ 39, PLOT NO 39, PEERZADIGUDA, BODUPPAL, HYDERABAD 500039",T Ganesh,T Ganesh,Pavan Grandhi,"MY JIO STORE, H NO 1 22/ 39, PLOT NO 39, PEERZADIGUDA, BODUPPAL, HYDERABAD 500039",Reliance Projects & Property Management Services Limited,Telangana,36AAJCR6636B1ZD,HYDERABAD
,312,Telangana,HYDERABAD,RELIANCE DIGITAL MINI,7927,RAMNAGAR,Reliance Projects & Property Management Services Limited,36AAJCR6636B1ZD,36,"MY JIO STORE, MUNICIPAL NO 1 9 18, RAM NAGAR, HYDERABAD 500020",Suman Naik Banoth,Suman Naik Banoth,Pavan Grandhi,"MY JIO STORE, MUNICIPAL NO 1 9 18, RAM NAGAR, HYDERABAD 500020",Reliance Projects & Property Management Services Limited,Telangana,36AAJCR6636B1ZD,HYDERABAD
,313,Telangana,HUZURNAGAR,RELIANCE DIGITAL MINI,TW84,CHILKANAGAR,Reliance Projects & Property Management Services Limited,36AAJCR6636B1ZD,36,"MY JIO STORE, GROUND FLOOR H NO 2-20, SY NO 54 CHILKNAGAR, UPPAL KALAN VILLAGE RANGA REDDY, HUZURNAGAR",Suman Naik Banoth,Suman Naik Banoth,Pavan Grandhi,"MY JIO STORE, GROUND FLOOR H NO 2-20, SY NO 54 CHILKNAGAR, UPPAL KALAN VILLAGE RANGA REDDY, HUZURNAGAR",Reliance Projects & Property Management Services Limited,Telangana,36AAJCR6636B1ZD,HUZURNAGAR
,314,Telangana,HYDERABAD,RELIANCE DIGITAL MINI,7530,MOULA ALI,Reliance Projects & Property Management Services Limited,36AAJCR6636B1ZD,36,"MY JIO STORE, H NO 3 5 246/3, ROAD NO 5, KRISHNA NAGAR, HB COLONY, MOULA ALI, OPP RAMA TEA POINT, HYDERABAD 500040",Sravan Alampally,Sravan Alampally,Santhosh Reddy,"MY JIO STORE, H NO 3 5 246/3, ROAD NO 5, KRISHNA NAGAR, HB COLONY, MOULA ALI, OPP RAMA TEA POINT, HYDERABAD 500040",Reliance Projects & Property Management Services Limited,Telangana,36AAJCR6636B1ZD,HYDERABAD
,315,Telangana,HYDERABAD,RELIANCE DIGITAL MINI,7969,QUTHABULLAPUR,Reliance Projects & Property Management Services Limited,36AAJCR6636B1ZD,36,"MY JIO STORE, 48 310, GANESH NAGAR, HMT ROAD, CHINTAL, QUTHABULLAPUR, HYDERABAD 500054",Sravan Alampally,Sravan Alampally,Santhosh Reddy,"MY JIO STORE, 48 310, GANESH NAGAR, HMT ROAD, CHINTAL, QUTHABULLAPUR, HYDERABAD 500054",Reliance Projects & Property Management Services Limited,Telangana,36AAJCR6636B1ZD,HYDERABAD
,316,Telangana,HYDERABAD,RELIANCE DIGITAL MINI,7786,BOWENPALLY RDX MINI,Reliance Projects & Property Management Services Limited,36AAJCR6636B1ZD,36,"MY JIO STORE, NO 111, THOKATTA VILLAGE, BOWENPALLY, SECUNDERABAD CANTONMENT, HYDERABAD 500011",Sravan Alampally,Sravan Alampally,Santhosh Reddy,"MY JIO STORE, NO 111, THOKATTA VILLAGE, BOWENPALLY, SECUNDERABAD CANTONMENT, HYDERABAD 500011",Reliance Projects & Property Management Services Limited,Telangana,36AAJCR6636B1ZD,HYDERABAD
,317,Telangana,HYDERABAD,RELIANCE DIGITAL MINI,7566,ANANDBAGH,Reliance Projects & Property Management Services Limited,36AAJCR6636B1ZD,36,"MY JIO STORE, HNO: 25 40/32/A, ADJ: RELIANCE FRESH, ANANDBAGH (E), MALAKAGIRI, HYDERABAD 500059",Sravan Alampally,Sravan Alampally,Santhosh Reddy,"MY JIO STORE, HNO: 25 40/32/A, ADJ: RELIANCE FRESH, ANANDBAGH (E), MALAKAGIRI, HYDERABAD 500059",Reliance Projects & Property Management Services Limited,Telangana,36AAJCR6636B1ZD,HYDERABAD
,318,Telangana,HYDERABAD,RELIANCE DIGITAL MINI,TEZ6,KUSHAIGUDA,Reliance Projects & Property Management Services Limited,36AAJCR6636B1ZD,36,"MY JIO STORE, GF P NO 7A 7B COVERED SY NO 252/1, NAGARJUNA NAGAR, KUSHAIGUDA KAPRA MANDAL, HYDERABAD",Sravan Alampally,Sravan Alampally,Santhosh Reddy,"MY JIO STORE, GF P NO 7A 7B COVERED SY NO 252/1, NAGARJUNA NAGAR, KUSHAIGUDA KAPRA MANDAL, HYDERABAD",Reliance Projects & Property Management Services Limited,Telangana,36AAJCR6636B1ZD,HYDERABAD
,319,Telangana,HYDERABAD,RELIANCE DIGITAL MINI,TJR0,ECIL X Road,Reliance Projects & Property Management Services Limited,36AAJCR6636B1ZD,36,"MY JIO STORE, GF H NO 1 7 213 PLOT NO 60/A SY NO 316, KAMALANAGAR HOUSING COLONY ECIL X ROAD, KAPARA VILLAGE AND MANDAL RANGA REDDY DI",Sravan Alampally,Sravan Alampally,Santhosh Reddy,"MY JIO STORE, GF H NO 1 7 213 PLOT NO 60/A SY NO 316, KAMALANAGAR HOUSING COLONY ECIL X ROAD, KAPARA VILLAGE AND MANDAL RANGA REDDY DI",Reliance Projects & Property Management Services Limited,Telangana,36AAJCR6636B1ZD,HYDERABAD
